X,Y,施設名,施設名かな,施設名（施設名かな）,所在地,地区名,TEL,FAX,詳細情報,開館時間,URL,バリアフリー情報,駐輪場 PC,駐輪場 携,大分類,小分類,カテゴリ,アイコン番号,施設ID
135.511406,34.72937,淀川キリスト教病院,よどがわきりすときょうびょういん,淀川キリスト教病院（よどがわきりすときょうびょういん）,東淀川区柴島１丁目７－５０,東淀川区,0120-364-489,,,,,,,,医療・福祉,病院・診療所,医療・福祉/病院・診療所,136,95437
135.480711,34.730759,共立外科内科,きょうりつげかないか,共立外科内科（きょうりつげかないか）,淀川区新高１丁目１１－６,淀川区,06-6392-5991,,,,,,,,医療・福祉,病院・診療所,医療・福祉/病院・診療所,136,95434
135.523417,34.738575,医誠会病院,いせいかいびょういん,医誠会病院（いせいかいびょういん）,東淀川区菅原６丁目２－２５,東淀川区,06-6326-1121,,,,,,,,医療・福祉,病院・診療所,医療・福祉/病院・診療所,136,95435
135.535589,34.746944,白山病院,しらやまびょういん,白山病院（しらやまびょういん）,東淀川区豊新５丁目１５－２５,東淀川区,06-6327-0871,,,,,,,,医療・福祉,病院・診療所,医療・福祉/病院・診療所,136,95436
135.513879,34.598384,阪和記念病院,はんわきねんびょういん,阪和記念病院（はんわきねんびょういん）,住吉区苅田７丁目１１－１１,住吉区,06-6696-5591,,,,,,,,医療・福祉,病院・診療所,医療・福祉/病院・診療所,136,95438
135.505376,34.605336,阪和住吉総合病院,はんわすみよしそうごうびょういん,阪和住吉総合病院（はんわすみよしそうごうびょういん）,住吉区南住吉３丁目２－９,住吉区,06-6692-1001,,,,,,,,医療・福祉,病院・診療所,医療・福祉/病院・診療所,136,95439
135.53955,34.639848,小山病院,こやまびょういん,小山病院（こやまびょういん）,東住吉区今林２丁目２－１,東住吉区,06-6751-9551,,,,,,,,医療・福祉,病院・診療所,医療・福祉/病院・診療所,136,95440
135.526266,34.623214,東和病院,とうわびょういん,東和病院（とうわびょういん）,東住吉区田辺４丁目１３－１５,東住吉区,06-6621-2211,,,,,,,,医療・福祉,病院・診療所,医療・福祉/病院・診療所,136,95441
135.527676,34.611025,東住吉森本病院,ひがしすみよしもりもとびょういん,東住吉森本病院（ひがしすみよしもりもとびょういん）,東住吉区鷹合３丁目２－６６,東住吉区,06-6606-0010,,,,,,,,医療・福祉,病院・診療所,医療・福祉/病院・診療所,136,95442
135.551151,34.67783789,矢木脳神経外科病院,やぎのうしんけいげかびょういん,矢木脳神経外科病院（やぎのうしんけいげかびょういん）,東成区東今里２丁目１２－１３,東成区,06-6978-2307,,,,http://www.kouzenkai.or.jp/yagi-hp/,,,,医療・福祉,病院・診療所,医療・福祉/病院・診療所,136,95433
135.507748,34.669118,原田病院,はらだびょういん,原田病院（はらだびょういん）,中央区島之内２丁目１７－１５,中央区,06-6211-1006,,,,,,,,医療・福祉,病院・診療所,医療・福祉/病院・診療所,136,95429
135.509327,34.666433,日本橋病院,にっぽんばしびょういん,日本橋病院（にっぽんばしびょういん）,中央区高津３丁目２－２２,中央区,06-6643-2022,,,,,,,,医療・福祉,病院・診療所,医療・福祉/病院・診療所,136,95430
135.513174,34.668417,高津病院,こうずびょういん,高津病院（こうずびょういん）,中央区瓦屋町３丁目２－７,中央区,06-6761-1421,,,,,,,,医療・福祉,病院・診療所,医療・福祉/病院・診療所,136,95431
135.519474,34.689347,大手前病院,おおてまえびょういん,大手前病院（おおてまえびょういん）,中央区大手前１丁目５－３４,中央区,06-6941-0484,,,,,,,,医療・福祉,病院・診療所,医療・福祉/病院・診療所,136,95432
135.4823472,34.69205614,JCHO 大阪病院,じぇいしーえいちおー おおさかびょういん,JCHO 大阪病院（じぇいしーえいちおー おおさかびょういん）,福島区福島4-2-78,福島区,06-6441-5451,,,,,,,,医療・福祉,病院・診療所,医療・福祉/病院・診療所,136,3562
135.4842781,34.69081414,医療法人啓信会　中之島いわき病院,いりょうほうじんけいしんかい　なかのしまいわきびょういん,医療法人啓信会　中之島いわき病院（いりょうほうじんけいしんかい　なかのしまいわきびょういん）,福島区福島3-2-9,福島区,06-6458-3151,,,,,,,,医療・福祉,病院・診療所,医療・福祉/病院・診療所,136,3558
135.525305,34.698843,聖和病院,せいわびょういん,聖和病院（せいわびょういん）,都島区中野町１丁目７－３２,都島区,06－6352－2525,,区内救急病院,,,,,,医療・福祉,病院・診療所,医療・福祉/病院・診療所,136,95427
135.531238,34.713634,神原病院,かんばらびょういん,神原病院（かんばらびょういん）,都島区高倉町１丁目１０－５,都島区,06－6923－3351,,区内救急病院,,,,,,医療・福祉,病院・診療所,医療・福祉/病院・診療所,136,95425
135.532247,34.69782,明生病院,めいせいびょういん,明生病院（めいせいびょういん）,都島区東野田町２丁目４－８,都島区,06－6353－3121,,区内救急病院,,,,,,医療・福祉,病院・診療所,医療・福祉/病院・診療所,136,95428
135.533985,34.69901,協和病院,きょうわびょういん,協和病院（きょうわびょういん）,都島区東野田町５丁目２－２５,都島区,06－6357－1131,,区内救急病院,,,,,,医療・福祉,病院・診療所,医療・福祉/病院・診療所,136,95426
135.435762,34.654004,大阪みなと中央病院,おおさかみなとちゅうおうびょういん,大阪みなと中央病院（おおさかみなとちゅうおうびょういん）,港区築港１丁目８－３０,港区,06－6572－5721,,,,,,,,医療・福祉,病院・診療所,医療・福祉/病院・診療所,136,95424
135.5235219,34.70773914,大阪市立総合医療センター,おおさかしりつそうごういりょうせんたー,大阪市立総合医療センター（おおさかしりつそうごういりょうせんたー）,都島区都島本通2-13-22,都島区,06-6929-1221,,,,http://www.osakacity-hp.or.jp/ocgh/,,,,医療・福祉,病院・診療所,医療・福祉/病院・診療所,136,2996
135.4858061,34.62074981,大阪市立住吉市民病院,おおさかしりつすみよししみんびょういん,大阪市立住吉市民病院（おおさかしりつすみよししみんびょういん）,住之江区東加賀屋1‐2‐16,住之江区,06-6681-1000,,,,http://www.osakacity-hp.or.jp/sumiyoshi/,,,,医療・福祉,病院・診療所,医療・福祉/病院・診療所,136,9187
135.4769499,34.72832197,大阪市立十三市民病院,おおさかしりつじゅうそうしみんびょういん,大阪市立十三市民病院（おおさかしりつじゅうそうしみんびょういん）,淀川区野中北2-12-27,淀川区,06-6150-8000,,,,http://www.osakacity-hp.or.jp/juso/,,,,医療・福祉,病院・診療所,医療・福祉/病院・診療所,136,2567
135.555818,34.715499,真心会病院,しんしんかいびょういん,真心会病院（しんしんかいびょういん）,旭区新森２丁目２４－２０,旭区,06-6953-1346,06-6953-1347,,9:00～17:00　ただし診療科によって異なる,http://www11.ocn.ne.jp/~sin1346/index.html,,,,医療・福祉,病院・診療所,医療・福祉/病院・診療所,136,95423
135.55577,34.625892,医療法人　植田産婦人科,いりょうほうじん　うえださんふじんか,医療法人　植田産婦人科（いりょうほうじん　うえださんふじんか）,平野区平野宮町２丁目８－８,平野区,06-6791-1726,06-6791-1727,,,,,,,医療・福祉,病院・診療所,医療・福祉/病院・診療所,136,95422
135.567641,34.606634,長吉総合病院,ながよしそうごうびょういん,長吉総合病院（ながよしそうごうびょういん）,平野区長吉長原１丁目２－３４,平野区,06-6709-0301,06-6709-5920,,,,,,,医療・福祉,病院・診療所,医療・福祉/病院・診療所,136,95419
135.543263,34.621585,緑風会病院,りょくふうかいびょういん,緑風会病院（りょくふうかいびょういん）,平野区背戸口１丁目１８－１３,平野区,06-6705-1021,,,,,,,,医療・福祉,病院・診療所,医療・福祉/病院・診療所,136,95421
135.552294,34.608851,平野若葉会病院,ひらのわかばかいびょういん,平野若葉会病院（ひらのわかばかいびょういん）,平野区瓜破２丁目１－１９,平野区,06-6799-1010,06-6799-1081,,,,,,,医療・福祉,病院・診療所,医療・福祉/病院・診療所,136,95420
135.556816,34.608166,医療法人正和病院,いりょうほうじんせいわびょういん,医療法人正和病院（いりょうほうじんせいわびょういん）,平野区瓜破東１丁目５－５,平野区,06-6709-8886,06-6708-7671,,,,,,,医療・福祉,病院・診療所,医療・福祉/病院・診療所,136,95418
135.484858,34.608036,友愛会病院,ゆうあいかいびょういん,友愛会病院（ゆうあいかいびょういん）,住之江区浜口西３丁目５－１０,住之江区,06-6672-3121,06-6675-8903,,,,,,,医療・福祉,病院・診療所,医療・福祉/病院・診療所,136,95416
135.476393,34.62136,南港病院,なんこうびょういん,南港病院（なんこうびょういん）,住之江区北加賀屋２丁目１１－１５,住之江区,06-6685-8801,,,,,,,,医療・福祉,病院・診療所,医療・福祉/病院・診療所,136,95414
135.48254,34.618597,南大阪病院,みなみおおさかびょういん,南大阪病院（みなみおおさかびょういん）,住之江区東加賀屋１丁目１８－１８,住之江区,06-6685-0221,06-6685-0008,,,,,,,医療・福祉,病院・診療所,医療・福祉/病院・診療所,136,95415
135.477785,34.664849,ほくとクリニック病院,ほくとくりにっくびょういん,ほくとクリニック病院（ほくとくりにっくびょういん）,大正区三軒家西１丁目１８－７,大正区,06-6554-1399,06-6554-3199,,基本となる診療時間間  9:00-11:30 ,https://www.mfis.pref.osaka.jp/ap/qq/dtl/pwdetaillt01_002.aspx?kikancd=1270005620,,,,医療・福祉,病院・診療所,医療・福祉/病院・診療所,136,95413
135.567169,34.689184,新協和病院,しんきょうわびょういん,新協和病院（しんきょうわびょういん）,鶴見区今津南1-5-8,鶴見区,06-6969-3500,,,,,,,,医療・福祉,病院・診療所,医療・福祉/病院・診療所,136,95193
135.560657,34.702362,本田病院,ほんだびょういん,本田病院（ほんだびょういん）,鶴見区鶴見4-1-30,鶴見区,06-6939-6251,,,,,,,,医療・福祉,病院・診療所,医療・福祉/病院・診療所,136,95194
135.573424,34.703231,和田病院,わだびょういん,和田病院（わだびょういん）,鶴見区横堤3-10-18,鶴見区,06-6911-0003,,,,,,,,医療・福祉,病院・診療所,医療・福祉/病院・診療所,136,95195
135.563017,34.702195,コープおおさか病院,こーぷおおさかびょういん,コープおおさか病院（こーぷおおさかびょういん）,鶴見区鶴見3-6-22,鶴見区,06-6914-1100,,,,,,,,医療・福祉,病院・診療所,医療・福祉/病院・診療所,136,95196
135.5658603,34.69052442,藍の都脳神経外科病院,あいのみやこのうしんけいげかびょういん,藍の都脳神経外科病院（あいのみやこのうしんけいげかびょういん）,鶴見区放出東 2-21-16,鶴見区,06-6965-1800,,,,,,,,医療・福祉,病院・診療所,医療・福祉/病院・診療所,136,95197
135.4650843,34.68441961,大阪暁明館病院,おおさかぎょうめいかんびょういん,大阪暁明館病院（おおさかぎょうめいかんびょういん）,此花区西九条5－4－8,此花区,6462-0261,6462-0362,,,,,,,医療・福祉,病院・診療所,医療・福祉/病院・診療所,136,1350
135.4849541,34.66559064,有田医院（病児保育施設）,ありたいいん（びょうじほいくしせつ）,有田医院（病児保育施設）（ありたいいん（びょうじほいくしせつ））,浪速区桜川４丁目１１－１６,浪速区,６５６２－１６０５,,,,,,,,医療・福祉,病院・診療所,医療・福祉/病院・診療所,134,95018
135.5538859,34.66732508,公道会病院,こうどうかいびょういん,公道会病院（こうどうかいびょういん）,東成区大今里南5-5-23,東成区,06-6976-3081,06-6971-7293,介護療養型医療施設,,http://kodokai.or.jp/kodokai-hospital/,,,,医療・福祉,病院・診療所,医療・福祉/病院・診療所,136,3429
135.5385833,34.62304403,中野休日急病診療所,なかのきゅうじつきゅうびょうしんりょうしょ,中野休日急病診療所（なかのきゅうじつきゅうびょうしんりょうしょ）,東住吉区中野2丁目1番20号,東住吉区,06-6705-1612,,,,http://www.city.osaka.lg.jp/kenko/page/0000007901.html ,http://www.osaka-bfmap.jp/sisetu_data/data/220901.php?bunrui=1&amp;name=22.php,,,医療・福祉,病院・診療所,医療・福祉/病院・診療所,136,3314
135.5423441,34.66763317,今里休日急病診療所,いまざときゅうじつきゅうびょうしんりょうしょ,今里休日急病診療所（いまざときゅうじつきゅうびょうしんりょうしょ）,東成区大今里西3丁目6番6号,東成区,06-6972-0767,,,,http://www.city.osaka.lg.jp/kenko/page/0000007895.html ,,,,医療・福祉,病院・診療所,医療・福祉/病院・診療所,136,3416
135.4866254,34.71995153,十三休日急病診療所,じゅうそうきゅうじつきゅうびょうしんりょうしょ,十三休日急病診療所（じゅうそうきゅうじつきゅうびょうしんりょうしょ）,淀川区十三東1丁目11番26号,淀川区,06-6304-7883,,,,http://www.city.osaka.lg.jp/kenko/page/0000007897.html ,,,,医療・福祉,病院・診療所,医療・福祉/病院・診療所,136,9186
135.4990922,34.60810283,沢之町休日急病診療所,さわのちょうきゅうじつきゅうびょうしんりょうしょ,沢之町休日急病診療所（さわのちょうきゅうじつきゅうびょうしんりょうしょ）,住吉区千躰2丁目2番6号,住吉区,06-6672-6021,,,,http://www.city.osaka.lg.jp/kenko/page/0000007907.html ,,,,医療・福祉,病院・診療所,医療・福祉/病院・診療所,136,398
135.4646811,34.68350806,西九条休日急病診療所,にしくじょうきゅうじつきゅうびょうしんりょうしょ,西九条休日急病診療所（にしくじょうきゅうじつきゅうびょうしんりょうしょ）,此花区西九条5丁目4番25号,此花区,06-6464-2111,,,,http://www.city.osaka.lg.jp/kenko/page/0000007904.html ,http://www.osaka-bfmap.jp/sisetu_data/data/040902.php?bunrui=1&amp;name=4.php,,,医療・福祉,病院・診療所,医療・福祉/病院・診療所,136,1278
135.5260808,34.705544,都島休日急病診療所,みやこじまきゅうじつきゅうびょうしんりょうしょ,都島休日急病診療所（みやこじまきゅうじつきゅうびょうしんりょうしょ）,都島区都島南通1丁目24番23号,都島区,06-6928-3333,,,,http://www.city.osaka.lg.jp/kenko/page/0000007899.html ,,,,医療・福祉,病院・診療所,医療・福祉/病院・診療所,136,2991
135.4850024,34.67638603,中央急病診療所,ちゅうおうきゅうびょうしんりょうしょ,中央急病診療所（ちゅうおうきゅうびょうしんりょうしょ）,西区新町4丁目10番13号,西区,06-6534-0321,,,,http://www.city.osaka.lg.jp/kenko/page/0000007881.html ,http://www.osaka-bfmap.jp/sisetu_data/data/060901.php?bunrui=1&amp;name=6.php,,,医療・福祉,病院・診療所,医療・福祉/病院・診療所,136,2095
135.5003643,34.64914992,大阪社会医療センター付属病院,おおさかしゃかいいりょうせんたーふぞくびょういん,大阪社会医療センター付属病院（おおさかしゃかいいりょうせんたーふぞくびょういん）,西成区萩之茶屋1丁目3番44号,西成区,06-6649-0321,06-6645-5410,病院,,http://www12.ocn.ne.jp/~osmc/,,,,医療・福祉,病院・診療所,医療・福祉/病院・診療所,136,3623
135.4791914,34.678603,大阪掖済会病院,おおさかえきさいかいびょういん,大阪掖済会病院（おおさかえきさいかいびょういん）,西区本田2-1-10,西区,06-6581-2881,,,,,,,,医療・福祉,病院・診療所,医療・福祉/病院・診療所,136,2098
135.4745793,34.66859969,多根総合病院,たねそうごうびょういん,多根総合病院（たねそうごうびょういん）,西区九条南1－12－21,西区,06-6581-1071,,,,,,,,医療・福祉,病院・診療所,医療・福祉/病院・診療所,136,2092
135.509583,34.60062789,あびこ病院,あびこびょういん,あびこ病院（あびこびょういん）,住吉区我孫子3丁目3番20号,住吉区,06-6691-1155,06-6698-8054,区内救急病院,,http://www.abikohp.sumiyoshi.osaka.jp/,,,,医療・福祉,病院・診療所,医療・福祉/病院・診療所,136,1525
135.5051249,34.61679989,大阪府立急性期・総合医療センター,おおさかふりつきゅうせいき・そうごういりょうせんたー,大阪府立急性期・総合医療センター（おおさかふりつきゅうせいき・そうごういりょうせんたー）,住吉区万代東3丁目1番56号,住吉区,06-6692-1201,06-6602-7000,区内救急病院,,http://www.gh.opho.jp,,,,医療・福祉,病院・診療所,医療・福祉/病院・診療所,136,502
135.4818082,34.62882203,山本第三病院,やまもとだいさんびょういん,山本第三病院（やまもとだいさんびょういん）,西成区南津守4-5-20,西成区,06-6658-6611,06-6652-9553,,,,,,,医療・福祉,病院・診療所,医療・福祉/病院・診療所,136,3622
135.4954642,34.64175,千本病院,せんぼんびょういん,千本病院（せんぼんびょういん）,西成区松1-1-31,西成区,06-6657-3711,06-6652-2322,,,,,,,医療・福祉,病院・診療所,医療・福祉/病院・診療所,136,3619
135.4969282,34.64796383,大和中央病院,だいわちゅうおうびょういん,大和中央病院（だいわちゅうおうびょういん）,西成区長橋1-2-7,西成区,06-6632-6181,06-6632-6133,,,,,,,医療・福祉,病院・診療所,医療・福祉/病院・診療所,136,3620
135.4996831,34.64265611,杏林記念病院,きょうりんきねんびょういん,杏林記念病院（きょうりんきねんびょういん）,西成区天下茶屋1-18-24,西成区,06-6652-5111,,,,,,,,医療・福祉,病院・診療所,医療・福祉/病院・診療所,136,3624
135.5086081,34.646767,市立大学医学部附属病院,しりつだいがくいがくぶふぞくびょういん,市立大学医学部附属病院（しりつだいがくいがくぶふぞくびょういん）,阿倍野区旭町1-5-7,阿倍野区,06-6645-2121,,,,http://www.med.osaka-cu.ac.jp/hosp/,,,,医療・福祉,病院・診療所,医療・福祉/病院・診療所,136,1712
135.5500921,34.63610817,生野愛和病院,いくのあいわびょういん,生野愛和病院（いくのあいわびょういん）,生野区巽南5丁目7番64号,生野区,06-6791-7800,,,,,,,,医療・福祉,病院・診療所,医療・福祉/病院・診療所,136,768
135.5398391,34.64250014,大生病院,たいせいびょういん,大生病院（たいせいびょういん）,生野区田島6丁目4番1号,生野区,06-6758-3301,,,,,,,,医療・福祉,病院・診療所,医療・福祉/病院・診療所,136,102
135.540108,34.64721114,村田病院,むらたびょういん,村田病院（むらたびょういん）,生野区田島4丁目2番1号,生野区,06-6757-0011,,,,,,,,医療・福祉,病院・診療所,医療・福祉/病院・診療所,136,774
135.4686946,34.67311106,吉川病院,よしかわびょういん,吉川病院（よしかわびょういん）,西区九条南3-29-14,西区,06-6583-4114,,,,,,,,医療・福祉,病院・診療所,医療・福祉/病院・診療所,136,2094
135.4883609,34.64929697,藤田記念病院,ふじたきねんびょういん,藤田記念病院（ふじたきねんびょういん）,西成区長橋3-6-45,西成区,06-6567-0881,,,,,,,,医療・福祉,病院・診療所,医療・福祉/病院・診療所,136,3626
135.488553,34.65744403,浪速生野病院,なにわいくのびょういん,浪速生野病院（なにわいくのびょういん）,浪速区浪速東2-13-19,浪速区,06-6561-1021,06-6567-2521,,,http://naniwaikuno.web.fc2.com/index.html,,,,医療・福祉,病院・診療所,医療・福祉/病院・診療所,136,2683
135.5059691,34.65898911,若弘会病院,わかこうかいびょういん,若弘会病院（わかこうかいびょういん）,浪速区日本橋4-7-17,浪速区,06-6632-0358,06-6644-1099,,,http://www.wakakoukai.or.jp/0405w_right3041.htm,,,,医療・福祉,病院・診療所,医療・福祉/病院・診療所,136,2636
135.5049969,34.65751903,愛染橋病院,あいぜんばしびょういん,愛染橋病院（あいぜんばしびょういん）,浪速区日本橋5-16-15,浪速区,06-6633-2801,06-6634-3180,,,http://www.aizenen.or.jp/byouin/index.html,,,,医療・福祉,病院・診療所,医療・福祉/病院・診療所,136,2645
135.5212359,34.65885314,大阪警察病院,おおさかけいさつびょういん,大阪警察病院（おおさかけいさつびょういん）,天王寺区北山町10‐31,天王寺区,06-6771-6051,,,,http://www.oph.gr.jp/,,,,医療・福祉,病院・診療所,医療・福祉/病院・診療所,136,2921
135.5249752,34.65712519,ＮＴＴ西日本大阪病院,えぬてぃてぃにしにほんおおさかびょういん,ＮＴＴ西日本大阪病院（えぬてぃてぃにしにほんおおさかびょういん）,天王寺区烏ヶ辻2-6‐40,天王寺区,06-6773-7111,,,,http://www.ntt-west.co.jp/osaka-hosp/,,,,医療・福祉,病院・診療所,医療・福祉/病院・診療所,136,2922
135.47315,34.668983,多根記念眼科病院,たねきねんがんかびょういん,多根記念眼科病院（たねきねんがんかびょういん）,西区境川1-1-39,西区,06-6581-5800,,,,,,,,医療・福祉,病院・診療所,医療・福祉/病院・診療所,136,2091
135.4949252,34.66708606,富永病院,とみながびょういん,富永病院（とみながびょういん）,浪速区湊町1-4-48,浪速区,06-6568-1601,06-6568-1608,,,http://www.tominaga.or.jp/,,,,医療・福祉,病院・診療所,医療・福祉/病院・診療所,136,2666
135.4894329,34.66899186,なにわ病院,なにわびょういん,なにわ病院（なにわびょういん）,浪速区幸町2-3-11,浪速区,06-6568-2681,06-6568-0818,,,,,,,医療・福祉,病院・診療所,医療・福祉/病院・診療所,136,2613
135.493414,34.67026706,大野記念病院,おおのきねんびょういん,大野記念病院（おおのきねんびょういん）,西区南堀江1-26-10,西区,06-6531-1815,,,,,,,,医療・福祉,病院・診療所,医療・福祉/病院・診療所,136,2096
135.4758456,34.67458161,内藤病院,ないとうびょういん,内藤病院（ないとうびょういん）,西区九条1-15-23,西区,06-6581-0085,,,,,,,,医療・福祉,病院・診療所,医療・福祉/病院・診療所,136,2093
135.4955059,34.67380589,北堀江病院,きたほりえびょういん,北堀江病院（きたほりえびょういん）,西区北堀江1-10-6,西区,06-6531-3038,,,,,,,,医療・福祉,病院・診療所,医療・福祉/病院・診療所,136,2097
135.5254191,34.66466892,大阪赤十字病院,おおさかせきじゅうじびょういん,大阪赤十字病院（おおさかせきじゅうじびょういん）,天王寺区筆ヶ崎町5‐30,天王寺区,06-6774-5111,,,,http://www.osaka-med.jrc.or.jp/,,,,医療・福祉,病院・診療所,医療・福祉/病院・診療所,136,2920
135.4716671,34.68606906,医療法人燦恵会首藤病院,いりょうほうじんさんけいかいしゅとうびょういん,医療法人燦恵会首藤病院（いりょうほうじんさんけいかいしゅとうびょういん）,福島区野田5-18-16,福島区,06-6461-1537,,,,,,,,医療・福祉,病院・診療所,医療・福祉/病院・診療所,136,3574
135.4385779,34.700953,名取病院,なとりびょういん,名取病院（なとりびょういん）,西淀川区大野2丁目1番３２号,西淀川区,06-6474-0506,,,,,,,,医療・福祉,病院・診療所,医療・福祉/病院・診療所,136,3791
135.4845058,34.67986697,日生病院,にっせいびょういん,日生病院（にっせいびょういん）,西区立売堀6-3-8,西区,06-6543-3581,,,,,,,,医療・福祉,病院・診療所,医療・福祉/病院・診療所,136,2099
135.4863189,34.68359411,山梨病院,やまなしびょういん,山梨病院（やまなしびょういん）,西区京町堀3-9-12,西区,06-6448-3031,,,,,,,,医療・福祉,病院・診療所,医療・福祉/病院・診療所,136,2090
135.4752891,34.69201403,医療法人藤田会フジタ病院,いりょうほうじんふじたかいふじたびょういん,医療法人藤田会フジタ病院（いりょうほうじんふじたかいふじたびょういん）,福島区吉野2-10-11,福島区,06-6441-1181,,,,,,,,医療・福祉,病院・診療所,医療・福祉/病院・診療所,136,3519
135.4871172,34.68893911,住友病院,すみともびょういん,住友病院（すみともびょういん）,北区中之島5-3-20,北区,06-6443-1261,,,,,,,,医療・福祉,病院・診療所,医療・福祉/病院・診療所,136,1802
135.4866941,34.69271386,関西電力病院,かんさいでんりょくびょういん,関西電力病院（かんさいでんりょくびょういん）,福島区福島2-1-7,福島区,06-6458-5821,,,,,,,,医療・福祉,病院・診療所,医療・福祉/病院・診療所,136,3556
135.5197308,34.68008231,国立病院機構　大阪医療センター,こくりつびょいんきこう　おおさかいりょうせんたー,国立病院機構　大阪医療センター（こくりつびょいんきこう　おおさかいりょうせんたー）,中央区法円坂2-1-14,中央区,06-6942-1331,06-6943-6467,,,http://www.onh.go.jp/mokuji/mokuji.html,,,,医療・福祉,病院・診療所,医療・福祉/病院・診療所,136,29711
135.474486,34.69561914,医療法人友愛会松本病院,いりょうほうじんゆうあいかいまつもとびょういん,医療法人友愛会松本病院（いりょうほうじんゆうあいかいまつもとびょういん）,福島区海老江2-1-36,福島区,06-6458-7171,,,,,,,,医療・福祉,病院・診療所,医療・福祉/病院・診療所,136,3502
135.4911691,34.69908117,大阪中央病院,おおさかちゅうおうびょういん,大阪中央病院（おおさかちゅうおうびょういん）,北区梅田3-3-30,北区,06-4795-5505,,,,,,,,医療・福祉,病院・診療所,医療・福祉/病院・診療所,136,1798
135.4944563,34.69911108,桜橋渡辺病院,さくらばしわたなべびょういん,桜橋渡辺病院（さくらばしわたなべびょういん）,北区梅田2-4-32,北区,06-6341-8651,,,,,,,,医療・福祉,病院・診療所,医療・福祉/病院・診療所,136,1801
135.5065033,34.70571386,大阪北逓信病院,おおさかきたていしんびょういん,大阪北逓信病院（おおさかきたていしんびょういん）,北区中崎1-1-6,北区,06-6361-2071,,,,,,,,医療・福祉,病院・診療所,医療・福祉/病院・診療所,136,1797
135.5068247,34.70521683,北野病院,きたのびょういん,北野病院（きたのびょういん）,北区扇町2-4-20,北区,06-6312-1221,,,,,,,,医療・福祉,病院・診療所,医療・福祉/病院・診療所,136,1800
135.5303442,34.65181914,相生病院,あいおいびょういん,相生病院（あいおいびょういん）,生野区生野西3丁目2番5号,生野区,06-6731-0201,,,,,,,,医療・福祉,病院・診療所,医療・福祉/病院・診療所,136,4770
135.5395811,34.65351692,アエバ外科病院,あえばげかびょういん,アエバ外科病院（あえばげかびょういん）,生野区勝山南4丁目6番5号,生野区,06-6715-0771,,,,,,,,医療・福祉,病院・診療所,医療・福祉/病院・診療所,136,766
135.5404812,34.65292539,共和病院,きょうわびょういん,共和病院（きょうわびょういん）,生野区勝山南4丁目16番10号,生野区,06-6718-2221,,,,,,,,医療・福祉,病院・診療所,医療・福祉/病院・診療所,136,771
135.5434692,34.65326717,新大阪病院,しんおおさかびょういん,新大阪病院（しんおおさかびょういん）,生野区田島1丁目16番6号,生野区,06-6758-1631,,,,,,,,医療・福祉,病院・診療所,医療・福祉/病院・診療所,136,773
135.5408612,34.65701397,生野病院,いくのびょういん,生野病院（いくのびょういん）,生野区中川西3丁目4番7号,生野区,06-6712-3451,,,,,,,,医療・福祉,病院・診療所,医療・福祉/病院・診療所,136,767
135.5455248,34.65818592,生野中央病院,いくのちゅうおうびょういん,生野中央病院（いくのちゅうおうびょういん）,生野区中川5丁目4番2号,生野区,06-6751-3731,,,,,,,,医療・福祉,病院・診療所,医療・福祉/病院・診療所,136,769
135.554947,34.65587194,育和会記念病院,いくわかいきねんびょういん,育和会記念病院（いくわかいきねんびょういん）,生野区巽北3丁目20番29号,生野区,06-6758-8000,,,,,,,,医療・福祉,病院・診療所,医療・福祉/病院・診療所,136,770
135.540717,34.67051383,東成病院,ひがしなりびょういん,東成病院（ひがしなりびょういん）,東成区大今里西2丁目7番17号,東成区,06-6981-2508,,,,http://www.occn.zaq.ne.jp/higashinari-hosp/,,,,医療・福祉,病院・診療所,医療・福祉/病院・診療所,136,3408
135.5349465,34.67465622,岩木病院,いわきびょういん,岩木病院（いわきびょういん）,東成区中道3丁目15番21号,東成区,06-6971-5851,,,,,,,,医療・福祉,病院・診療所,医療・福祉/病院・診療所,136,3438
135.5365378,34.67442719,中本病院,なかもとびょういん,中本病院（なかもとびょういん）,東成区中道4丁目13番12号,東成区,06-6972-2121,06-6972-2111,,,http://www.nakamoto.or.jp/,,,,医療・福祉,病院・診療所,医療・福祉/病院・診療所,136,3442
135.5370297,34.67416825,西眼科病院,にしがんかびょういん,西眼科病院（にしがんかびょういん）,東成区中道4丁目14番26号,東成区,06-6981-1132,,,,http://www.nishi-ganka.or.jp/,,,,医療・福祉,病院・診療所,医療・福祉/病院・診療所,136,3443
135.5460328,34.672506,朋愛病院,ほうあいびょういん,朋愛病院（ほうあいびょういん）,東成区大今里1丁目25番11号,東成区,06-6973-1122,,,,http://www.houai.or.jp/houai/,,,,医療・福祉,病院・診療所,医療・福祉/病院・診療所,136,3384
135.5589423,34.66809714,外科野崎病院,げかのざきびょういん,外科野崎病院（げかのざきびょういん）,東成区深江南2丁目20番15号,東成区,06-6971-3506,06-6971-3754,,,http://www.nozaki-hospital.com/,,,,医療・福祉,病院・診療所,医療・福祉/病院・診療所,136,3341
135.5573967,34.67096117,内藤病院,ないとうびょういん,内藤病院（ないとうびょういん）,東成区深江南2丁目7番23号,東成区,06-6971-3480,,,,http://www.naito-hp.com/,,,,医療・福祉,病院・診療所,医療・福祉/病院・診療所,136,3342
135.5355468,34.68068361,府立成人病センター,ふりつせいじんびょうせんたー,府立成人病センター（ふりつせいじんびょうせんたー）,東成区中道1丁目3番3号,東成区,06-6972-1181,,,,http://www.mc.pref.osaka.jp/,,,,医療・福祉,病院・診療所,医療・福祉/病院・診療所,136,3432
135.538685,34.68297361,森之宮病院,もりのみやびょういん,森之宮病院（もりのみやびょういん）,城東区森之宮2-1-88,城東区,06-6969-0111,06-6969-8001,救急告示病院,,http://www.omichikai.or.jp/morinomiya_h/index.htm,,,,医療・福祉,病院・診療所,医療・福祉/病院・診療所,136,5195
135.5457148,34.68774953,サトウ病院,さとうびょういん,サトウ病院（さとうびょういん）,城東区東中浜1-2-23,城東区,06-6961-3191,,,,http://www.sato-hos.or.jp/,,,,医療・福祉,病院・診療所,医療・福祉/病院・診療所,136,4481
135.5464694,34.68726681,ボバース記念病院,ぼばーすきねんびょういん,ボバース記念病院（ぼばーすきねんびょういん）,城東区東中浜1-6-5,城東区,06-6962-3131,06-6962-8064,,,http://www.omichikai.or.jp/bobath/,,,,医療・福祉,病院・診療所,医療・福祉/病院・診療所,136,4484
135.5446671,34.69167389,城東中央病院,じょうとうちゅうおうびょういん,城東中央病院（じょうとうちゅうおうびょういん）,城東区鴫野西5-13-47,城東区,06-6962-0015,06-6962-5309,救急告示病院,,http://www.jouto.com/,,,,医療・福祉,病院・診療所,医療・福祉/病院・診療所,136,5137
135.5435999,34.70105789,東大阪病院,ひがしおおさかびょういん,東大阪病院（ひがしおおさかびょういん）,城東区中央1-7-22,城東区,06-6939-1121,,救急告示病院,,http://www.yurin.or.jp/,,,,医療・福祉,病院・診療所,医療・福祉/病院・診療所,136,6
135.5522063,34.70615583,関目病院,せきめびょういん,関目病院（せきめびょういん）,城東区関目2-13-13,城東区,06-6931-3211,06-6931-9193,,,http://www.sekime-hp.jp/,,,,医療・福祉,病院・診療所,医療・福祉/病院・診療所,136,4483
135.5549214,34.70677322,済生会野江病院,さいせいかいのえびょういん,済生会野江病院（さいせいかいのえびょういん）,城東区古市1-3-25,城東区,06-6932-0401,06-6932-7977,救急告示病院,,http://www.noe.saiseikai.or.jp/index.html,,,,医療・福祉,病院・診療所,医療・福祉/病院・診療所,136,5119
135.4459668,34.71193283,千船病院,ちぶねびょういん,千船病院（ちぶねびょういん）,西淀川区佃２丁目２番４５号,西淀川区,06-6471-9541,,,,,,,,医療・福祉,病院・診療所,医療・福祉/病院・診療所,136,3790
135.4590029,34.71148314,西淀病院,にしよどびょういん,西淀病院（にしよどびょういん）,西淀川区野里３丁目５番２２号,西淀川区,06-6472-1141,,,,,,,,医療・福祉,病院・診療所,医療・福祉/病院・診療所,136,3793
135.4589247,34.70822211,安田病院,やすだびょういん,安田病院（やすだびょういん）,西淀川区姫里２丁目１７番２１号,西淀川区,06-6471-0015,,,,,,,,医療・福祉,病院・診療所,医療・福祉/病院・診療所,136,3794
135.4690813,34.71079194,西大阪病院,にしおおさかびょういん,西大阪病院（にしおおさかびょういん）,西淀川区柏里１丁目１４番１３号,西淀川区,06-6475-0001,,,,,,,,医療・福祉,病院・診療所,医療・福祉/病院・診療所,136,3792
135.4548028,34.71930286,第一病院,だいいちびょういん,第一病院（だいいちびょういん）,西淀川区御幣島６丁目２番２号,西淀川区,06-6474-1201,,急患は常時受付,,,,,,医療・福祉,病院・診療所,医療・福祉/病院・診療所,136,3789
135.4602688,34.72948292,桂寿病院,けいじゅびょういん,桂寿病院（けいじゅびょういん）,淀川区加島2-4-8,淀川区,06-6309-3581,,,,,,,,医療・福祉,病院・診療所,医療・福祉/病院・診療所,136,2436
135.4948888,34.70820292,大阪府済生会中津病院,おおさかふさいせいかいなかつびょういん,大阪府済生会中津病院（おおさかふさいせいかいなかつびょういん）,北区芝田2-10-39,北区,06-6372-0333,,,,,,,,医療・福祉,病院・診療所,医療・福祉/病院・診療所,136,1799
135.508792,34.70999183,行岡病院,ゆきおかびょういん,行岡病院（ゆきおかびょういん）,北区浮田2-2-3,北区,06-6371-9921,,,,,,,,医療・福祉,病院・診療所,医療・福祉/病院・診療所,136,1804
135.5117531,34.71224189,加納総合病院,かのうそうごうびょういん,加納総合病院（かのうそうごうびょういん）,北区天神橋7-5-26,北区,06-6351-5381,,,,,,,,医療・福祉,病院・診療所,医療・福祉/病院・診療所,136,1803
135.4862919,34.72595017,十三病院,じゅうそうびょういん,十三病院（じゅうそうびょういん）,淀川区木川西3-4-15,淀川区,06-6303-8731,,,,http://www.yodomed.jp/hp/index.asp?facid=567,,,,医療・福祉,病院・診療所,医療・福祉/病院・診療所,136,2548
135.4870438,34.73658081,東淀川病院,ひがしよどがわびょういん,東淀川病院（ひがしよどがわびょういん）,淀川区三国本町3-18-3,淀川区,06-6394-0551,,,,,,,,医療・福祉,病院・診療所,医療・福祉/病院・診療所,136,2449
135.4902441,34.73415314,北大阪病院,きたおおさかびょういん,北大阪病院（きたおおさかびょういん）,淀川区西宮原2-7-17,淀川区,06-6395-1601,,,,,,,,医療・福祉,病院・診療所,医療・福祉/病院・診療所,136,2506
135.4990686,34.73531697,大阪回生病院,おおさかかいせいびょういん,大阪回生病院（おおさかかいせいびょういん）,淀川区宮原1-6-10,淀川区,06-6393-6234,06‐6393‐8592,,,http://www.yodomed.jp/hp/index.asp?facid=10025,,,,医療・福祉,病院・診療所,医療・福祉/病院・診療所,136,487
135.4900217,34.73929408,革島病院,かわしまびょういん,革島病院（かわしまびょういん）,淀川区西三国2-7-1,淀川区,06-6391-1431,,,,http://www.yodomed.jp/hp/index.asp?facid=569,,,,医療・福祉,病院・診療所,医療・福祉/病院・診療所,136,53
135.4925219,34.74196114,貴生病院,きせいびょういん,貴生病院（きせいびょういん）,淀川区西三国1-18-4,淀川区,06-6392-0007,,,,,,,,医療・福祉,病院・診療所,医療・福祉/病院・診療所,136,2508
135.5572748,34.70840303,すみれ病院,すみれびょういん,すみれ病院（すみれびょういん）,城東区古市１-20-85,城東区,06-6934-5611,06-6931-4002,,,http://www.sumire-hosp.com/,,,,医療・福祉,病院・診療所,医療・福祉/病院・診療所,136,4482
135.5595251,34.71673883,中野こども病院,なかのこどもびょういん,中野こども病院（なかのこどもびょういん）,旭区新森4-13-17,旭区,06-6952-4771,,小児科，アレルギー科，循環器科，放射線科，神経内科，心療内科,,http://www.nakano-kodomo.or.jp/,,,,医療・福祉,病院・診療所,医療・福祉/病院・診療所,136,1891
135.5627314,34.71967206,牧病院,まきびょういん,牧病院（まきびょういん）,旭区新森7-10-28,旭区,06-6953-0120,,整形外科，外科，内科，神経内科，リハビリテーション科，放射線科，麻酔科,,http://www.maki-group.jp/,,,,医療・福祉,病院・診療所,医療・福祉/病院・診療所,136,1908
135.5307942,34.72819386,北村医院,きたむらいいん,北村医院（きたむらいいん）,旭区赤川4-17-5,旭区,06-6921-4061,,内科，皮膚科、リハビリテーション科,,http://www.myclinic.ne.jp/kitamura_iin/,,,,医療・福祉,病院・診療所,医療・福祉/病院・診療所,136,3803
135.5506358,34.72493608,福島病院,ふくしまびょういん,福島病院（ふくしまびょういん）,旭区千林2-4-22,旭区,06-6953-2940,,内科，消化器科，外科，整形外科，脳神経外科，皮膚科，放射線科，麻酔科，リハビリテーション科,,http://www.fukushima-hosp.or.jp/,,,,医療・福祉,病院・診療所,医療・福祉/病院・診療所,136,1927
135.5501062,34.72970808,藤立病院,ふじたてびょういん,藤立病院（ふじたてびょういん）,旭区大宮5-4-24,旭区,06-6955-1221,,内科・外科・整形外科・脳神経外科・消化器科・循環器科・神経内科・皮膚科・麻酔科・リハビリテーション科・アレルギー科・リウマチ科・放射線科・形成外科・心療内科,,http://www.fujitate.jp/,,,,医療・福祉,病院・診療所,医療・福祉/病院・診療所,136,891
135.4265551,34.63128014,浜本小児科（病児保育施設）,,浜本小児科（病児保育施設）（）,住之江区南港中2－1－99,住之江区,６６１２－３１７５,,,,,,,,医療・福祉,病院・診療所,医療・福祉/病院・診療所,134,19404
135.4689971,34.64024711,中山製鋼所附属病院,,中山製鋼所附属病院（）,大正区南恩加島4-5-1,大正区,06-6551-0848,,,,,,,,医療・福祉,病院・診療所,医療・福祉/病院・診療所,136,3933
135.4707751,34.64748903,串田病院,,串田病院（）,大正区小林西1-1-1,大正区,06-6552-2471,,,,,,,,医療・福祉,病院・診療所,医療・福祉/病院・診療所,136,3826
135.4923629,34.64191408,西成民主診療所（病児保育施設）,,西成民主診療所（病児保育施設）（）,西成区松２－１－３５,西成区,６６５６－６１０５,,,,,,,,医療・福祉,病院・診療所,医療・福祉/病院・診療所,134,19406
135.5594968,34.630402,中谷小児内科クリニック（病児保育施設）,,中谷小児内科クリニック（病児保育施設）（）,平野区加美正覚寺2－10－29,平野区,６７９６－３１７５,,,,,,,,医療・福祉,病院・診療所,医療・福祉/病院・診療所,134,19405
135.466414,34.649406,済生会泉尾病院,,済生会泉尾病院（）,大正区北村3-4-5,大正区,06-6552-0091,,,,,,,,医療・福祉,病院・診療所,医療・福祉/病院・診療所,136,3966
135.4756327,34.66010006,大正病院,,大正病院（）,大正区三軒家東5-5-16,大正区,06-6552-0621,,,,,,,,医療・福祉,病院・診療所,医療・福祉/病院・診療所,136,3823
135.4776014,34.69037133,くまだ内科クリニック（病児保育施設）,,くまだ内科クリニック（病児保育施設）（）,福島区玉川４－１３－２２,福島区,６４４５－６００５,,,,,,,,医療・福祉,病院・診療所,医療・福祉/病院・診療所,134,19402
135.5468501,34.74127058,藤本クリニック（病児保育施設）,,藤本クリニック（病児保育施設）（）,東淀川区豊里5－21－15,東淀川区,6325-3850,,,,,,,,医療・福祉,病院・診療所,医療・福祉/病院・診療所,134,19415
135.5123332,34.80780914,大阪市立弘済院附属病院,,大阪市立弘済院附属病院（）,吹田市古江台6-2-1,大阪市以外,06-6871-8013,,,,,,,,医療・福祉,病院・診療所,医療・福祉/病院・診療所,136,37770
135.4486887,34.65507206,海の子学園大阪市立入舟寮,おおさかしりついりふねりょう,海の子学園大阪市立入舟寮（おおさかしりついりふねりょう）,港区池島3-7-18,港区,06-6571-1000,06-6573-9102,児童養護施設,,,,,,医療・福祉,福祉施設,医療・福祉/福祉施設,138,2022
135.4761832,34.721642,清心館,せいしんかん,清心館（せいしんかん）,淀川区十三元今里3-1-72,淀川区,06-6889-0013,,グループホーム,,http://www.hakuaisha-welfare.net/korei/group.html,,,,医療・福祉,福祉施設,医療・福祉/福祉施設,144,2575
135.4761859,34.722964,はくあい,はくあい,はくあい（はくあい）,淀川区十三元今里3-1-88,淀川区,06-6301-8908,,ケアハウス,,http://www.hakuaisha-welfare.net/korei/care.html,,,,医療・福祉,福祉施設,医療・福祉/福祉施設,142,2470
135.4761562,34.72286692,博愛の園,はくあいのその,博愛の園（はくあいのその）,淀川区十三元今里3-1-88,淀川区,06-6301-8901,,介護老人福祉施設,,http://www.hakuaisha-welfare.net/korei/index.html,,,,医療・福祉,福祉施設,医療・福祉/福祉施設,142,2471
135.4761892,34.72218283,あすなろの家,あすなろのいえ,あすなろの家（あすなろのいえ）,淀川区十三元今里3-1-72,淀川区,06-6304-7300,,身体障害者作業所,,,,,,医療・福祉,福祉施設,医療・福祉/福祉施設,141,2581
135.4954359,34.72919203,リ・リブホーム,りりぶほーむ,リ・リブホーム（りりぶほーむ）,淀川区西中島6-11-31,淀川区,06-6301-1051,,グループホーム,,http://yushin-kai.or.jp/re_livehome.php,,,,医療・福祉,福祉施設,医療・福祉/福祉施設,144,2576
135.5274808,34.62060603,東住吉区老人福祉センター,ひがしすみよしくろうじんふくしせんたー,東住吉区老人福祉センター（ひがしすみよしくろうじんふくしせんたー）,東住吉区東田辺2丁目11番28号,東住吉区,06-6699-3000,06-6697-6686,,,http://www.osaka-sishakyo.jp/soudan/roujin_ichiran.html,http://www.osaka-bfmap.jp/sisetu_data/data/221101.php?bunrui=3&name=search_name.php,,,医療・福祉,福祉施設,医療・福祉/福祉施設,142,3130
135.4423724,34.70291456,西淀川特別養護老人ホーム,にしよどがわとくべつようごろうじんほーむ,西淀川特別養護老人ホーム（にしよどがわとくべつようごろうじんほーむ）,西淀川区大和田２丁目５番１１号,西淀川区,06-6477-6565,06-6477-6560,,,,,,,医療・福祉,福祉施設,医療・福祉/福祉施設,142,3783
135.4414393,34.70607203,フェリス大和田,ふぇりすおおわだ,フェリス大和田（ふぇりすおおわだ）,西淀川区大和田６丁目１３番４８号,西淀川区,06-6474-6668,06-6474-6758,,,,,,,医療・福祉,福祉施設,医療・福祉/福祉施設,142,3784
135.4389889,34.70083117,セレーナなとり,せれーななとり,セレーナなとり（せれーななとり）,西淀川区大野2丁目1番35号,西淀川区,06-6474-9732,06-6474-0513,,,,,,,医療・福祉,福祉施設,医療・福祉/福祉施設,142,3786
135.5414359,34.69000608,座座,ざざ,座座（ざざ）,城東区鴫野西4-17-23,城東区,06-4258-6013,06-4258-6013,知的障害者小規模通所授産施設,,,,,,医療・福祉,福祉施設,医療・福祉/福祉施設,141,4490
135.5380113,34.70676103,障害者福祉作業センターわかまつ園,しょうがいしゃふくしさぎょうせんたーわかまつえん,障害者福祉作業センターわかまつ園（しょうがいしゃふくしさぎょうせんたーわかまつえん）,城東区野江3-10-22,城東区,06-6930-0300,06-6930-0325,障害者福祉作業センター（身体障害のある方）,,http://www.wakamatsuen.jp/,,,,医療・福祉,福祉施設,医療・福祉/福祉施設,138,4368
135.5570154,34.70569575,みどり福祉作業所,みどりふくしさぎょうじょ,みどり福祉作業所（みどりふくしさぎょうじょ）,城東区古市1-14-5,城東区,06-6933-3986,,障害者福祉作業センター（知的障害のある方）,,,,,,医療・福祉,福祉施設,医療・福祉/福祉施設,138,4495
135.5579984,34.70791083,すみれ愛育館,すみれあいいくかん,すみれ愛育館（すみれあいいくかん）,城東区古市1-19-15,城東区,06-6931-3872,,知的障害児施設,,http://www.sumire-ai.or.jp/,,,,医療・福祉,福祉施設,医療・福祉/福祉施設,141,4487
135.5587469,34.70730308,すみれ共同作業所,すみれきょうどうさぎょうじょ,すみれ共同作業所（すみれきょうどうさぎょうじょ）,城東区古市1-21-38,城東区,06-6934-4607,06-6934-8698,知的障害者更生施設（通所）,,http://www.sekime-gakuen.net/sagyousyo/,,,,医療・福祉,福祉施設,医療・福祉/福祉施設,141,4488
135.55555,34.71390297,フォーワーク福祉作業所,ふぉーわーくふくしさぎょうしょ,フォーワーク福祉作業所（ふぉーわーくふくしさぎょうしょ）,城東区古市3-5-2,城東区,06-6939-8998,,障害者福祉作業センター（身体障害のある方）,,,,,,医療・福祉,福祉施設,医療・福祉/福祉施設,138,5101
135.5493867,34.69512761,なかま作業所,なかまさぎょうじょ,なかま作業所（なかまさぎょうじょ）,城東区新喜多東1-11-33,城東区,06-6968-9503,06-6968-9503,知的障害者小規模通所授産施設,,,,,,医療・福祉,福祉施設,医療・福祉/福祉施設,141,4491
135.548054,34.69083592,あ・うん,あ・うん,あ・うん（あ・うん）,城東区鴫野東3-18-5,城東区,06-6965-7171,,身体・知的障害者デイサービス施設,,,,,,医療・福祉,福祉施設,医療・福祉/福祉施設,141,4494
135.5434126,34.68216844,自立支援センターおおさかひがし,じりつしえんせんたーおおさかひがし,自立支援センターおおさかひがし（じりつしえんせんたーおおさかひがし）,城東区中浜3-17-17,城東区,06-4258-1122,06-4258-1122,,,http://www15.ocn.ne.jp/~nonki/syuhentizu/osakahigasi.html,,,,医療・福祉,福祉施設,医療・福祉/福祉施設,141,4497
135.5457081,34.68188292,のんきもの,のんきもの,のんきもの（のんきもの）,城東区東中浜3-5-16-101,城東区,06-6965-5479,06-6965-5479,障害者福祉作業センター（身体障害のある方）,,http://www15.ocn.ne.jp/~nonki/,,,,医療・福祉,福祉施設,医療・福祉/福祉施設,141,4493
135.5456313,34.68470806,ハウス・ウィング,はうす・うぃんぐ,ハウス・ウィング（はうす・うぃんぐ）,城東区東中浜2-3-5,城東区,06-6965-8950,06-6965-8950,精神障害者小規模通所授産施設,,,,,,医療・福祉,福祉施設,医療・福祉/福祉施設,141,4492
135.5483983,34.68556419,アド企画,あどきかく,アド企画（あどきかく）,城東区東中浜2-10-13,城東区,06-6968-3130,06-6969-2544,障害者福祉作業センター（身体障害のある方）,,,,,,医療・福祉,福祉施設,医療・福祉/福祉施設,141,5196
135.5464808,34.69204689,コスモス作業所,こすもすさぎょうじょ,コスモス作業所（こすもすさぎょうじょ）,城東区鴫野東3-1,城東区,06-6963-9070,,障害者福祉作業センター（知的障害のある方）,,,,,,医療・福祉,福祉施設,医療・福祉/福祉施設,141,4486
135.5461305,34.69843014,リウマチ・難病福祉作業所ワークショップ’99,りうまち・なんびょうふくしさぎょうしょわーくしょっぷ99,リウマチ・難病福祉作業所ワークショップ’99（りうまち・なんびょうふくしさぎょうしょわーくしょっぷ99）,城東区蒲生4-8-14,城東区,06-6180-1190,06-6180-1191,障害者福祉作業センター（身体障害のある方）,,,,,,医療・福祉,福祉施設,医療・福祉/福祉施設,138,5193
135.5433109,34.70087214,創奏,そうそう,創奏（そうそう）,城東区中央1-7-27,城東区,06-6935-3794,06-6935-5060,知的障害者小規模通所授産施設,,,,,,医療・福祉,福祉施設,医療・福祉/福祉施設,141,4489
135.5420221,34.70838567,STSGALLERY,えすてぃーえすぎゃらりー,STSGALLERY（えすてぃーえすぎゃらりー）,城東区成育3-5-19,城東区,06-6930-5540,06-6930-5540,障害者福祉作業センター,,,,,,医療・福祉,福祉施設,医療・福祉/福祉施設,141,4496
135.5500031,34.70811392,しどろもどろ作業所,しどろもどろさぎょうじょ,しどろもどろ作業所（しどろもどろさぎょうじょ）,城東区関目2-6-3,城東区,06-6935-8386,06-6935-8386,障害者福祉作業センター（身体障害のある方）,,,,,,医療・福祉,福祉施設,医療・福祉/福祉施設,141,5107
135.4456609,34.66183089,大阪市立第2港晴寮,おおさかしりつだいにこうせいりょう,大阪市立第2港晴寮（おおさかしりつだいにこうせいりょう）,港区田中3丁目1番130号,港区,06-6573-5575,06-6573-5591,救護施設,,http://www.minatoryo.or.jp/facilities/kosei-2/,,,,医療・福祉,福祉施設,医療・福祉/福祉施設,138,2055
135.4429107,34.65551689,大阪市立港晴寮,おおさかしりつこうせいりょう,大阪市立港晴寮（おおさかしりつこうせいりょう）,港区港晴2丁目4番25号,港区,06-6572-0061,06-6575-1061,救護施設,,http://www.minatoryo.or.jp/facilities/kosei/,,,,医療・福祉,福祉施設,医療・福祉/福祉施設,138,1971
135.5523205,34.74631139,大阪市立淀川寮,おおさかしりつよどがわりょう,大阪市立淀川寮（おおさかしりつよどがわりょう）,東淀川区大桐４丁目３－２４,東淀川区,06-6329-2200,06-6329-2342,救護・更生施設,,http://www.miotsukushi.or.jp/facilities/yodogawa.html,,,,医療・福祉,福祉施設,医療・福祉/福祉施設,138,92869
135.5130217,34.71289206,大阪市立大淀寮,おおさかしりつおおよどりょう,大阪市立大淀寮（おおさかしりつおおよどりょう）,北区長柄西1丁目1番28号,北区,06-6353-6011,06-6351-2930,更生施設,,http://www.miotsukushi.or.jp/facilities/oyodo.html,,,,医療・福祉,福祉施設,医療・福祉/福祉施設,138,1389
135.5133438,34.71272814,大阪市立大淀寮,おおさかしりつおおよどりょう,大阪市立大淀寮（おおさかしりつおおよどりょう）,北区長柄西1丁目1番34号,北区,06-6358-5981,06-6358-5971,救護施設,,http://www.miotsukushi.or.jp/facilities/oyodo.html,,,,医療・福祉,福祉施設,医療・福祉/福祉施設,138,1564
135.5396929,34.67370689,児童デイサービス　なないろ,じどうでいさーびす　なないろ,児童デイサービス　なないろ（じどうでいさーびす　なないろ）,東成区大今里西1-1-5-501 ,東成区,06-6977-8618,,,,,,,,医療・福祉,福祉施設,医療・福祉/福祉施設,141,8462
135.5364273,34.67325919,オアシス,おあしす,オアシス（おあしす）,東成区玉津1-1-29,東成区,06-6971-0380,,,,,,,,医療・福祉,福祉施設,医療・福祉/福祉施設,141,8457
135.5344809,34.67306083,すいすい,すいすい,すいすい（すいすい）,東成区東小橋1-8-12,東成区,06-6977-0114,06-6977-0114,,,,,,,医療・福祉,福祉施設,医療・福祉/福祉施設,141,3464
135.4842404,34.68386708,花乃井地域在宅サービスステーション,はなのいちいきざいたくさーびすすてーしょん,花乃井地域在宅サービスステーション（はなのいちいきざいたくさーびすすてーしょん）,西区江之子島1-8-44,西区,06-6225-2662,,,,,,,,医療・福祉,福祉施設,医療・福祉/福祉施設,142,2100
135.4842188,34.68393908,特別養護老人ホーム  江之子島コスモス苑,とくべつようごろうじんほーむ　えのこじまこすもすえん,特別養護老人ホーム  江之子島コスモス苑（とくべつようごろうじんほーむ　えのこじまこすもすえん）,西区江之子島1-8-44,西区,06-6225-2662,,,,,,,,医療・福祉,福祉施設,医療・福祉/福祉施設,142,2101
135.4748714,34.67460008,ケアヴィレッジ九条,けあヴぃれっじくじょう,ケアヴィレッジ九条（けあヴぃれっじくじょう）,西区九条1-21-24,西区,06-6582-5961,,,,,,,,医療・福祉,福祉施設,医療・福祉/福祉施設,144,8493
135.5109823,34.73537919,淀川キリスト教病院老人保健施設,よどがわきりすときょうびょういんろうじんほけんしせつ,淀川キリスト教病院老人保健施設（よどがわきりすときょうびょういんろうじんほけんしせつ）,東淀川区淡路2-1-41,東淀川区,06-6815-8222,,老人保健施設,,http://www.ych.or.jp/facilities/f-aged.html,,,,医療・福祉,福祉施設,医療・福祉/福祉施設,142,4815
135.5019388,34.59126914,よさみ野障害者作業所,よさみのしょうがいしゃさぎょうしょ,よさみ野障害者作業所（よさみのしょうがいしゃさぎょうしょ）,住吉区山之内4丁目12番31号,住吉区,06-6699-7767,06-6699-7888,知的障害者授産施設〈通所〉(18歳以上の知的障害者が、通所して、就労、自活を目指して必要な指導と訓練を受けます。),,,,,,医療・福祉,福祉施設,医療・福祉/福祉施設,141,366
135.5016922,34.59247194,大和川地域在宅サービスステーション（アンパス住吉）,やまとがわちいきざいたくさーびすすてーしょん「あんぱすすみよし」,大和川地域在宅サービスステーション（アンパス住吉）（やまとがわちいきざいたくさーびすすてーしょん「あんぱすすみよし」）,住吉区山之内3丁目4番9号,住吉区,06-4700-1234,,おとしよりやその家族から在宅介護について相談を受け付けています。,,,,,,医療・福祉,福祉施設,医療・福祉/福祉施設,142,364
135.4772167,34.60177511,老人保健施設はまさき,ろうじんほけんしせつはまさき,老人保健施設はまさき（ろうじんほけんしせつはまさき）,住之江区北島3-6-27,住之江区,06-6681-5660,,,,,,,,医療・福祉,福祉施設,医療・福祉/福祉施設,142,4954
135.466158,34.60873611,訪問看護ステーションゆらぎ,ほうもんかいごすてーしょんゆらぎ,訪問看護ステーションゆらぎ（ほうもんかいごすてーしょんゆらぎ）,住之江区新北島3-2-30スカイブルーMY203号,住之江区,06-6115-1616,,,,,,,,医療・福祉,福祉施設,医療・福祉/福祉施設,142,622
135.4615469,34.60800303,ケアハウス豊泉家,けあはうすほうせんか,ケアハウス豊泉家（けあはうすほうせんか）,住之江区新北島7-4-20,住之江区,06-6683-7110,,,,,,,,医療・福祉,福祉施設,医療・福祉/福祉施設,142,630
135.4748438,34.60636717,住之江区老人福祉センター,すみのえくろうじんふくしせんたー,住之江区老人福祉センター（すみのえくろうじんふくしせんたー）,住之江区南加賀屋3丁目１番20号　住之江会館1階,住之江区,06-6683-2888,06-6683-2739,,,http://www.osaka-sishakyo.jp/soudan/roujin_ichiran.html,,,,医療・福祉,福祉施設,医療・福祉/福祉施設,142,139
135.4740528,34.60532206,いわき園デイサービスセンター,いわきえんでいさーびすせんたー,いわき園デイサービスセンター（いわきえんでいさーびすせんたー）,住之江区南加賀屋3-9-2,住之江区,06-6683-6676,,,,,,,,医療・福祉,福祉施設,医療・福祉/福祉施設,142,140
135.4740939,34.60529692,いわき学園,いわきがくえん,いわき学園（いわきがくえん）,住之江区南加賀屋3-9-2,住之江区,06-6683-3300,,,,,,,,医療・福祉,福祉施設,医療・福祉/福祉施設,142,141
135.4741168,34.60527214,特別養護老人ホームいわき園,とくべつようごろうじんほーむいわきえん,特別養護老人ホームいわき園（とくべつようごろうじんほーむいわきえん）,住之江区南加賀屋3-9-2,住之江区,06-6683-6655,06-6685-4535,　（住之江地域在宅サービスステーション）,,,,,,医療・福祉,福祉施設,医療・福祉/福祉施設,142,142
135.4798779,34.60927806,住之江区医師会立訪問看護ステーション,すみのえくいしかいりつほうもんかいごすてーしょん,住之江区医師会立訪問看護ステーション（すみのえくいしかいりつほうもんかいごすてーしょん）,住之江区御崎4-6-10,住之江区,06-6686-1807,,,,,,,,医療・福祉,福祉施設,医療・福祉/福祉施設,142,603
135.479919,34.60937194,住之江区在宅サービスセンターさざなみ,すみのえくざいたくさーびすせんたーさざなみ,住之江区在宅サービスセンターさざなみ（すみのえくざいたくさーびすせんたーさざなみ）,住之江区御崎4-6-10,住之江区,06-6686-2234,06-6686-2122,　（真住地域在宅サービスステーション）,,,,,,医療・福祉,福祉施設,医療・福祉/福祉施設,142,606
135.4889639,34.59731703,墨江丘地域在宅サービスステーション（ル・ロゼイ）,すみえがおかちいきざいたくさーびすすてーしょん「る・ろぜい」,墨江丘地域在宅サービスステーション（ル・ロゼイ）（すみえがおかちいきざいたくさーびすすてーしょん「る・ろぜい」）,住吉区清水丘3丁目15番3号,住吉区,06-6672-1280,,おとしよりやその家族から在宅介護について相談を受け付けています。,,,,,,医療・福祉,福祉施設,医療・福祉/福祉施設,142,394
135.5041331,34.59732072,つどいの広場”藤わくわく”,つどいのひろばふじわくわく,つどいの広場”藤わくわく”（つどいのひろばふじわくわく）,住吉区山之内元町6-2,住吉区,6697-2131,,つどいの広場,,,,,,医療・福祉,福祉施設,医療・福祉/福祉施設,134,9245
135.4996312,34.60102203,住吉区老人福祉センター,すみよしくろうじんふくしせんたー,住吉区老人福祉センター（すみよしくろうじんふくしせんたー）,住吉区遠里小野1丁目1番31号,住吉区,06-6694-1416,06-6606-3412,,,http://www.osaka-sishakyo.jp/soudan/roujin_ichiran.html,,,,医療・福祉,福祉施設,医療・福祉/福祉施設,142,1513
135.4820757,34.60555864,つどいの広場みさき,つどいのひろばみさき,つどいの広場みさき（つどいのひろばみさき）,住之江区御崎7-2-4,住之江区,6685-5180,,つどいの広場,,,,,,医療・福祉,福祉施設,医療・福祉/福祉施設,134,9244
135.4843327,34.60844406,住之江区子ども・子育てプラザ,すみのえくこどもこそだてぷらざ,住之江区子ども・子育てプラザ（すみのえくこどもこそだてぷらざ）,住之江区浜口西3-4-22,住之江区,06-6674-5405,06-6674-5405,もとトモノス住之江,,,,,,医療・福祉,福祉施設,医療・福祉/福祉施設,134,683
135.4846972,34.60775311,友愛訪問看護ステーション,ゆうあいほうもんかいごすてーしょん,友愛訪問看護ステーション（ゆうあいほうもんかいごすてーしょん）,住之江区浜口西3-5-10,住之江区,06-6672-5801,,,,,,,,医療・福祉,福祉施設,医療・福祉/福祉施設,142,690
135.4844108,34.60842186,ファミリー・サポート・センター住之江,ふぁみりーさぽーとせんたーすみのえ,ファミリー・サポート・センター住之江（ふぁみりーさぽーとせんたーすみのえ）,住之江区浜口西3-4-22（住之江区子ども・子育てプラザ内）,住之江区,6674-5415,6674-5415,,,,,,,医療・福祉,福祉施設,医療・福祉/福祉施設,134,9214
135.5028611,34.60913608,住吉区子ども・子育てプラザ,すみよしくこどもこそだてぷらざ,住吉区子ども・子育てプラザ（すみよしくこどもこそだてぷらざ）,住吉区南住吉2丁目18番21号,住吉区,06-6693-2970,06-6693-2970,,,http://www.osaka-kosodate.net/plaza/sumiyoshi/,,,,医療・福祉,福祉施設,医療・福祉/福祉施設,134,1677
135.5029177,34.60910319,ファミリー・サポート・センター住吉,ふぁみりーさぽーとせんたーすみよし,ファミリー・サポート・センター住吉（ふぁみりーさぽーとせんたーすみよし）,住吉区南住吉2-18-21（住吉区子ども・子育てプラザ内）,住吉区,6693-2985,6693-2985,,,,,,,医療・福祉,福祉施設,医療・福祉/福祉施設,134,9215
135.5093863,34.59023086,地域活動支援プラザ浅香,ちいきかつどうしえんぷらざあさか,地域活動支援プラザ浅香（ちいきかつどうしえんぷらざあさか）,住吉区浅香1丁目5番29号,住吉区,06-6696-4000,06-6696-4001,老人福祉センター(高齢者の生活、職業、健康などの相談や無料教養講座　(60歳以上))等を行っています。),,,,,,医療・福祉,福祉施設,医療・福祉/福祉施設,142,402
135.5091612,34.59069194,浅香障害者会館,あさかしょうがいしゃかいかん,浅香障害者会館（あさかしょうがいしゃかいかん）,住吉区浅香1丁目6番26号,住吉区,06-6608-1251,06-6608-1252,地域の障害者(児)等を対象に、相談、指導、機能回復訓練、入浴サービス、各種講習会等を行っています。,,http://www.oct.zaq.ne.jp/asakasyoukan/,http://www.osaka-bfmap.jp/sisetu_data/data/210801.php?bunrui=1&name=21.php,,,医療・福祉,福祉施設,医療・福祉/福祉施設,141,404
135.510758,34.591914,アップリケアホーム,あっぷりけあほーむ,アップリケアホーム（あっぷりけあほーむ）,住吉区浅香1丁目8番38号,住吉区,06-6696-1177,06-6696-1273,特別養護老人ホーム（日常生活で常に介護が必要で、自宅での介護が困難な方で、要介護1～5に認定された方が対象）,,http://www.apricare.com/,,,,医療・福祉,福祉施設,医療・福祉/福祉施設,142,412
135.5107418,34.59179383,アップリケアハウス,あっぷりけあはうす,アップリケアハウス（あっぷりけあはうす）,住吉区浅香1丁目8番38号,住吉区,06-6696-1177,06-6696-1273,軽費老人ホーム（身体機能の低下等により、自立した日常生活を営むことについて不安が認められるとともに、家族による援助を受けることが困難な60歳以上の方が対象。ただし、その方の配偶者等、その方と共に入所することが必要と認められる方については、60歳未満でも入所す,,http://www.apricare.com/index.html,,,,医療・福祉,福祉施設,医療・福祉/福祉施設,142,3388
135.5107607,34.59199203,アップリケア身体障害者デイサービスセンター,あっぷりけあしんたいしょうがいしゃでいさーびすせんたー,アップリケア身体障害者デイサービスセンター（あっぷりけあしんたいしょうがいしゃでいさーびすせんたー）,住吉区浅香1丁目8番38号,住吉区,06-6696-1177,06-6696-1273,身体障害者デイサービス（18歳以上身体障害者の創作的活動、文化活動、機能訓練等の各種サービスを提供します。）,,,,,,医療・福祉,福祉施設,医療・福祉/福祉施設,141,413
135.5110187,34.59256403,住吉区在宅サービスセンター（住吉いきいきセンター）,すみよしくざいたくさーびすせんたー「すみよしいきいきせんたー」,住吉区在宅サービスセンター（住吉いきいきセンター）（すみよしくざいたくさーびすせんたー「すみよしいきいきせんたー」）,住吉区浅香1丁目8番47号,住吉区,06-6607-8181,06-6692-8813,おとしよりやその家族から在宅介護について相談を受け付けています。,,http://www.sumiyoshi-wel.net/index.html,http://www.osaka-bfmap.jp/sisetu_data/data/211001.php?bunrui=1&name=21.php,,,医療・福祉,福祉施設,医療・福祉/福祉施設,142,414
135.5103921,34.59262503,はぁとらんど浅香,はぁとらんどあさか,はぁとらんど浅香（はぁとらんどあさか）,住吉区浅香1丁目7番15号,住吉区,06-4700-0810,06-4700-0811,知的障害者授産施設〈通所〉(18歳以上の知的障害者が、通所して、就労、自活を目指して必要な指導と訓練を受けます。),,,,,,医療・福祉,福祉施設,医療・福祉/福祉施設,142,565
135.5110113,34.59243608,地域包括支援センター(住吉区在宅サービスセンター内),ちいきほうかつしえんせんたー「すみよしくざいたくさーびすせんたーない」,地域包括支援センター(住吉区在宅サービスセンター内)（ちいきほうかつしえんせんたー「すみよしくざいたくさーびすせんたーない」）,住吉区浅香1丁目8番47号,住吉区,06-6692-8803,,地域で暮らす高齢者の方々が、住み慣れた地域で尊厳ある生活をし続けていけるよう社会福祉士、保健師・看護師、主任介護支援専門員などの専門職が、高齢者やその家族・ケアマネジャーからの介護、福祉、保健に関するご相談に応じます。,,http://www.sumiyoshi-wel.net/yobou/08_chiiki_houkatu.html,,,,医療・福祉,福祉施設,医療・福祉/福祉施設,138,3399
135.5129032,34.59220831,つどいの広場浅香東,つどいのひろばあさかひがし,つどいの広場浅香東（つどいのひろばあさかひがし）,住吉区浅香1-1-24,住吉区,6697-6505,,つどいの広場,,,,,,医療・福祉,福祉施設,医療・福祉/福祉施設,134,9246
135.5214057,34.60073586,東我孫子地域在宅サービスステーション（ふれ愛の館しおん）,ひがしあびこちいきざいたくさーびすすてーしょん「ふれあいのやかたしおん」,東我孫子地域在宅サービスステーション（ふれ愛の館しおん）（ひがしあびこちいきざいたくさーびすすてーしょん「ふれあいのやかたしおん」）,住吉区苅田4丁目3番15号,住吉区,06-6608-2110,06-6607-2511,おとしよりやその家族から在宅介護について相談を受け付けています。,,http://www.ans.co.jp/u/shion/shisetu3.htm,,,,医療・福祉,福祉施設,医療・福祉/福祉施設,142,1582
135.5221078,34.60073881,四恩学園乳児院,しおんがくえんにゅうじいん,四恩学園乳児院（しおんがくえんにゅうじいん）,住吉区苅田4丁目3番9号,住吉区,06-6607-2220,06-6696-5347,,,,,,,医療・福祉,福祉施設,医療・福祉/福祉施設,138,1584
135.5316189,34.60247497,矢田障害者会館,やたしょうがいしゃかいかん,矢田障害者会館（やたしょうがいしゃかいかん）,東住吉区矢田6丁目8番29号,東住吉区,06-6694-9021,,,,,http://www.osaka-bfmap.jp/sisetu_data/data/220801.php?bunrui=1&name=22.php,,,医療・福祉,福祉施設,医療・福祉/福祉施設,141,3168
135.5286949,34.60049664,つどいの広場矢田教育の森,つどいのひろばやたきょういくのもり,つどいの広場矢田教育の森（つどいのひろばやたきょういくのもり）,東住吉区矢田5-2-12,東住吉区,6692-0161,,つどいの広場,,,,,,医療・福祉,福祉施設,医療・福祉/福祉施設,134,9249
135.508342,34.60480003,三稜地域在宅サービスステーション（ウェルネスあびこ）,さんりょうちいきざいたくさーびすすてーしょん「うぇるねすあびこ」,三稜地域在宅サービスステーション（ウェルネスあびこ）（さんりょうちいきざいたくさーびすすてーしょん「うぇるねすあびこ」）,住吉区我孫子西1丁目2番15号,住吉区,06-6608-3000,,おとしよりやその家族から在宅介護について相談を受け付けています。,,,,,,医療・福祉,福祉施設,医療・福祉/福祉施設,142,1530
135.5113313,34.605342,我孫子地域在宅サービスステーション（一隅苑）,あびこちいきざいたくさーびすすてーしょん「いちぐうえん」,我孫子地域在宅サービスステーション（一隅苑）（あびこちいきざいたくさーびすすてーしょん「いちぐうえん」）,住吉区我孫子東1丁目4番37号,住吉区,06-4700-1000,06-4700-1009,おとしよりやその家族から在宅介護について相談を受け付けています。,,,,,,医療・福祉,福祉施設,医療・福祉/福祉施設,142,1532
135.508156,34.60456083,ウェルネスあびこ,うぇるねすあびこ,ウェルネスあびこ（うぇるねすあびこ）,住吉区我孫子西1丁目2番15号,住吉区,06-6608-3000,06-6608-3333,特別養護老人ホーム（日常生活で常に介護が必要で、自宅での介護が困難な方で、要介護1～5に認定された方が対象）,,http://www.wellness-kaigo.com/#,,,,医療・福祉,福祉施設,医療・福祉/福祉施設,138,3362
135.5084107,34.60883111,長居西地域在宅サービスステーション（ながいの里）,ながいにしちいきざいたくさーびすすてーしょん「ながいのさと」,長居西地域在宅サービスステーション（ながいの里）（ながいにしちいきざいたくさーびすすてーしょん「ながいのさと」）,住吉区長居西3丁目1番6号,住吉区,06-6695-6645,06-6695-6654,おとしよりやその家族から在宅介護について相談を受け付けています。,,http://www.kakinoki.or.jp/nagainosato.htm,,,,医療・福祉,福祉施設,医療・福祉/福祉施設,142,435
135.5527688,34.60391906,平野区子ども・子育てプラザ,ひらのくこどもこそだてぷらざ,平野区子ども・子育てプラザ（ひらのくこどもこそだてぷらざ）,平野区瓜破3-3-64,平野区,06-6707-0900,06-6707-0900,もとトモノス平野,,http://www.osaka-kosodate.net/plaza/hirano/index.php,,,,医療・福祉,福祉施設,医療・福祉/福祉施設,134,2240
135.5527809,34.60389094,ファミリー・サポート・センター平野,ふぁみりーさぽーとせんたーひらの,ファミリー・サポート・センター平野（ふぁみりーさぽーとせんたーひらの）,平野区瓜破3-3-64（平野区子ども・子育てプラザ内）,平野区,6707-0930,6707-0930,,,,,,,医療・福祉,福祉施設,医療・福祉/福祉施設,134,9217
135.5474537,34.60961667,心身障害者リハビリテーションセンター,しんしんしょうがいしゃりはびりてーしょんせんたー,心身障害者リハビリテーションセンター（しんしんしょうがいしゃりはびりてーしょんせんたー）,平野区喜連西6丁目2番55号,平野区,06-6797-6501,,,,,http://www.osaka-bfmap.jp/sisetu_data/data/230201.php?bunrui=1&name=23.php,,,医療・福祉,福祉施設,医療・福祉/福祉施設,141,2281
135.4218578,34.62807214,住之江区在宅サービススステーションしらなみ,すみのえくざいたくさーびすすてーしょんしらなみ,住之江区在宅サービススステーションしらなみ（すみのえくざいたくさーびすすてーしょんしらなみ）,住之江区南港中3-3-43,住之江区,06-6569-6060,,　（南港南地域在宅サービスステーション）,,,,,,医療・福祉,福祉施設,医療・福祉/福祉施設,142,150
135.4108718,34.63781108,ATCエイジレスセンター,えーてぃーしーえいじれすせんたー,ATCエイジレスセンター（えーてぃーしーえいじれすせんたー）,住之江区南港北2-1-10,住之江区,06-6615-5123,,,,,,,,医療・福祉,福祉施設,医療・福祉/福祉施設,142,678
135.4259811,34.63392517,きのみデイサービスセンター,きのみでいさーびすせんたー,きのみデイサービスセンター（きのみでいさーびすせんたー）,住之江区南港中4-2-30,住之江区,06-6612-9988,,,,,,,,医療・福祉,福祉施設,医療・福祉/福祉施設,142,153
135.4231736,34.63388378,つどいの広場「よちよちらんど」,つどいのひろばよちよちらんど,つどいの広場「よちよちらんど」（つどいのひろばよちよちらんど）,住之江区南港中4-4-32,住之江区,6613-0800,,つどいの広場,,,,,,医療・福祉,福祉施設,医療・福祉/福祉施設,134,9242
135.4304169,34.62933317,南港咲洲特別養護老人ホーム,なんこうさきしまとくべつようごろうじんほーむ,南港咲洲特別養護老人ホーム（なんこうさきしまとくべつようごろうじんほーむ）,住之江区南港中2-1-35,平野区,06-4703-1700,,,,,,,,医療・福祉,福祉施設,医療・福祉/福祉施設,142,144
135.4795188,34.61446703,老人保健施設カルチェ住吉川,ろうじんほけんしせつかるちぇすみよしがわ,老人保健施設カルチェ住吉川（ろうじんほけんしせつかるちぇすみよしがわ）,住之江区中加賀屋4-5-27,住之江区,06-6686-2511,,,,,,,,医療・福祉,福祉施設,医療・福祉/福祉施設,142,126
135.4775893,34.61761717,訪問看護ステーションたんぽぽ,ほうもんかいごすてーしょんたんぽぽ,訪問看護ステーションたんぽぽ（ほうもんかいごすてーしょんたんぽぽ）,住之江区西加賀屋2-5-12,住之江区,06-6685-1456,,,,,,,,医療・福祉,福祉施設,医療・福祉/福祉施設,142,633
135.4792992,34.61765486,つどいの広場北加賀屋,つどういのひろばきたかががや,つどいの広場北加賀屋（つどういのひろばきたかががや）,住之江区中加賀屋2-17-1,住之江区,6683-3761,,つどいの広場,,,,,,医療・福祉,福祉施設,医療・福祉/福祉施設,134,9243
135.487033,34.61097817,特別養護老人ホームグルメ杵屋社会貢献の家,とくべつようごろうじんほーむぐるめきねやしゃかいこうけんのいえ,特別養護老人ホームグルメ杵屋社会貢献の家（とくべつようごろうじんほーむぐるめきねやしゃかいこうけんのいえ）,住之江区浜口東2-5-14,住之江区,06-6671-2500,06-6671-2611,　（住吉第一地域在宅サービスステーション）,,,,,,医療・福祉,福祉施設,医療・福祉/福祉施設,142,688
135.4985418,34.61382789,住吉総合福祉センター,すみよしそうごうふくしせんたー,住吉総合福祉センター（すみよしそうごうふくしせんたー）,住吉区帝塚山東5丁目8番3号,住吉区,06-6678-7572,06-6678-7573,老人福祉センター(高齢者の生活、職業、健康などの相談や無料教養講座　(60歳以上)等を行っています。)    障害者会館(地域の障害者(児)等を対象に、相談、指導、機能回復訓練、入浴サービス、各種講習会等を行っています。),,http://www.lifesupport.or.jp/sousen/index.html,http://www.osaka-bfmap.jp/sisetu_data/data/210802.php?bunrui=1&name=21.php,,,医療・福祉,福祉施設,医療・福祉/福祉施設,138,459
135.4986529,34.61267789,住吉第2地域在宅サービスステーション（なごみ）,すみよしだいにちいきざいたくさーびすすてーしょん「なごみ」,住吉第2地域在宅サービスステーション（なごみ）（すみよしだいにちいきざいたくさーびすすてーしょん「なごみ」）,住吉区帝塚山東5丁目10番15号,住吉区,06-6672-8377,06-6672-8399,おとしよりやその家族から在宅介護について相談を受け付けています。,,http://lifesupport.or.jp/nagomi/index.html,,,,医療・福祉,福祉施設,医療・福祉/福祉施設,142,460
135.4984939,34.61359983,こころの相談ネット　ふうが,こころのそうだんねっと　ふうが,こころの相談ネット　ふうが（こころのそうだんねっと　ふうが）,住吉区帝塚山東5丁目8番3号（住吉総合福祉センター内）,住吉区,06-6678-9205,06-6678-9215,精神障害者地域生活支援センター（心に障害のある人たちの暮らしを支援するため、障害者や家族からの相談に応じます。情報の提供や関係機関との連絡調整を行っています。）,,http://www.lifesupport.or.jp/fuga/,,,,医療・福祉,福祉施設,医療・福祉/福祉施設,141,564
135.4981908,34.61311706,しょうがい者活動センター　おがり,しょうがいしゃかつどうせんたー　おがり,しょうがい者活動センター　おがり（しょうがいしゃかつどうせんたー　おがり）,住吉区帝塚山東5丁目8番7号,住吉区,06-6678-7582,06-6678-7583,知的障害者通所更正施設(18歳以上の知的障害者が、通所して、必要な指導と訓練を受けます。),,http://www.lifesupport.or.jp/ogari/,,,,医療・福祉,福祉施設,医療・福祉/福祉施設,141,566
135.5007173,34.61560003,受念館,じゅねんかん,受念館（じゅねんかん）,住吉区万代5丁目17番25号,住吉区,06-6674-1181,06-6674-1182,経過的軽費老人ホームＡ型,,,,,,医療・福祉,福祉施設,医療・福祉/福祉施設,142,495
135.4924418,34.62115603,粉浜作業指導所,こはまさぎょうしどうしょ,粉浜作業指導所（こはまさぎょうしどうしょ）,住吉区東粉浜2丁目15番7号,住吉区,06-6671-3111,06-6671-0360,身体障害者通所授産施設(15歳以上の身体障害者手帳の交付を受けた方で、雇用されることが困難な方などが、通所して、必要な訓練を受け、職業的自立をはかります。),,http://www11.ocn.ne.jp/~kohamas/,,,,医療・福祉,福祉施設,医療・福祉/福祉施設,141,469
135.4837748,34.62434211,ライフサポートセンター　白寿苑,らいふさぽーとせんたー　はくじゅえん,ライフサポートセンター　白寿苑（らいふさぽーとせんたー　はくじゅえん）,西成区南津守7-12-32,西成区,06-6651-7555,06-6651-6060,,,,,,,医療・福祉,福祉施設,医療・福祉/福祉施設,142,3643
135.5018694,34.62011108,ケアハウス帝塚山,けあはうすてづかやま,ケアハウス帝塚山（けあはうすてづかやま）,住吉区帝塚山東2丁目1番35号,住吉区,06-4701-7011,06-4701-7022,軽費老人ホーム（身体機能の低下等により、自立した日常生活を営むことについて不安が認められるとともに、家族による援助を受けることが困難な60歳以上の方が対象。ただし、その方の配偶者等、その方と共に入所することが必要と認められる方については、60歳未満でも入所す,,http://www.tezukayama.or.jp/tezukayama/index.html,,,,医療・福祉,福祉施設,医療・福祉/福祉施設,142,451
135.5018391,34.62022492,住吉地域在宅サービスステーション（玲風苑）,すみよしちいきざいたくさーびすすてーしょん「れいふうえん」,住吉地域在宅サービスステーション（玲風苑）（すみよしちいきざいたくさーびすすてーしょん「れいふうえん」）,住吉区帝塚山東2丁目1番35号,住吉区,06-4701-1121,,おとしよりやその家族から在宅介護について相談を受け付けています。,,http://www.tezukayama.or.jp/reifu/index.html,,,,医療・福祉,福祉施設,医療・福祉/福祉施設,142,452
135.5037329,34.62419389,区在宅サービスセンター,くざいたくさーびすせんたー,区在宅サービスセンター（くざいたくさーびすせんたー）,阿倍野区帝塚山1-3-8,阿倍野区,06-6628-1212,06-6628-9393,,,http://www.abenokushakyo.jp/,,,,医療・福祉,福祉施設,医療・福祉/福祉施設,142,1249
135.4841892,34.63608306,ふれあいの里,ふれあいのさと,ふれあいの里（ふれあいのさと）,西成区南津守1丁目4番46号,西成区,06-6659-2672,06-6659-2673,社会復帰施設,,,,,,医療・福祉,福祉施設,医療・福祉/福祉施設,138,3616
135.486969,34.63629183,成南地域在宅サービスステーション　めぐみ,せいなんちいきざいたくさーびすすてーしょん　めぐみ,成南地域在宅サービスステーション　めぐみ（せいなんちいきざいたくさーびすすてーしょん　めぐみ）,西成区千本北2-12-2,西成区,06-6652-5811,06-6652-5812,,,,,,,医療・福祉,福祉施設,医療・福祉/福祉施設,142,3640
135.4890421,34.63287447,つどいの広場「せいか」,つどいのひろばせいか,つどいの広場「せいか」（つどいのひろばせいか）,西成区千本中2-7-6,西成区,4398-5326,,つどいの広場,,,,,,医療・福祉,福祉施設,医療・福祉/福祉施設,134,9253
135.4985391,34.63343919,大阪府看護協会ケアプランセンター天下茶屋,おおさかふかんごきょうかいけあぷらんせんたーてんがちゃや,大阪府看護協会ケアプランセンター天下茶屋（おおさかふかんごきょうかいけあぷらんせんたーてんがちゃや）,西成区岸里東1-4-8,西成区,06-6659-5646,06-6659-5646,,,,,,,医療・福祉,福祉施設,医療・福祉/福祉施設,142,3635
135.4944428,34.63515544,西成区在宅サービスセンター『はぎのさと』,にしなりくざいたくさーびすせんたー　はぎのさと,西成区在宅サービスセンター『はぎのさと』（にしなりくざいたくさーびすせんたー　はぎのさと）,西成区岸里１-５-20,西成区,06-6656-0080,06-6656-0083,,,,,,,医療・福祉,福祉施設,医療・福祉/福祉施設,142,4821
135.4940392,34.63746703,西成区医師会　ケアプランセンター,にしなりくいしかい　けあぷらんせんたー,西成区医師会　ケアプランセンター（にしなりくいしかい　けあぷらんせんたー）,西成区潮路1-1-11　医師会館２Ｆ,西成区,06-6654-2111,06-6654-2111,,,,,,,医療・福祉,福祉施設,医療・福祉/福祉施設,142,3638
135.5056672,34.63990306,コーナス,こーなす,コーナス（こーなす）,阿倍野区共立通2-3-22,阿倍野区,06-6659-9312,06-6659-9312,,,,,,,医療・福祉,福祉施設,医療・福祉/福祉施設,142,3724
135.4337438,34.65123608,築港地域在宅サービスステーション,ちっこうちいきざいたくさーびすすてーしょん,築港地域在宅サービスステーション（ちっこうちいきざいたくさーびすすてーしょん）,港区築港2-4-16,港区,06-6599-0616,06-6599-0660,在宅介護支援センター,,http://www12.ocn.ne.jp/%7Etikko-ss/index.html,,,,医療・福祉,福祉施設,医療・福祉/福祉施設,142,2030
135.4467281,34.65161889,愛港園,あいこうえん,愛港園（あいこうえん）,港区八幡屋4-8-1,港区,06-6571-6231,06-6571-0431,特別養護老人ホーム,,http://aikoen.jp/www/,,,,医療・福祉,福祉施設,医療・福祉/福祉施設,142,78
135.4472031,34.65130592,第2愛港園,だいにあいこうえん,第2愛港園（だいにあいこうえん）,港区八幡屋4-8-1,港区,06-6571-5241,06-6571-3613,特別養護老人ホーム(痴呆性高齢者対象),,http://minatoryo.or.jp/www/introduction/2aikoen.htm,,,,医療・福祉,福祉施設,医療・福祉/福祉施設,142,1041
135.4469942,34.65166914,グループホームときめき,ぐるーぷほーむときめき,グループホームときめき（ぐるーぷほーむときめき）,港区八幡屋4-8-1　愛港園内,港区,06-6571-8333,06-6571-3613,痴呆性高齢者グループホーム,,http://www.osaka-gh.gr.jp/group_home/tokimeki/tokimeki.html,,,,医療・福祉,福祉施設,医療・福祉/福祉施設,142,1042
135.4468136,34.65154203,みなとデイサービスセンター,みなとでいさーびすせんたー,みなとデイサービスセンター（みなとでいさーびすせんたー）,港区八幡屋4-8-1　愛港園内,港区,06-6576-4314,06-6576-4790,デイサービスセンター,,,,,,医療・福祉,福祉施設,医療・福祉/福祉施設,142,1043
135.446914,34.65146111,みなとホームヘルプセンター,みなとほーむへるぷせんたー,みなとホームヘルプセンター（みなとほーむへるぷせんたー）,港区八幡屋4-8-1　愛港園内,港区,06-6576-4314,06-6576-4790,ホームヘルプセンター（高齢者･精神障害者対象）,,,,,,医療・福祉,福祉施設,医療・福祉/福祉施設,142,1044
135.4469612,34.65140792,港地域在宅サービスステーション,みなとちいきざいたくさーびすすてーしょん,港地域在宅サービスステーション（みなとちいきざいたくさーびすすてーしょん）,港区八幡屋4-8-1　愛港園内,港区,06-6577-3535,06-6576-4790,在宅介護支援センター,,http://minatoryo.or.jp/www/introduction/minato.htm,,,,医療・福祉,福祉施設,医療・福祉/福祉施設,142,1045
135.4472388,34.65135617,第2みなとデイサービスセンター,だいにみなとでいさーびすせんたー,第2みなとデイサービスセンター（だいにみなとでいさーびすせんたー）,港区八幡屋4-8-1　愛港園内,港区,06-6571-5241,06-6571-3613,デイサービスセンター(痴呆性高齢者対象),,,,,,医療・福祉,福祉施設,医療・福祉/福祉施設,142,1046
135.4488611,34.65452819,ワークスいけじま,わーくすいけじま,ワークスいけじま（わーくすいけじま）,港区池島3-6-15,港区,06-6577-2211,06-6577-2231,知的障害者通所授産施設,,,,,,医療・福祉,福祉施設,医療・福祉/福祉施設,141,2021
135.4348056,34.65508903,介護老人保健施設てんぽーざん,かいごろうじんほけんしせつてんぽーざん,介護老人保健施設てんぽーざん（かいごろうじんほけんしせつてんぽーざん）,港区築港3-4-25,港区,06-6599-1616,06-6599-1617,老人保健福祉施設,,,,,,医療・福祉,福祉施設,医療・福祉/福祉施設,142,2038
135.45155,34.65593292,海の子学園池島寮,うみのこがくえんいけじまりょう,海の子学園池島寮（うみのこがくえんいけじまりょう）,港区池島2-5-52,港区,06-6571-0200,06-6571-5751,児童養護施設,,,,,,医療・福祉,福祉施設,医療・福祉/福祉施設,138,2018
135.4522749,34.66260783,港区老人福祉センター,みなとくろうじんふくしせんたー,港区老人福祉センター（みなとくろうじんふくしせんたー）,港区夕凪2丁目5番22号,港区,06-6575-1368,06-6574-7132,,,http://www.osaka-sishakyo.jp/soudan/roujin_ichiran.html,http://www.osaka-bfmap.jp/sisetu_data/data/071101.php?bunrui=2&name=/sisetu_data/y_sisetu/y11.php,,,医療・福祉,福祉施設,医療・福祉/福祉施設,142,1086
135.4521672,34.66233111,あさしお園,あさしおえん,あさしお園（あさしおえん）,港区夕凪2-5-3,港区,06-6574-2521,06-6574-2522,肢体不自由児通園施設,,,,,,医療・福祉,福祉施設,医療・福祉/福祉施設,142,1087
135.4522561,34.66240797,ゆうなぎ園,ゆうなぎえん,ゆうなぎ園（ゆうなぎえん）,港区夕凪2-5-3,港区,06-6574-2521,06-6574-2522,難聴幼児通園施設,,,,,,医療・福祉,福祉施設,医療・福祉/福祉施設,142,1088
135.4734579,34.64216794,つどいの広場大正,つどいのひろばたいしょう,つどいの広場大正（つどいのひろばたいしょう）,大正区平尾2-23-5-101,大正区,6552-1837,,つどいの広場,,,,,,医療・福祉,福祉施設,医療・福祉/福祉施設,134,9225
135.4684419,34.64621089,在宅サービスステーション(ふれあい福祉センター),ざいたくさーびすすてーしょん（ふれあいふくしせんたー）,在宅サービスステーション(ふれあい福祉センター)（ざいたくさーびすすてーしょん（ふれあいふくしせんたー））,大正区小林西1-14,大正区,06-6555-7575,06-6555-0687,,,,,,,医療・福祉,福祉施設,医療・福祉/福祉施設,138,23
135.4892557,34.640906,松通子育て支援センター,まつどおりこそだてしえんせんたー,松通子育て支援センター（まつどおりこそだてしえんせんたー）,西成区松3丁目2番36号,西成区,06-6658ｰ9155,,もと西成児童館,,,,,,医療・福祉,福祉施設,医療・福祉/福祉施設,134,3610
135.489447,34.64125594,西成区在宅サービスセンター,にしなりくざいたくさーびすせんたー,西成区在宅サービスセンター（にしなりくざいたくさーびすせんたー）,西成区松3-1-16,西成区,06-6656-0080,06-6656-0083,,,,,,,医療・福祉,福祉施設,医療・福祉/福祉施設,142,3632
135.4894558,34.64118092,大阪市西成区ホームヘルプセンター,おおさかしにしなりくほーむへるぷせんたー,大阪市西成区ホームヘルプセンター（おおさかしにしなりくほーむへるぷせんたー）,西成区松3-1-16西成区在宅サービスセンター３Ｆ,西成区,06-6654-1200,06-6654-1202,,,,,,,医療・福祉,福祉施設,医療・福祉/福祉施設,142,3633
135.4922942,34.64141706,西成医療生活協同組合　指定居宅介護支援事業所　ケアプランセンターさくら,にしなりいりょうせいかつきょうどうくみあい　していきょたくかいごしえんじぎょうしょ　けあぷらんせんたーさくら,西成医療生活協同組合　指定居宅介護支援事業所　ケアプランセンターさくら（にしなりいりょうせいかつきょうどうくみあい　していきょたくかいごしえんじぎょうしょ　けあぷらんせんたーさくら）,西成区松2-1-7　,西成区,06-6659-1010,06-6651-6663,,,,,,,医療・福祉,福祉施設,医療・福祉/福祉施設,144,3639
135.4939469,34.64339403,おとしよりすこやかケアプランセンター南部花園館,おとしよりすこやかけあぷらんせんたーなんぶはなぞのかん,おとしよりすこやかケアプランセンター南部花園館（おとしよりすこやかけあぷらんせんたーなんぶはなぞのかん）,西成区梅南1丁目4番26号,西成区,06-6651-8700,06-6651-8719,,,,,,,医療・福祉,福祉施設,医療・福祉/福祉施設,142,3631
135.4957781,34.64255817,西成区子ども・子育てプラザ,にしなりくこども・こそだてぷらざ,西成区子ども・子育てプラザ（にしなりくこども・こそだてぷらざ）,西成区梅南1丁目2番6号,西成区,06-6658-4528,,もとトモノス西成,,http://www.manabi.city.osaka.jp/Contents/lll/sisetu/inview.asp?CONTENTNO=754,,,,医療・福祉,福祉施設,医療・福祉/福祉施設,134,4878
135.4939469,34.64339403,おとしよりすこやかセンター南部花園館,おとしよりすこやかせんたーなんぶはなぞのかん,おとしよりすこやかセンター南部花園館（おとしよりすこやかせんたーなんぶはなぞのかん）,西成区梅南1丁目4番26号,西成区,06-6651-8700,06-6651-8719,,,,,,,医療・福祉,福祉施設,医療・福祉/福祉施設,142,4879
135.4940251,34.64329389,西成区老人福祉センター,にしなりくろうじんふくしせんたー,西成区老人福祉センター（にしなりくろうじんふくしせんたー）,西成区梅南1丁目4番27号,西成区,06-6654-2951,06-6654-1504,,,http://www.osaka-sishakyo.jp/soudan/roujin_ichiran.html,http://www.osaka-bfmap.jp/sisetu_data/data/241101.php?bunrui=2&name=/sisetu_data/y_sisetu/y11.php,,,医療・福祉,福祉施設,医療・福祉/福祉施設,142,4880
135.4958044,34.64259475,ファミリー・サポート・センター西成,ふぁみりーさぽーとせんたーにしなり,ファミリー・サポート・センター西成（ふぁみりーさぽーとせんたーにしなり）,西成区梅南1-2-6(西成区子ども・子育てプラザ内）,西成区,6658-4529,6658-4529,,,,,,,医療・福祉,福祉施設,医療・福祉/福祉施設,134,9218
135.5011613,34.64032508,天下茶屋地域在宅サービスステーション　のぞみ,てんがちゃやちいきざいたくさーびすすてーしょん　のぞみ,天下茶屋地域在宅サービスステーション　のぞみ（てんがちゃやちいきざいたくさーびすすてーしょん　のぞみ）,西成区天下茶屋東2-15-12,西成区,06-6655-3030,06-6655-3030,,,,,,,医療・福祉,福祉施設,医療・福祉/福祉施設,142,3628
135.5033718,34.64693661,大阪市つどいの広場「わいわい」,つどいのひろばわいわい,大阪市つどいの広場「わいわい」（つどいのひろばわいわい）,西成区太子1-13-15,西成区,6647-8074,,つどいの広場,,,,,,医療・福祉,福祉施設,医療・福祉/福祉施設,134,9252
135.4820689,34.65043614,にしなりＷｉｎｇ,にしなりうぃんぐ,にしなりＷｉｎｇ（にしなりうぃんぐ）,西成区北津守3丁目6番4号,西成区,06-4392-8700,06-4392-8710,社会復帰施設,,,,,,医療・福祉,福祉施設,医療・福祉/福祉施設,138,3615
135.4906826,34.64992808,大阪市社会福祉研修・情報センター,おおさかししゃかいふくしけんしゅう・じょうほうせんたー,大阪市社会福祉研修・情報センター（おおさかししゃかいふくしけんしゅう・じょうほうせんたー）,西成区出城2丁目5番20号,西成区,06-4392-8200,06-4392-8206,,,http://www.wel-osaka.jp,http://www.osaka-bfmap.jp/sisetu_data/data/240701.php?bunrui=1&name=24.php,,,医療・福祉,福祉施設,医療・福祉/福祉施設,138,476
135.4897003,34.64799192,市立西成障害者会館,しりつにしなりしょうがいしゃかいかん,市立西成障害者会館（しりつにしなりしょうがいしゃかいかん）,西成区長橋3丁目2番27号,西成区,06-6562-5800,06-6562-6677,,,http://www.manabi.city.osaka.jp/Contents/lll/sisetu/inview.asp?CONTENTNO=818,,,,医療・福祉,福祉施設,医療・福祉/福祉施設,141,4859
135.4912419,34.65421117,浪速子育て支援センター,まつどおりこそだてしえんせんたー,浪速子育て支援センター（まつどおりこそだてしえんせんたー）,浪速区浪速東3-2-53　浪速第１保育所内,浪速区,06-4392-8480,,,,,,,,医療・福祉,福祉施設,医療・福祉/福祉施設,134,4106
135.4973668,34.65205008,ピースクラブ,ぴーすくらぶ,ピースクラブ（ぴーすくらぶ）,浪速区大国1-11-1,浪速区,06-6647-2077,06-6647-2077,,,,,,,医療・福祉,福祉施設,医療・福祉/福祉施設,141,2706
135.4722863,34.65747506,大正区子ども・子育てプラザ,たいしょうくこどもこそだてぷらざ,大正区子ども・子育てプラザ（たいしょうくこどもこそだてぷらざ）,大正区泉尾3-9-16,大正区,06-6554-5377,,もとトモノス大正,,http://www.manabi.city.osaka.jp/Contents/lll/sisetu/inview.asp?CONTENTNO=739,,,,医療・福祉,福祉施設,医療・福祉/福祉施設,134,3890
135.472258,34.65743294,大正区老人福祉センター,たいしょうくろうじんふくしせんたー,大正区老人福祉センター（たいしょうくろうじんふくしせんたー）,大正区泉尾3丁目9番16号,大正区,06-6554-5330,06-6554-5367,,,http://www.osaka-sishakyo.jp/soudan/roujin_ichiran.html,http://www.osaka-bfmap.jp/sisetu_data/data/081101.php?bunrui=1&name=8.php,,,医療・福祉,福祉施設,医療・福祉/福祉施設,142,3891
135.4723085,34.65728886,ファミリー・サポート・センター大正,ふぁみりーさぽーとせんたーたいしょう,ファミリー・サポート・センター大正（ふぁみりーさぽーとせんたーたいしょう）,大正区泉尾3-9-16（大正区子ども・子育てプラザ内）,大正区,6554-5341,6554-5341,,,,,,,医療・福祉,福祉施設,医療・福祉/福祉施設,134,9205
135.4604669,34.66460794,ファミリー・サポート・センター港,ふぁみりーさぽーとせんたーみなと,ファミリー・サポート・センター港（ふぁみりーさぽーとせんたーみなと）,港区磯路2-11-10　港区子ども・子育てプラザ内,港区,06-6573-7796,06-6573-7792,,,,,,,医療・福祉,福祉施設,医療・福祉/福祉施設,134,1124
135.4604723,34.66470586,港区子ども・子育てプラザ,みなとくこどもこそだてぷらざ,港区子ども・子育てプラザ（みなとくこどもこそだてぷらざ）,港区磯路2-11-10,港区,06-6573-7792,,もとの、トモノス港,,,,,,医療・福祉,福祉施設,医療・福祉/福祉施設,134,1958
135.4619862,34.66427806,ザイオン,ざいおん,ザイオン（ざいおん）,港区市岡1-5-30,港区,06-4395-8888,06-4395-8181,特別養護老人ホーム・ホームヘルプセンター,,http://www.zaion.or.jp/,,,,医療・福祉,福祉施設,医療・福祉/福祉施設,142,1985
135.4619997,34.66412806,港南地域在宅サービスステーション,こうなんちいきざいたくさーびすすてーしょん,港南地域在宅サービスステーション（こうなんちいきざいたくさーびすすてーしょん）,港区市岡1-5-30　ザイオン内,港区,06-6599-7272,06-6599-5656,在宅介護支援センター,,,,,,医療・福祉,福祉施設,医療・福祉/福祉施設,142,1987
135.4545077,34.66826892,港区在宅サービスセンターひまわり,みなとくざいたくさーびすせんたーひまわり,港区在宅サービスセンターひまわり（みなとくざいたくさーびすせんたーひまわり）,港区弁天2-15-1,港区,06-6575-1212,06-6575-1025,在宅介護支援センター,,,,,,医療・福祉,福祉施設,医療・福祉/福祉施設,142,1065
135.4545003,34.66810011,港区在宅デイサービスセンターひまわり,みなとくざいたくでいさーびすせんたーひまわり,港区在宅デイサービスセンターひまわり（みなとくざいたくでいさーびすせんたーひまわり）,港区弁天2-15-1　,港区,06-6575-1212,06-6575-1025,デイサービスセンター,,,,,,医療・福祉,福祉施設,医療・福祉/福祉施設,142,1066
135.4544747,34.66823308,港区ホームヘルプセンター,みなとくほーむへるぷせんたー,港区ホームヘルプセンター（みなとくほーむへるぷせんたー）,港区弁天2-15-1　ひまわり内,港区,06-6575-1721,06-6575-1722,ホームヘルプセンター（身体障害者対象）,,,,,,医療・福祉,福祉施設,医療・福祉/福祉施設,142,1067
135.4544579,34.66818914,港区医師会訪問看護ステーション,みなとくいしかいほうもんかんごすてーしょん,港区医師会訪問看護ステーション（みなとくいしかいほうもんかんごすてーしょん）,港区弁天2-15-1　ひまわり内,港区,06-6576-3646,06-6575-3833,,,,,,,医療・福祉,福祉施設,医療・福祉/福祉施設,142,1068
135.4544781,34.66813594,大阪市港区社会福祉協議会,おおさかしみなとくしゃかいふくしきょうぎかい,大阪市港区社会福祉協議会（おおさかしみなとくしゃかいふくしきょうぎかい）,港区弁天2-15-1　ひまわり内,港区,06-6575-1212,06-6575-1025,,,,http://www.osaka-bfmap.jp/sisetu_data/data/071001.php?bunrui=1&name=7.php,,,医療・福祉,福祉施設,医療・福祉/福祉施設,138,1069
135.4705716,34.66593789,はっぴいポケットみ・な・と,はっぴぽけっとみなと,はっぴいポケットみ・な・と（はっぴぽけっとみなと）,港区南市岡1-11-19,港区,4708-7087,,つどいの広場,,,,,,医療・福祉,福祉施設,医療・福祉/福祉施設,134,9224
135.4885247,34.65781089,スワンなにわ在宅サービスステーション,すわんなにわざいたくさーびすすてーしょん,スワンなにわ在宅サービスステーション（すわんなにわざいたくさーびすすてーしょん）,浪速区浪速東1-11-8,浪速区,06-6562-0456,06-6562-0546,,,,,,,医療・福祉,福祉施設,医療・福祉/福祉施設,142,2680
135.4837748,34.66090619,大阪府福祉人権推進センター(ヒューマインド),おおさかふふくしじんけんすいしんせんたー（ひゅーまいんど）,大阪府福祉人権推進センター(ヒューマインド)（おおさかふふくしじんけんすいしんせんたー（ひゅーまいんど））,浪速区久保吉2-2-3,浪速区,06-6561-4193,06-6561-4111,,,http://www.humind.or.jp/,,,,医療・福祉,福祉施設,医療・福祉/福祉施設,138,2603
135.4844641,34.66060286,スワンなにわデイケアセンター,すわんなにわでいけあせんたー,スワンなにわデイケアセンター（すわんなにわでいけあせんたー）,浪速区久保吉2-2-6,浪速区,06-6568-3290,06-6568-3294,,,,http://www.osaka-bfmap.jp/sisetu_data/data/100801.php?bunrui=1&name=10.php,,,医療・福祉,福祉施設,医療・福祉/福祉施設,141,2604
135.4926028,34.65975608,つどいの広場小田町,つどいのひろばおだまち,つどいの広場小田町（つどいのひろばおだまち）,浪速区塩草2-1-13,浪速区,6562-0007,,つどいの広場,,,,,,医療・福祉,福祉施設,医療・福祉/福祉施設,134,9226
135.5001581,34.65498892,自立支援センターＯＳＡＫＡぽらんぽらん,じりつしえんせんたーおおさかぽらんぽらん　,自立支援センターＯＳＡＫＡぽらんぽらん（じりつしえんせんたーおおさかぽらんぽらん　）,浪速区敷津東3-6-10,浪速区,06-6649-0421,06-6649-0421,,,http://www.e-sora.net/poran2/,,,,医療・福祉,福祉施設,医療・福祉/福祉施設,141,2707
135.5046223,34.65766386,特別養護老人ホームあいぜん,とくべつようごろうじんほーむあいぜん,特別養護老人ホームあいぜん（とくべつようごろうじんほーむあいぜん）,浪速区日本橋5-16-19,浪速区,06-6634-8965,06-6634-8936,,,,,,,医療・福祉,福祉施設,医療・福祉/福祉施設,142,2637
135.4959668,34.65865289,なにわ保健センター附属診療所,なにわほけんせんたーふぞくしんりょうじょ,なにわ保健センター附属診療所（なにわほけんせんたーふぞくしんりょうじょ）,浪速区敷津西1-5-23,浪速区,06-6633-3818,06-6633-6790,,,,,,,医療・福祉,福祉施設,医療・福祉/福祉施設,138,2649
135.4993422,34.66128117,浪速区ボランティアビューロー,なにわくぼらんてぃあびゅーろー,浪速区ボランティアビューロー（なにわくぼらんてぃあびゅーろー）,浪速区難波中3-8-8,浪速区,06-6636-6027,06-6636-6028,,,,,,,医療・福祉,福祉施設,医療・福祉/福祉施設,138,2651
135.4993442,34.66118289,浪速区在宅サービスセンター,なにわくざいたくさーびすせんたー,浪速区在宅サービスセンター（なにわくざいたくさーびすせんたー）,浪速区難波中3-8-8,浪速区,06-6636-6027,06-6636-6028,,,,,,,医療・福祉,福祉施設,医療・福祉/福祉施設,142,2652
135.4993469,34.66108094,浪速区在宅デイサービスセンター,なにわくざいたくでいさーびすせんたー,浪速区在宅デイサービスセンター（なにわくざいたくでいさーびすせんたー）,浪速区難波中3-8-8,浪速区,06-6636-6021,06-6636-6071,,,,,,,医療・福祉,福祉施設,医療・福祉/福祉施設,142,2653
135.4993361,34.66137797,浪速区社会福祉協議会,なにわくしゃかいふくしきょうぎかい,浪速区社会福祉協議会（なにわくしゃかいふくしきょうぎかい）,浪速区難波中3-8-8,浪速区,06-6636-6027,06-6636-6028,,,,,,,医療・福祉,福祉施設,医療・福祉/福祉施設,138,2654
135.4993469,34.66099411,浪速区地域包括支援センター,なにわくちいきほうかつしえんせんたー,浪速区地域包括支援センター（なにわくちいきほうかつしえんせんたー）,浪速区難波中3-8-8,浪速区,06-6636-6027,06-6636-6028,,,,,,,医療・福祉,福祉施設,医療・福祉/福祉施設,142,4669
135.5064359,34.65862814,日本橋老人訪問看護ステーション,にほんばしろうじんほうもんかいごすてーしょん,日本橋老人訪問看護ステーション（にほんばしろうじんほうもんかいごすてーしょん）,浪速区日本橋5-9-22サンキビル5F,浪速区,06-6643-7145,06-6643-7146,,,,,,,医療・福祉,福祉施設,医療・福祉/福祉施設,142,2639
135.4894248,34.66893903,特別養護老人ホームなにわ,とくべつようごろうじんほーむなにわ,特別養護老人ホームなにわ（とくべつようごろうじんほーむなにわ）,浪速区幸町2-3-11,浪速区,06-6568-1861,06-6568-2055,,,http://www.kensyokai.jp/naniwa/naniwa.html,,,,医療・福祉,福祉施設,医療・福祉/福祉施設,142,2614
135.4894389,34.66887514,難波地域在宅サービスステーションなにわ,なんばちいきざいたくさーびすすてーしょんなにわ,難波地域在宅サービスステーションなにわ（なんばちいきざいたくさーびすすてーしょんなにわ）,浪速区幸町2-3-11,浪速区,06-6568-4847,,,,,,,,医療・福祉,福祉施設,医療・福祉/福祉施設,142,2615
135.5090939,34.61405597,自立生活センター・ＭＹ-ＤＯ～まいど～,じりつせいかつせんたー・まいど,自立生活センター・ＭＹ-ＤＯ～まいど～（じりつせいかつせんたー・まいど）,住吉区長居西1丁目9番12号（キミハウス１Ｆ),住吉区,06-6609-3133,06-6609-3210,障害者生活支援センター（障害者やその家族の地域における生活を支援するため、障害のある相談員がさまざまな相談に応じます。介護相談及び情報の提供等を総合的に行っています。）,,http://www1.odn.ne.jp/%7Ecch03940/,,,,医療・福祉,福祉施設,医療・福祉/福祉施設,141,563
135.5209826,34.61690303,聖母託児園,せいぼたくじえん,聖母託児園（せいぼたくじえん）,東住吉区南田辺4-5-2,東住吉区,06-6699-7221,06-6699-7243,,,,,,,医療・福祉,福祉施設,医療・福祉/福祉施設,138,9189
135.5209826,34.61690303,聖家族の家,せいかぞくのいえ,聖家族の家（せいかぞくのいえ）,東住吉区南田辺4-5-2,東住吉区,06-6699-7221,06-6699-7243,,,,,,,医療・福祉,福祉施設,医療・福祉/福祉施設,138,9194
135.5133579,34.62299708,阿倍野区老人福祉センター,あべのくろうじんふくしせんたー,阿倍野区老人福祉センター（あべのくろうじんふくしせんたー）,阿倍野区阪南町5丁目12番26号,阿倍野区,06-6623-8052,06-6623-2876,,,http://www.osaka-sishakyo.jp/soudan/roujin_ichiran.html,http://www.osaka-bfmap.jp/sisetu_data/data/191101.php?bunrui=3&name=search_name.php,,,医療・福祉,福祉施設,医療・福祉/福祉施設,142,4941
135.518258,34.62341697,いくとくⅡ,いくとくつー,いくとくⅡ（いくとくつー）,阿倍野区長池町18-20,阿倍野区,06-4399-0120,06-4399-0121,,,,,,,医療・福祉,福祉施設,医療・福祉/福祉施設,142,1242
135.5254219,34.62142511,早川福祉会館,はやかわふくしかいかん,早川福祉会館（はやかわふくしかいかん）,東住吉区南田辺1丁目9番28号,東住吉区,06-6622-0122,06-6622-0121,,,http://www.city.osaka.lg.jp/fukushi/page/0000007229.html,http://www.osaka-bfmap.jp/sisetu_data/data/220802.php?bunrui=1&name=22.php,,,医療・福祉,福祉施設,医療・福祉/福祉施設,138,3140
135.5275279,34.62068289,東住吉区子ども・子育てプラザ,ひがしすみよしくこどもこそだてぷらざ,東住吉区子ども・子育てプラザ（ひがしすみよしくこどもこそだてぷらざ）,東住吉区東田辺2-11-28,東住吉区,06-6699-3600,,もとトモノス東住吉,,,,,,医療・福祉,福祉施設,医療・福祉/福祉施設,134,41
135.5275691,34.62054539,ファミリー・サポート・センター東住吉,ふぁみりーさぽーとせんたーひがしすみよし,ファミリー・サポート・センター東住吉（ふぁみりーさぽーとせんたーひがしすみよし）,東住吉区東田辺2-11-28（東住吉区子ども・子育てプラザ内）,東住吉区,6699-3605,6699-3605,,,,,,,医療・福祉,福祉施設,医療・福祉/福祉施設,134,9216
135.527406,34.62479414,東住吉区在宅サービスセンター（さわやかセンター）,ひがしすみよしくざいたくさーびすせんたー（さわやかせんたー）,東住吉区在宅サービスセンター（さわやかセンター）（ひがしすみよしくざいたくさーびすせんたー（さわやかせんたー））,東住吉区田辺2-10-18,東住吉区,06-6622-6611,,,,http://www.higashisumiyoshikusyakyou.or.jp/,http://www.osaka-bfmap.jp/sisetu_data/data/221001.php?bunrui=1&name=22.php,,,医療・福祉,福祉施設,医療・福祉/福祉施設,142,3119
135.5474611,34.6106,おとしよりすこやかセンター南部館,おとしよりすこやかせんたーなんぶかん,おとしよりすこやかセンター南部館（おとしよりすこやかせんたーなんぶかん）,平野区喜連西6丁目2番33号,平野区,06-6701-6700,,,,,,,,医療・福祉,福祉施設,医療・福祉/福祉施設,142,2279
135.5576419,34.61338911,喜連子育て支援センター,きれこそだてしえんせんたー,喜連子育て支援センター（きれこそだてしえんせんたー）,平野区喜連6-7-48,平野区,06-6790-2800,,もと平野児童館,,,,,,医療・福祉,福祉施設,医療・福祉/福祉施設,134,2272
135.5564858,34.62342511,平野区在宅サービスセンター(にこにこセンター),ひらのくざいたくさーびすせんたー（にこにこせんたー）,平野区在宅サービスセンター(にこにこセンター)（ひらのくざいたくさーびすせんたー（にこにこせんたー））,平野区平野東2-1-30,平野区,06-6795-2525,,,,http://hirano.kusyakyou.or.jp/,,,,医療・福祉,福祉施設,医療・福祉/福祉施設,142,2334
135.516511,34.62795608,平和寮（救護施設）,へいわりょう（きゅうごしせつ）,平和寮（救護施設）（へいわりょう（きゅうごしせつ））,阿倍野区昭和町3丁目4番27号,阿倍野区,06-6628-6151,,,,,,,,医療・福祉,福祉施設,医療・福祉/福祉施設,141,1872
135.5152141,34.62685283,パン工房シルフ,しるふ,パン工房シルフ（しるふ）,阿倍野区阪南町3-43-8,阿倍野区,06-6626-6074,06-6626-6075,,,,,,,医療・福祉,福祉施設,医療・福祉/福祉施設,138,1873
135.5142338,34.62582017,茶来（さらい）,さらい,茶来（さらい）（さらい）,阿倍野区阪南町４－８－３　１階,阿倍野区,06-6659-9320,06-6659-9320,,,,,,,医療・福祉,福祉施設,医療・福祉/福祉施設,138,1876
135.5157329,34.62800597,平和寮（盲児童施設）,へいわりょう（もうじしせつ）,平和寮（盲児童施設）（へいわりょう（もうじしせつ））,阿倍野区阪南町3-27-2,阿倍野区,06-6621-4583,06-6622-2156,,,http://www.helenkeller.or.jp/mouji-heiwaryo.htm,,,,医療・福祉,福祉施設,医療・福祉/福祉施設,141,4936
135.5113832,34.63250786,デイセンターコスモス,でいせんたーこすもす,デイセンターコスモス（でいせんたーこすもす）,阿倍野区王子町2-8-4,阿倍野区,06-6627-7130,06-6627-7130,,,,,,,医療・福祉,福祉施設,医療・福祉/福祉施設,142,1871
135.5154249,34.63087803,阿倍野区子ども・子育てプラザ,あべのくこどもこそだてぷらざ,阿倍野区子ども・子育てプラザ（あべのくこどもこそだてぷらざ）,阿倍野区阪南町2-23-21,阿倍野区,06-6623-1775,06-6623-1775,もと阿倍野児童館,,http://www.manabi.city.osaka.jp/Contents/lll/sisetu/inview.asp?CONTENTNO=766,,,,医療・福祉,福祉施設,医療・福祉/福祉施設,134,361
135.5154721,34.63074386,みどり教室,みどりきょうしつ,みどり教室（みどりきょうしつ）,阿倍野区阪南町2-23-11,阿倍野区,06-6622-3759,06-6622-3769,,,,,,,医療・福祉,福祉施設,医療・福祉/福祉施設,138,1870
135.5179528,34.63146086,さをり工房シルフ,さをりこうぼうしるふ,さをり工房シルフ（さをりこうぼうしるふ）,阿倍野区昭和町2-8-27,阿倍野区,06-6628-8486,06-6628-8486,,,,,,,医療・福祉,福祉施設,医療・福祉/福祉施設,138,1874
135.5151891,34.63073094,阿倍野区福祉作業センター,あべのくふくしさぎょうせんたー,阿倍野区福祉作業センター（あべのくふくしさぎょうせんたー）,阿倍野区阪南町2-23-12,阿倍野区,06-6622-3759,06-6622-3769,,,,,,,医療・福祉,福祉施設,医療・福祉/福祉施設,138,3726
135.5132218,34.63361694,ワークスペース街,わーくすぺーすまーち,ワークスペース街（わーくすぺーすまーち）,阿倍野区阪南町1-55-1,阿倍野区,06-6622-2866,06-6622-2866,,,,,,,医療・福祉,福祉施設,医療・福祉/福祉施設,138,374
135.5078313,34.637739,ふれ愛丸山荘,ふれあいまるやまそう,ふれ愛丸山荘（ふれあいまるやまそう）,阿倍野区丸山通1-2-8,阿倍野区,06-6655-6611,06-6653-2941,,,http://www.fureai-m.jp/,,,,医療・福祉,福祉施設,医療・福祉/福祉施設,138,1726
135.5122611,34.639222,あべの作業所,あべのさぎょうしょ,あべの作業所（あべのさぎょうしょ）,阿倍野区阿倍野筋4-13-20,阿倍野区,06-6624-6685,06-6624-6685,,,,,,,医療・福祉,福祉施設,医療・福祉/福祉施設,138,1761
135.5145686,34.63914403,大阪マック,おおさかまっく,大阪マック（おおさかまっく）,阿倍野区阪南町１－４－５,阿倍野区,06-6621-2996,06-6629-3539,,,,,,,医療・福祉,福祉施設,医療・福祉/福祉施設,138,1762
135.5302802,34.63592672,ハート広場,はーとひろば,ハート広場（はーとひろば）,東住吉区桑津5-11-19,東住吉区,6719-6055,,つどいの広場,,,,,,医療・福祉,福祉施設,医療・福祉/福祉施設,134,9247
135.5218032,34.63665586,ふみのさと倶楽部,ふみのさとくらぶ,ふみのさと倶楽部（ふみのさとくらぶ）,阿倍野区文の里3-6-10,阿倍野区,06-6624-6522,06-6624-8410,,,,,,,医療・福祉,福祉施設,医療・福祉/福祉施設,142,1619
135.540558,34.63137253,つどいの広場「ひまわり」,つどいのひろばひまわり,つどいの広場「ひまわり」（つどいのひろばひまわり）,東住吉区今川2-3-15,東住吉区,090-6406-4076,,つどいの広場,,,,,,医療・福祉,福祉施設,医療・福祉/福祉施設,134,9248
135.549925,34.62817192,大念仏乳児院,だいねんぶつにゅうじいん,大念仏乳児院（だいねんぶつにゅうじいん）,平野区平野上町1-7-3,平野区,06-6791-5410,06-6791-7774,,,,,,,医療・福祉,福祉施設,医療・福祉/福祉施設,138,9191
135.5492425,34.62697075,つどいの広場「ドレミ」,つどいのひろばどれみ,つどいの広場「ドレミ」（つどいのひろばどれみ）,平野区平野上町1-9-11,平野区,6791-5410,,つどいの広場,,,,,,医療・福祉,福祉施設,医療・福祉/福祉施設,134,9251
135.5529218,34.637392,あざみ,あざみ,あざみ（あざみ）,生野区巽南5丁目6番5号Ａ棟,生野区,06-6794-1070,,,,,,,,医療・福祉,福祉施設,医療・福祉/福祉施設,142,4666
135.5529002,34.63735283,福祉作業センターアトム,ふくしさぎょうせんたーあとむ,福祉作業センターアトム（ふくしさぎょうせんたーあとむ）,生野区巽南5丁目6番5号Ｂ棟,生野区,06-6795-2310,,,,,,,,医療・福祉,福祉施設,医療・福祉/福祉施設,138,4667
135.5590244,34.63838167,ふれんど広場,ふれんどひろば,ふれんど広場（ふれんどひろば）,平野区加美北4-5-25-100,平野区,6131-8941,,つどいの広場,,,,,,医療・福祉,福祉施設,医療・福祉/福祉施設,134,9250
135.5647809,34.62645811,平野区老人福祉センター,ひらのくろうじんふくしせんたー,平野区老人福祉センター（ひらのくろうじんふくしせんたー）,平野区加美鞍作1丁目2番26号,平野区,06-6793-0880,06-6793-0868,,,http://www.osaka-sishakyo.jp/soudan/roujin_ichiran.html,http://www.osaka-bfmap.jp/sisetu_data/data/231101.php?bunrui=1&name=23.php,,,医療・福祉,福祉施設,医療・福祉/福祉施設,142,2251
135.5093533,34.64326692,ファミリー・サポート・センター阿倍野,ふぁみりーさぽーとせんたーあべの,ファミリー・サポート・センター阿倍野（ふぁみりーさぽーとせんたーあべの）,阿倍野区阪南町2-23-21阿倍野区子ども・子育てプラザ内,阿倍野区,06-6623-2096,,,,,,,,医療・福祉,福祉施設,医療・福祉/福祉施設,134,1755
135.5194222,34.64317194,四天王寺さんめい苑,してんのうじさんめいえん,四天王寺さんめい苑（してんのうじさんめいえん）,阿倍野区三明町1-2-29,阿倍野区,06-6625-0471,06-6625-0481,,,http://www7.ocn.ne.jp/~sanmeien/,,,,医療・福祉,福祉施設,医療・福祉/福祉施設,141,1198
135.5153077,34.64411906,ケアハウス阿倍野,けあはうすあべの,ケアハウス阿倍野（けあはうすあべの）,阿倍野区松崎町2-3-10,阿倍野区,06-6626-3703,06-6626-3705,,,http://www.tezukayama.or.jp/abeno/,,,,医療・福祉,福祉施設,医療・福祉/福祉施設,142,1218
135.5152828,34.64422511,阪和苑,はんわえん,阪和苑（はんわえん）,阿倍野区松崎町2-3-10,阿倍野区,06-6626-3731,06-6626-3732,,,http://www.tezukayama.or.jp/hanwaen/,,,,医療・福祉,福祉施設,医療・福祉/福祉施設,142,1219
135.5264331,34.64293917,いくとく,いくとく,いくとく（いくとく）,阿倍野区天王寺町北3-18-16,阿倍野区,06-6713-1165,06-6714-1185,,,,,,,医療・福祉,福祉施設,医療・福祉/福祉施設,142,1268
135.5238217,34.64420292,阿倍野ひまわり作業所,あべのひまわりさぎょうしょ,阿倍野ひまわり作業所（あべのひまわりさぎょうしょ）,阿倍野区天王寺町北2-31-9,阿倍野区,06-6714-2492,,,,,,,,医療・福祉,福祉施設,医療・福祉/福祉施設,141,3725
135.5071609,34.65179697,日本橋地域在宅サービスステーション,にほんばしちいきざいたくさーびすすてーしょん,日本橋地域在宅サービスステーション（にほんばしちいきざいたくさーびすすてーしょん）,浪速区恵美須東2-1-4,浪速区,06-6632-2340,06-6630-3336,,,,,,,医療・福祉,福祉施設,医療・福祉/福祉施設,142,2609
135.5100573,34.65280642,四恩学園,しおんがくえん,四恩学園（しおんがくえん）,天王寺区逢阪2-8-41,天王寺区,06-6771-9360,06-6771-2313,,,,,,,医療・福祉,福祉施設,医療・福祉/福祉施設,138,9193
135.5313918,34.64839983,夢の箱(生野東地域在宅サービスステーション),ゆめのはこ（いくのひがしちいきざいたくさーびすすてーしょん）,夢の箱(生野東地域在宅サービスステーション)（ゆめのはこ（いくのひがしちいきざいたくさーびすすてーしょん））,生野区生野東2丁目5番8号,生野区,06-6715-2188,06-6715-2224,,,,,,,医療・福祉,福祉施設,医療・福祉/福祉施設,142,4602
135.5337809,34.65464383,社会福祉法人愛生会あじさいの里,しゃかいふくしほうじんあいせいかいあじさいのさと,社会福祉法人愛生会あじさいの里（しゃかいふくしほうじんあいせいかいあじさいのさと）,生野区勝山北3丁目13番20号,生野区,06-6716-1199,06-6716-1100,,,,,,,医療・福祉,福祉施設,医療・福祉/福祉施設,138,4549
135.5393561,34.64735783,社会福祉法人聖徳園本願寺児童センター,しゃかいふくしほうじんしょうとくえんほんがんじじどうせんたー,社会福祉法人聖徳園本願寺児童センター（しゃかいふくしほうじんしょうとくえんほんがんじじどうせんたー）,生野区舎利寺3丁目11番14号,生野区,06-6717-5550,,,,,,,,医療・福祉,福祉施設,医療・福祉/福祉施設,138,4514
135.5382613,34.64504986,社会福祉法人田島童園,しゃかいふくしほうじんたじまどうえん,社会福祉法人田島童園（しゃかいふくしほうじんたじまどうえん）,生野区林寺5丁目11番24号,生野区,06-6731-2321,06-6731-8502,,,,,,,医療・福祉,福祉施設,医療・福祉/福祉施設,138,4763
135.5410579,34.64400597,大阪ひかり作業所,おおさかひかりさぎょうしょ,大阪ひかり作業所（おおさかひかりさぎょうしょ）,生野区田島5丁目11番26号,生野区,06-6758-3943,,,,,,,,医療・福祉,福祉施設,医療・福祉/福祉施設,141,4731
135.5499499,34.64123303,金の鈴(新巽地域在宅サービスステーション),きんのすず（しんたつみちいきざいたくさーびすすてーしょん）,金の鈴(新巽地域在宅サービスステーション)（きんのすず（しんたつみちいきざいたくさーびすすてーしょん））,生野区巽南3丁目5番25号,生野区,06-6758-8111,06-6752-9458,,,,,,,医療・福祉,福祉施設,医療・福祉/福祉施設,142,4661
135.5499418,34.64116392,社会福祉法人藤光会金の鈴,しゃかいふくしほうじんとうこうかいきんのすず,社会福祉法人藤光会金の鈴（しゃかいふくしほうじんとうこうかいきんのすず）,生野区巽南3丁目5番25号,生野区,06-6758-8111,06-6752-9458,,,,,,,医療・福祉,福祉施設,医療・福祉/福祉施設,138,4662
135.549958,34.64216906,社会福祉法人三秀會甍,しゃかいふくしほうじんさんしゅうかいいらか,社会福祉法人三秀會甍（しゃかいふくしほうじんさんしゅうかいいらか）,生野区巽南3丁目7番30号,生野区,06-6752-1339,06-6756-8839,,,,,,,医療・福祉,福祉施設,医療・福祉/福祉施設,138,4663
135.5580502,34.64575008,社会福祉法人慶生会瑞光苑,しゃかいふくしほうじんけいせいかいずいこうえん,社会福祉法人慶生会瑞光苑（しゃかいふくしほうじんけいせいかいずいこうえん）,生野区巽東4丁目11番10号,生野区,06-6758-0088,06-6758-7601,,,,,,,医療・福祉,福祉施設,医療・福祉/福祉施設,138,4650
135.5579862,34.64579703,瑞光苑(新生野地域在宅サービスステーション),ずいこうえん（しんいくのちいきざいたくさーびすすてーしょん）,瑞光苑(新生野地域在宅サービスステーション)（ずいこうえん（しんいくのちいきざいたくさーびすすてーしょん））,生野区巽東4丁目11番10号,生野区,06-6758-0088,06-6758-7601,,,,,,,医療・福祉,福祉施設,医療・福祉/福祉施設,142,4651
135.53757,34.64777242,つどいの広場「どんどこ」,つどいのひろばどんどこ,つどいの広場「どんどこ」（つどいのひろばどんどこ）,生野区舎利寺3-9-10,生野区,6731-6757,,つどいの広場,,,,,,医療・福祉,福祉施設,医療・福祉/福祉施設,134,9236
135.5464168,34.64887503,ワークス和,わーくすなごみ,ワークス和（わーくすなごみ）,生野区巽西2丁目6番11号,生野区,06-6757-2346,,,,,,,,医療・福祉,福祉施設,医療・福祉/福祉施設,141,4616
135.5470832,34.65001714,医療法人育和会老人保健施設ひまわり,いりょうほうじんいくわかいろうじんほけんしせつひまわり,医療法人育和会老人保健施設ひまわり（いりょうほうじんいくわかいろうじんほけんしせつひまわり）,生野区巽西2丁目9番31号,生野区,06-6751-7290,06-6751-8900,,,,,,,医療・福祉,福祉施設,医療・福祉/福祉施設,142,4617
135.5428312,34.65028614,出発のなかまの会どんぐり第2作業所,たびだちのなかまのかいどんぐりだいにさぎょうしょ,出発のなかまの会どんぐり第2作業所（たびだちのなかまのかいどんぐりだいにさぎょうしょ）,生野区田島2丁目8番13号,生野区,06-6752-4695,,,,,,,,医療・福祉,福祉施設,医療・福祉/福祉施設,141,4723
135.5424937,34.650697,出発のなかまの会どんぐり作業所,たびだちのなかまのかいどんぐりさぎょうしょ,出発のなかまの会どんぐり作業所（たびだちのなかまのかいどんぐりさぎょうしょ）,生野区田島2丁目8番26号,生野区,06-6751-3141,,,,,,,,医療・福祉,福祉施設,医療・福祉/福祉施設,141,4724
135.5424863,34.64880592,やすらぎ苑(田島地域在宅サービスステーション),やすらぎえん（たしまちいきざいたくさーびすすてーしょん）,やすらぎ苑(田島地域在宅サービスステーション)（やすらぎえん（たしまちいきざいたくさーびすすてーしょん））,生野区田島3丁目6番13号,生野区,06-6751-1270,06-6751-1271,,,,,,,医療・福祉,福祉施設,医療・福祉/福祉施設,142,4727
135.5390192,34.65327492,生野デイサービスセンター,いくのでいさーびすせんたー,生野デイサービスセンター（いくのでいさーびすせんたー）,生野区勝山南4丁目7番35号,生野区,06-6712-2228,06-6712-3528,,,,,,,医療・福祉,福祉施設,医療・福祉/福祉施設,142,4539
135.5390078,34.653378,生野区老人福祉センター,いくのくろうじんふくしせんたー,生野区老人福祉センター（いくのくろうじんふくしせんたー）,生野区勝山南4丁目7番35号,生野区,06-6712-2228,06-6712-3528,,,http://www.osaka-sishakyo.jp/soudan/roujin_ichiran.html,http://www.osaka-bfmap.jp/sisetu_data/data/151101.php?bunrui=1&name=15.php,,,医療・福祉,福祉施設,医療・福祉/福祉施設,142,4540
135.5429033,34.65396694,ニュータイプ作業所,にゅーたいぷさぎょうしょ,ニュータイプ作業所（にゅーたいぷさぎょうしょ）,生野区中川6丁目13番10号,生野区,06-6753-5937,,,,,,,,医療・福祉,福祉施設,医療・福祉/福祉施設,141,4694
135.5421467,34.65308611,出発のなかまの会たびだち共働作業所,たびだちのなかまのかいたびだちきょうどうさぎょうしょ,出発のなかまの会たびだち共働作業所（たびだちのなかまのかいたびだちきょうどうさぎょうしょ）,生野区田島1丁目10番30号,生野区,06-6758-6641,,,,,,,,医療・福祉,福祉施設,医療・福祉/福祉施設,141,4717
135.5434814,34.65278092,あかとんぼ作業所,あかとんぼさぎょうしょ,あかとんぼ作業所（あかとんぼさぎょうしょ）,生野区田島1丁目16番10号,生野区,06-6752-4705,,,,,,,,医療・福祉,福祉施設,医療・福祉/福祉施設,141,4718
135.5434362,34.65284706,社会福祉法人聖フランシスコ会生野こどもの家,しゃかいふくしほうじんせいさんふらんしすこかいいくのこどものいえ,社会福祉法人聖フランシスコ会生野こどもの家（しゃかいふくしほうじんせいさんふらんしすこかいいくのこどものいえ）,生野区田島1丁目16番10号,生野区,06-6753-0471,,,,,,,,医療・福祉,福祉施設,医療・福祉/福祉施設,138,4719
135.5517077,34.64766417,インパレスみのり苑(巽地域在宅サービスステーション),いんぱれすみのりえん（たつみちいきざいたくさーびすすてーしょん）,インパレスみのり苑(巽地域在宅サービスステーション)（いんぱれすみのりえん（たつみちいきざいたくさーびすすてーしょん））,生野区巽中3丁目14番3号,生野区,06-6756-5200,06-6756-6688,,,,,,,医療・福祉,福祉施設,医療・福祉/福祉施設,142,4632
135.5518061,34.64785003,社会福祉法人久栄会インパレスみのり苑,しゃかいふくしほうじんきゅうえいかいいんぱれすみのりえん,社会福祉法人久栄会インパレスみのり苑（しゃかいふくしほうじんきゅうえいかいいんぱれすみのりえん）,生野区巽中3丁目14番3号,生野区,06-6756-5200,06-6756-6688,,,,,,,医療・福祉,福祉施設,医療・福祉/福祉施設,138,4633
135.5551532,34.64813083,あったかスマイル・いくの,あったかすまいるいくの,あったかスマイル・いくの（あったかすまいるいくの）,生野区巽東2-1-6,生野区,6753-7728,,つどいの広場,,,,,,医療・福祉,福祉施設,医療・福祉/福祉施設,134,9237
135.5531717,34.651678,医療法人同友会老人保健施設ハーモニー共和,いりょうほうじんどうゆうかいろうじんほけんしせつはーもにーきょうわ,医療法人同友会老人保健施設ハーモニー共和（いりょうほうじんどうゆうかいろうじんほけんしせつはーもにーきょうわ）,生野区巽中1丁目20番14号,生野区,06-6755-0001,06-6755-0002,,,,,,,医療・福祉,福祉施設,医療・福祉/福祉施設,142,4624
135.5500031,34.65166914,社会福祉法人光音会巽さくらら苑,しゃかいふくしほうじんこうおんかいたつみさくららえん,社会福祉法人光音会巽さくらら苑（しゃかいふくしほうじんこうおんかいたつみさくららえん）,生野区巽中1丁目5番8号,生野区,06-6753-1147,06-6751-1122,,,,,,,医療・福祉,福祉施設,医療・福祉/福祉施設,138,4625
135.548692,34.65379994,生野区子ども・子育てプラザ,いくのくこどもこそだてぷらざ,生野区子ども・子育てプラザ（いくのくこどもこそだてぷらざ）,生野区巽北2丁目4番16号,生野区,06-6752-8000,06-6752-8000,もとトモノス生野,,http://www.osaka-kosodate.net/plaza/ikuno/,,,,医療・福祉,福祉施設,医療・福祉/福祉施設,134,4674
135.5487082,34.65379403,ファミリー・サポート・センター生野,ふぁみりーさぽーとせんたーいくの,ファミリー・サポート・センター生野（ふぁみりーさぽーとせんたーいくの）,生野区巽北2-4-16（生野区子ども・子育てプラザ内）,生野区,6752-8005,6752-8005,,,,,,,医療・福祉,福祉施設,医療・福祉/福祉施設,134,9211
135.5580031,34.65330817,生野共働の家こさり作業所,いくのきょうどうのいえこさりさぎょうしょ,生野共働の家こさり作業所（いくのきょうどうのいえこさりさぎょうしょ）,生野区巽北4丁目13番20号,生野区,06-6756-7131,,,,,,,,医療・福祉,福祉施設,医療・福祉/福祉施設,141,4678
135.5090002,34.65750794,なにわ工房,なにわこうぼう,なにわ工房（なにわこうぼう）,浪速区下寺3-2-7,浪速区,06-6633-3171,06-6633-3171,,,http://naniwakoubou.hp.infoseek.co.jp/,,,,医療・福祉,福祉施設,医療・福祉/福祉施設,141,2598
135.514669,34.65783603,天王寺区在宅サービスセンター ゆうあい,てんのうじくざいたくさーびすせんたー　ゆうあい,天王寺区在宅サービスセンター ゆうあい（てんのうじくざいたくさーびすせんたー　ゆうあい）,天王寺区六万体町5-26,天王寺区,06-6774-3377,06-6774-3999,,,http://www.yuuai.org/,http://www.osaka-bfmap.jp/sisetu_data/data/091001.php?bunrui=1&name=9.php,,,医療・福祉,福祉施設,医療・福祉/福祉施設,142,4353
135.5097891,34.65993306,浪速区子ども・子育てプラザ,なにわくこどもこそだてぷらざ,浪速区子ども・子育てプラザ（なにわくこどもこそだてぷらざ）,浪速区下寺2-2-12,浪速区,06-6643-0694,06-6643-0694,もとトモノス浪速,,http://www.osaka-kosodate.net/plaza/naniwa/index.php,,,,医療・福祉,福祉施設,医療・福祉/福祉施設,134,1685
135.509775,34.65979708,浪速区老人福祉センター,なにわくろうじんふくしせんたー,浪速区老人福祉センター（なにわくろうじんふくしせんたー）,浪速区下寺2丁目2番12号,浪速区,06-6643-0792,06-6644-6934,,,http://www.osaka-sishakyo.jp/soudan/roujin_ichiran.html,http://www.osaka-bfmap.jp/sisetu_data/data/101101.php?bunrui=2&name=/sisetu_data/y_sisetu/y11.php,,,医療・福祉,福祉施設,医療・福祉/福祉施設,142,2596
135.5098814,34.65988761,ファミリー・サポート・センター浪速,ふぁみりーさぽーとせんたーなにわ,ファミリー・サポート・センター浪速（ふぁみりーさぽーとせんたーなにわ）,浪速区下寺2-2-12（浪速区子ども・子育てプラザ内）,浪速区,6643-0695,6643-0695,,,,,,,医療・福祉,福祉施設,医療・福祉/福祉施設,134,9207
135.514031,34.65998883,天王寺区老人福祉センター,てんのうじくろうじんふくしせんたー,天王寺区老人福祉センター（てんのうじくろうじんふくしせんたー）,天王寺区生玉寺町7番57号,天王寺区,06-6771-8606,06-6779-5790,,,http://www.osaka-sishakyo.jp/soudan/roujin_ichiran.html,,,,医療・福祉,福祉施設,医療・福祉/福祉施設,142,4306
135.5337688,34.65480789,おかちやま(生野区在宅サービスセンター),おかちやま（いくのくざいたくさーびすせんたー）,おかちやま(生野区在宅サービスセンター)（おかちやま（いくのくざいたくさーびすせんたー））,生野区勝山北3丁目13番20号,生野区,06-6712-3101,06-6712-3001,,,,,,,医療・福祉,福祉施設,医療・福祉/福祉施設,142,4548
135.5226999,34.65999992,四天王寺きたやま苑（夕陽丘地域在宅サービスステーション）,してんのうじきたやまえん（ゆうひがおかちいきざいたくさーびすすてーしょん）,四天王寺きたやま苑（夕陽丘地域在宅サービスステーション）（してんのうじきたやまえん（ゆうひがおかちいきざいたくさーびすすてーしょん））,天王寺区北山町9-6,天王寺区,06-6773-1811,06-6773-1840,,,,,,,医療・福祉,福祉施設,医療・福祉/福祉施設,142,4343
135.5335747,34.66197794,デフ・ワークス,でふ・わーくす,デフ・ワークス（でふ・わーくす）,生野区桃谷2丁目6番16号エクシード桃谷2B,生野区,06-6711-2330,,,,,,,,医療・福祉,福祉施設,医療・福祉/福祉施設,141,4740
135.5151642,34.662306,大阪府盲人福祉センター,おおさかふもうじんふくしせんたー,大阪府盲人福祉センター（おおさかふもうじんふくしせんたー）,天王寺区生玉前町5-25,天王寺区,06-6772-1766,,,,http://homepage2.nifty.com/fushikyo/,,,,医療・福祉,福祉施設,医療・福祉/福祉施設,141,4309
135.5331442,34.66301089,ウィールチェアー,うぃーるちぇあー,ウィールチェアー（うぃーるちぇあー）,生野区鶴橋2丁目15番31号,生野区,06-6717-0950,,,,,,,,医療・福祉,福祉施設,医療・福祉/福祉施設,141,4711
135.5218975,34.66643328,市立社会福祉センター,しりつしゃかいふくしせんたー,市立社会福祉センター（しりつしゃかいふくしせんたー）,天王寺区東高津町12番10号,天王寺区,06-6765-5641,06-6765-5644,,,http://www.shakaihukushi-center.jp/,http://www.osaka-bfmap.jp/sisetu_data/data/090201.php?bunrui=1&name=9php,,,医療・福祉,福祉施設,医療・福祉/福祉施設,138,4327
135.522161,34.66640078,シルバー人材センター南部支部,しるばーじんざいせんたーなんぶしぶ,シルバー人材センター南部支部（しるばーじんざいせんたーなんぶしぶ）,天王寺区東高津町12番10号,天王寺区,06-6765-6116,06-6765-6115,,,http://www.osakasc.or.jp/index.html,,,,医療・福祉,福祉施設,医療・福祉/福祉施設,142,9188
135.5277779,34.66775803,天王寺区子ども・子育てプラザ,てんのうじくこども・こそだてぷらざ,天王寺区子ども・子育てプラザ（てんのうじくこども・こそだてぷらざ）,天王寺区味原町9-14,天王寺区,06-6763-3525,,もとトモノス天王寺,,http://www.manabi.city.osaka.jp/Contents/lll/sisetu/inview.asp?CONTENTNO=740,,,,医療・福祉,福祉施設,医療・福祉/福祉施設,134,4348
135.527819,34.66774067,ファミリー・サポート・センター天王寺,ふぁみりーさぽーとせんたーてんのうじ,ファミリー・サポート・センター天王寺（ふぁみりーさぽーとせんたーてんのうじ）,天王寺区味原町9-14（天王寺区子ども・子育てプラザ内）,天王寺区,6763-3540,6763-3540,,,,,,,医療・福祉,福祉施設,医療・福祉/福祉施設,134,9206
135.534997,34.65765608,医療法人アエバ会老人保健施設すこやか生野,いりょうほうじんあえばかいろうじんほけんしせつすこやかいくの,医療法人アエバ会老人保健施設すこやか生野（いりょうほうじんあえばかいろうじんほけんしせつすこやかいくの）,生野区勝山北4丁目1番8号,生野区,06-6717-8002,06-6717-8072,,,,,,,医療・福祉,福祉施設,医療・福祉/福祉施設,142,4557
135.5400002,34.65741411,山ざる組ちっぷり,やまざるぐみちっぷり,山ざる組ちっぷり（やまざるぐみちっぷり）,生野区中川西3丁目1番33番　,生野区,06-6716-1699,,,,,,,,医療・福祉,福祉施設,医療・福祉/福祉施設,141,4702
135.5384283,34.65826903,社会福祉法人聖和共働福祉会聖和社会館,しゃかいふくしほうじんせいわきょうどうふくしかいせいわしゃかいかん,社会福祉法人聖和共働福祉会聖和社会館（しゃかいふくしほうじんせいわきょうどうふくしかいせいわしゃかいかん）,生野区桃谷5丁目10番29号,生野区,06-6718-1750,06-6718-1756,,,,,,,医療・福祉,福祉施設,医療・福祉/福祉施設,138,4748
135.5385213,34.65825314,つどいの広場”ポポポ”,つどいのひろばぽぽぽ,つどいの広場”ポポポ”（つどいのひろばぽぽぽ）,生野区桃谷5-10-29,生野区,6731-6112,,つどいの広場,,,,,,医療・福祉,福祉施設,医療・福祉/福祉施設,134,9235
135.545675,34.65837803,医療法人貴和会老人保健施設ケアホームフォーシーズン,いりょうほうじんきわかいろうじんふくししせつけあほーむふぉーしーずん,医療法人貴和会老人保健施設ケアホームフォーシーズン（いりょうほうじんきわかいろうじんふくししせつけあほーむふぉーしーずん）,生野区中川5丁目4番2号,生野区,06-6755-1000,06-6755-1100,,,,,,,医療・福祉,福祉施設,医療・福祉/福祉施設,142,4692
135.5431357,34.66126714,故郷の家デイサービスセンター(大池地域在宅サービスステーション),こきょうのいえでいさーびすせんたー（おおいけちいきざいたくさーびすすてーしょん）,故郷の家デイサービスセンター(大池地域在宅サービスステーション)（こきょうのいえでいさーびすせんたー（おおいけちいきざいたくさーびすすてーしょん））,生野区中川2丁目4番26号,生野区,06-6753-6580,06-6753-6552,,,,,,,医療・福祉,福祉施設,医療・福祉/福祉施設,142,4686
135.5431357,34.66117514,社会福祉法人こころの家族故郷の家,しゃかいふくしほうじんこころのかぞくふるさとのいえ,社会福祉法人こころの家族故郷の家（しゃかいふくしほうじんこころのかぞくふるさとのいえ）,生野区中川2丁目4番26号,生野区,06-6753-6580,06-6753-6552,,,,,,,医療・福祉,福祉施設,医療・福祉/福祉施設,138,4688
135.5548439,34.65623292,社会福祉法人いわき学園いわき生野学園,しゃかいふくしほうじんいわきがくえんいわきいくのがくえん,社会福祉法人いわき学園いわき生野学園（しゃかいふくしほうじんいわきがくえんいわきいくのがくえん）,生野区小路3丁目19番19号,生野区,06-6753-1121,06-6753-1123,,,,,,,医療・福祉,福祉施設,医療・福祉/福祉施設,138,4567
135.5549578,34.656186,生野障害者福祉作業センター,いくのしょうがいしゃふくしさぎょうせんたー,生野障害者福祉作業センター（いくのしょうがいしゃふくしさぎょうせんたー）,生野区小路3丁目19番22号,生野区,06-6758-2684,,,,,,,,医療・福祉,福祉施設,医療・福祉/福祉施設,138,4569
135.5548358,34.656186,生野障害者福祉作業センター,いくのしょうがいしゃふくしさぎょうせんたー,生野障害者福祉作業センター（いくのしょうがいしゃふくしさぎょうせんたー）,生野区小路3丁目19番22号,生野区,06-6758-2684,06-6758-2684,,,,,,,医療・福祉,福祉施設,医療・福祉/福祉施設,138,4570
135.548308,34.66048317,応援センター第一作業所良返屋（りょうがえや）,おうえんせんたーだいいちさぎょうしょりょうがえや,応援センター第一作業所良返屋（りょうがえや）（おうえんせんたーだいいちさぎょうしょりょうがえや）,生野区新今里5丁目6番15号,生野区,06-6756-0972,,,,,,,,医療・福祉,福祉施設,医療・福祉/福祉施設,141,4587
135.5427611,34.66349411,コスモス,こすもす,コスモス（こすもす）,生野区中川1丁目3番24号,生野区,06-6756-5199,,,,,,,,医療・福祉,福祉施設,医療・福祉/福祉施設,142,4681
135.5423421,34.66246117,社会福祉法人弘仁会レインボー今里,しゃかいふくしほうじんこうじんかいれんぼーいまざと,社会福祉法人弘仁会レインボー今里（しゃかいふくしほうじんこうじんかいれんぼーいまざと）,生野区中川1丁目6番20号,生野区,06-6755-6700,06-6755-6701,,,,,,,医療・福祉,福祉施設,医療・福祉/福祉施設,138,4683
135.541797,34.66414211,福祉作業所きっさとリサイクルの店わんさか,ふくしさぎょうしょきっさとりさいくるのみせわんさか,福祉作業所きっさとリサイクルの店わんさか（ふくしさぎょうしょきっさとりさいくるのみせわんさか）,生野区中川西1丁目7番19号,生野区,06-6731-7200,,,,,,,,医療・福祉,福祉施設,医療・福祉/福祉施設,138,4698
135.5353332,34.66833172,支援センター中,しえんせんたーなか,支援センター中（しえんせんたーなか）,東成区玉津2-11-28-2F,東成区,06-6975-3380,,,,,,,,医療・福祉,福祉施設,医療・福祉/福祉施設,141,8459
135.5412863,34.665922,サラダぼーる,さらだぼーる,サラダぼーる（さらだぼーる）,東成区大今里西3-17-17-101,東成区,06-4259-2507,06-4259-2507,,,,,,,医療・福祉,福祉施設,医療・福祉/福祉施設,141,3413
135.5423313,34.66769411,東成区老人福祉センター,ひがしなりくろうじんふくしせんたー,東成区老人福祉センター（ひがしなりくろうじんふくしせんたー）,東成区大今里西3丁目6番6号,東成区,06-6972-0855,06-6972-4706,,,http://www.osaka-sishakyo.jp/soudan/roujin_ichiran.html,,,,医療・福祉,福祉施設,医療・福祉/福祉施設,142,3414
135.5431411,34.66827889,のびのび幼児クラブ,のびのびようじくらぶ,のびのび幼児クラブ（のびのびようじくらぶ）,東成区大今里南1-1-23-302,東成区,06-6976-3640,,,,,,,,医療・福祉,福祉施設,医療・福祉/福祉施設,141,8463
135.5488861,34.66251694,サン・アクエリア(東生野地域在宅サービスステーション),さん・あくえりあ（ひがしいくのちいきざいたくさーびすすてーしょん）,サン・アクエリア(東生野地域在宅サービスステーション)（さん・あくえりあ（ひがしいくのちいきざいたくさーびすすてーしょん））,生野区新今里4丁目11番17号,生野区,06-6755-1165,06-6754-9300,,,,,,,医療・福祉,福祉施設,医療・福祉/福祉施設,142,4584
135.5488638,34.66247817,社会福祉法人クローバー会サン・アクエリア,しゃかいふくしほうじんくろーばーかいさん・あくえりあ,社会福祉法人クローバー会サン・アクエリア（しゃかいふくしほうじんくろーばーかいさん・あくえりあ）,生野区新今里4丁目11番17号,生野区,06-6755-1165,06-6754-9300,,,,,,,医療・福祉,福祉施設,医療・福祉/福祉施設,138,4585
135.5493442,34.66628883,東成区在宅サービスセンター,ひがしなりくざいたくさーびすせんたー,東成区在宅サービスセンター（ひがしなりくざいたくさーびすせんたー）,東成区大今里南3-11-2,東成区,06-6977-7031,06-6977-7038,在宅サービスセンター　,,,http://www.osaka-bfmap.jp/sisetu_data/data/141001.php?bunrui=1&name=14.php,,,医療・福祉,福祉施設,医療・福祉/福祉施設,142,3422
135.6253868,34.56240053,長谷川羽曳野学園,はせがわはびきのがくえん,長谷川羽曳野学園（はせがわはびきのがくえん）,柏原市円明町3-15,大阪市以外,0729-77-5723,0729-77-3045,,,,,,,医療・福祉,福祉施設,医療・福祉/福祉施設,138,19131
135.4437192,34.67408883,ガーデン天使,がーでんてんし,ガーデン天使（がーでんてんし）,此花区島屋4-1-11,此花区,6460-0028,6460-0025,,,,,,,医療・福祉,福祉施設,医療・福祉/福祉施設,142,1304
135.4436693,34.67401903,島屋地域在宅サービスステーション,しまやちいきざいたくさーびすすてーしょん,島屋地域在宅サービスステーション（しまやちいきざいたくさーびすすてーしょん）,此花区島屋4-1-11（ガーデン天使内）,此花区,6460-0028,,,,,,,,医療・福祉,福祉施設,医療・福祉/福祉施設,142,1305
135.4453173,34.675928,ぶるうむ此花,ぶるうむこのはな,ぶるうむ此花（ぶるうむこのはな）,此花区島屋3-2-32,此花区,6468-7898,,,,,,,,医療・福祉,福祉施設,医療・福祉/福祉施設,141,1496
135.4526752,34.68562217,此花区子ども・子育てプラザ,このはなくこども・こそだてぷらざ,此花区子ども・子育てプラザ（このはなくこども・こそだてぷらざ）,此花区四貫島2-26-17,此花区,6463-1881,6463-1881,もとトモノス此花,,,,,,医療・福祉,福祉施設,医療・福祉/福祉施設,134,938
135.452661,34.68571414,ファミリーサポートセンター此花,ふぁみりーさぽーとせんたーこのはな,ファミリーサポートセンター此花（ふぁみりーさぽーとせんたーこのはな）,此花区四貫島2-26-17（此花区子ども・子育てプラザ内）,此花区,6463-1884,,,,http://www.osaka-kosodate.net/k_fsc.html,,,,医療・福祉,福祉施設,医療・福祉/福祉施設,142,940
135.4478189,34.68528903,ラヴィータウーノ,らう゛ぃーたうーの,ラヴィータウーノ（らう゛ぃーたうーの）,此花区伝法6-5-12,此花区,6463-6546,6463-6536,,,,,,,医療・福祉,福祉施設,医療・福祉/福祉施設,142,1493
135.4527499,34.68573889,大阪市立此花作業指導所,おおさかしりつこのはなさぎょうしどうしょ,大阪市立此花作業指導所（おおさかしりつこのはなさぎょうしどうしょ）,此花区四貫島2丁目26番17号,此花区,06-6463-3669,06-6463-3683,,,,,,,医療・福祉,福祉施設,医療・福祉/福祉施設,141,1494
135.4528887,34.68579686,此花区はばたく福祉会作業所,このはなくはばたくふくしかいさぎょうしょ,此花区はばたく福祉会作業所（このはなくはばたくふくしかいさぎょうしょ）,此花区四貫島2-26-13,此花区,6466-1103,,,,,,,,医療・福祉,福祉施設,医療・福祉/福祉施設,138,1495
135.4416387,34.69604861,にっこりRoom・福町,にっこりるーむふくまち,にっこりRoom・福町（にっこりるーむふくまち）,西淀川区福町2-12-3,西淀川区,7175-5239,,つどいの広場,,,,,,医療・福祉,福祉施設,医療・福祉/福祉施設,134,9228
135.461489,34.67321892,ホームヘルプセンターさくら,ほーむへるぷせんたーさくら,ホームヘルプセンターさくら（ほーむへるぷせんたーさくら）,港区波除5-4-7　,港区,06-6585-1138,06-6585-1091,ホームヘルプセンター,,,,,,医療・福祉,福祉施設,医療・福祉/福祉施設,142,987
135.4616332,34.67317497,市岡東地域在宅サービスステーション,いちおかひがしちいきざいたくさーびすすてーしょん,市岡東地域在宅サービスステーション（いちおかひがしちいきざいたくさーびすすてーしょん）,港区波除5-4-7　さくら内,港区,06-6585-1121,06-6585-1091,在宅介護支援センター,,,,,,医療・福祉,福祉施設,医療・福祉/福祉施設,142,988
135.4616473,34.67313286,ケアハウスなみよけ,けあはうすなみよけ,ケアハウスなみよけ（けあはうすなみよけ）,港区波除5-4-7　さくら内　,港区,06-6585-3393,06-6585-3388,ケアハウス,,,,,,医療・福祉,福祉施設,医療・福祉/福祉施設,142,989
135.4590063,34.67500786,大阪市育成会地域生活支援センター,おおさかしいくせいかいちいきせいかつしえんせんたー,大阪市育成会地域生活支援センター（おおさかしいくせいかいちいきせいかつしえんせんたー）,港区波除6-4-14,港区,06-6584-9361,06-6584-9262,通勤寮,,,,,,医療・福祉,福祉施設,医療・福祉/福祉施設,138,993
135.4589672,34.67490592,港育成園,みなといくせいえん,港育成園（みなといくせいえん）,港区波除6-4-5,港区,06-6584-9241,06-6584-9274,知的障害者通所更生施設,,,,,,医療・福祉,福祉施設,医療・福祉/福祉施設,142,994
135.4589578,34.67495617,港第2育成園,みなとだいにいくせいえん,港第2育成園（みなとだいにいくせいえん）,港区波除6-4-5,港区,06-6584-8452,06-6584-4630,知的障害者通所授産施設,,,,,,医療・福祉,福祉施設,医療・福祉/福祉施設,142,995
135.4614418,34.673264,市岡東地域在宅サービスステーションさくら,いちおかひがしちいきざいたくさーびすすてーしょんさくら,市岡東地域在宅サービスステーションさくら（いちおかひがしちいきざいたくさーびすすてーしょんさくら）,港区波除5-4-7　,港区,06-6585-3395,06-6585-1091,デイサービスセンター,,,,,,医療・福祉,福祉施設,医療・福祉/福祉施設,142,986
135.4704935,34.67399722,介護老人保健施設健勝園九条,かいごろうじんほけんしせつ　けんしょうえんくじょう,介護老人保健施設健勝園九条（かいごろうじんほけんしせつ　けんしょうえんくじょう）,西区九条南3-20-6,西区,06-4393-2525,,,,,,,,医療・福祉,福祉施設,医療・福祉/福祉施設,144,8494
135.4740468,34.67765594,西区老人福祉センター,にしくろうじんふくしせんたー,西区老人福祉センター（にしくろうじんふくしせんたー）,西区本田3丁目7番2号,西区,06-6582-9552,06-6582-9554,,,http://www.osaka-sishakyo.jp/soudan/roujin_ichiran.html,http://www.osaka-bfmap.jp/sisetu_data/data/061101.php?bunrui=1&name=6.php,,,医療・福祉,福祉施設,医療・福祉/福祉施設,142,2104
135.4739396,34.67778042,西区子ども・子育てプラザ,にしくこどもこそだてぷらざ,西区子ども・子育てプラザ（にしくこどもこそだてぷらざ）,西区本田3-7-2,西区,06-6582-9553,06-6582-9554,もとトモノス西,,,,,,医療・福祉,福祉施設,医療・福祉/福祉施設,134,2151
135.4792487,34.67837436,介護老人保健施設えきさい大阪,かいごろうじんほけんしせつ　えきさいおおさか,介護老人保健施設えきさい大阪（かいごろうじんほけんしせつ　えきさいおおさか）,西区本田2-1-10,西区,06-6581-7655,,,,,,,,医療・福祉,福祉施設,医療・福祉/福祉施設,144,8492
135.4740562,34.67773128,ファミリー・サポート・センター西,ふぁみりーさぽーとせんたーにし,ファミリー・サポート・センター西（ふぁみりーさぽーとせんたーにし）,西区本田3-7-2（西区子ども・子育てプラザ内）,西区,6582-9545,6582-9545,,,,,,,医療・福祉,福祉施設,医療・福祉/福祉施設,134,9204
135.4698891,34.68338286,ケアセンター　水都ホーム,けあせんたーすいとほーむ,ケアセンター　水都ホーム（けあせんたーすいとほーむ）,此花区西九条1-1-2,此花区,6467-2929,6466-2922,,,,,,,医療・福祉,福祉施設,医療・福祉/福祉施設,142,1369
135.4697308,34.68331417,春日出地域在宅サービスステーション,かすがでちいきざいたくさーびすすてーしょん,春日出地域在宅サービスステーション（かすがでちいきざいたくさーびすすてーしょん）,此花区西九条1-1-2（水都ホーム内）,此花区,6467-2929,,,,,,,,医療・福祉,福祉施設,医療・福祉/福祉施設,142,1491
135.4775913,34.68159039,特別養護老人ホームすみれ苑,とくべつようごろうじんほーむ　すみれえん,特別養護老人ホームすみれ苑（とくべつようごろうじんほーむ　すみれえん）,西区川口3-6-14,西区,06-6585-1660,,,,,,,,医療・福祉,福祉施設,医療・福祉/福祉施設,142,8491
135.482426,34.67087436,つどいの広場「シュッポッポ」,つどいのひろばしゅぽっぽ,つどいの広場「シュッポッポ」（つどいのひろばしゅぽっぽ）,西区南堀江4-24-5,西区,080-5325-0337,,つどいの広場,,,,,,医療・福祉,福祉施設,医療・福祉/福祉施設,134,9223
135.4859887,34.67620614,西区在宅サービスセンター,にしくざいたくさーびすせんたー,西区在宅サービスセンター（にしくざいたくさーびすせんたー）,西区新町4-5-14 6F,西区,06-6539-8075,06-6539-8073,,,,,,,医療・福祉,福祉施設,医療・福祉/福祉施設,138,2103
135.4876313,34.68076083,シルバー人材センター西部支部,しるばーじんざいせんたーせいぶしぶ,シルバー人材センター西部支部（しるばーじんざいせんたーせいぶしぶ）,西区立売堀4丁目10番18号,西区,06-6543-7011,06-6543-8474,,,http://www.osakasc.or.jp/index.html,,,,医療・福祉,福祉施設,医療・福祉/福祉施設,111,4780
135.457231,34.68572817,此花区老人福祉センター,このはなくろうじんふくしせんたー,此花区老人福祉センター（このはなくろうじんふくしせんたー）,此花区四貫島1丁目1番18号,此花区,06-6463-3464,06-6464-0766,,,http://www.osaka-sishakyo.jp/soudan/roujin_ichiran.html,,,,医療・福祉,福祉施設,医療・福祉/福祉施設,142,935
135.4647249,34.68478081,おとしよりすこやかセンター西部館,おとしよりすこやかせんたーせいぶかん,おとしよりすこやかセンター西部館（おとしよりすこやかせんたーせいぶかん）,此花区西九条5丁目3番51号,此花区,06-6466-8880,06-6466-8882,,,http://www.gyoumeikan.or.jp/clinic/sukoyakacenter.htm,,,,医療・福祉,福祉施設,医療・福祉/福祉施設,142,1273
135.4544747,34.69037206,此花ふれあいセンター,このはなふれあいせんたー,此花ふれあいセンター（このはなふれあいせんたー）,此花区伝法3-2-27,此花区,6462-1224,6462-1984,一時避難所,,,,,,医療・福祉,福祉施設,医療・福祉/福祉施設,142,1290
135.4544747,34.69029711,区在宅サービスセンター,くざいたくさーびすせんたー,区在宅サービスセンター（くざいたくさーびすせんたー）,此花区伝法3-2-27（此花ふれあいセンター内）,此花区,6462-1225,,,,http://konohana.kusyakyou.or.jp/,,,,医療・福祉,福祉施設,医療・福祉/福祉施設,142,1490
135.4578784,34.69106158,つどいの広場高見町,つどいのひろばたかみちょう,つどいの広場高見町（つどいのひろばたかみちょう）,此花区高見3-1-4,此花区,6461-9618,,つどいの広場,,,,,,医療・福祉,福祉施設,医療・福祉/福祉施設,134,9221
135.466889,34.686831,特別養護老人ホーム福島ともしび苑,とくべつようごろうじんほーむふくしまともしびえん,特別養護老人ホーム福島ともしび苑（とくべつようごろうじんほーむふくしまともしびえん）,福島区吉野5-6-11,福島区,06-6464-0105,,,,,,,,医療・福祉,福祉施設,医療・福祉/福祉施設,142,3535
135.467054,34.68679481,野田在宅サービススティション(福島ともしび苑）,のだざいたくさーびすすてーしょん（ふくしまともしびえん）,野田在宅サービススティション(福島ともしび苑）（のだざいたくさーびすすてーしょん（ふくしまともしびえん））,福島区吉野5-6-11,福島区,06-6464-0105,,,,,,,,医療・福祉,福祉施設,医療・福祉/福祉施設,142,4642
135.4719467,34.68962494,デーセンターモモの家,でーせんたーもものいえ,デーセンターモモの家（でーせんたーもものいえ）,福島区吉野４-５-６,福島区,06-6465-9133,,,,,,,,医療・福祉,福祉施設,医療・福祉/福祉施設,142,2950
135.4694808,34.68964194,老人保健施設のだふじ,ろうじんほけんしせつのだふじ,老人保健施設のだふじ（ろうじんほけんしせつのだふじ）,福島区吉野4-29-18,福島区,06-6463-1131,,,,,,,,医療・福祉,福祉施設,医療・福祉/福祉施設,142,3530
135.4719056,34.69066383,つくし作業所,つくしさぎょうしょ,つくし作業所（つくしさぎょうしょ）,福島区吉野4-9-6,福島区,06-6468-3206,,,,,,,,医療・福祉,福祉施設,医療・福祉/福祉施設,141,3534
135.4710533,34.69450017,すずらんの園,すずらんのその,すずらんの園（すずらんのその）,福島区大開１-19-32,福島区,06-6461-4849,,,,,,,,医療・福祉,福祉施設,医療・福祉/福祉施設,142,3551
135.4714973,34.69804203,福島区子ども・子育てプラザ,ふくしましなりくこどもこそだてぷらざ,福島区子ども・子育てプラザ（ふくしましなりくこどもこそだてぷらざ）,福島区海老江6-1-14,福島区,06-6453-0207,,もとトモノス福島,,,,,,医療・福祉,福祉施設,医療・福祉/福祉施設,138,3505
135.4715027,34.69798108,福島区老人福祉センター,ふくしまくろうじんふくしせんたー,福島区老人福祉センター（ふくしまくろうじんふくしせんたー）,福島区海老江6丁目1番14号,福島区,06-6453-2357,06-6458-9111,,,http://www.osaka-sishakyo.jp/soudan/roujin_ichiran.html,http://www.osaka-bfmap.jp/sisetu_data/data/031101.php?bunrui=1&name=3.php,,,医療・福祉,福祉施設,医療・福祉/福祉施設,142,3506
135.4710028,34.69781714,福島区地域包括支援センター,ふくしまくちいきほうかつしえんせんたー,福島区地域包括支援センター（ふくしまくちいきほうかつしえんせんたー）,福島区海老江6-2-22,福島区,06-6454-6330,,,,,,,,医療・福祉,福祉施設,医療・福祉/福祉施設,138,3508
135.4709833,34.69795783,福島区在宅サービスセンター（あいあいセンター）,ふくしまくざいたくさーびすせんたー（あいあいせんたー）,福島区在宅サービスセンター（あいあいセンター）（ふくしまくざいたくさーびすせんたー（あいあいせんたー））,福島区海老江6-2-22,福島区,06-6454-6330,,,,http://fukushima.kusyakyou.or.jp/main.cgi,http://www.osaka-bfmap.jp/sisetu_data/data/031001.php?bunrui=1&name=3.php,,,医療・福祉,福祉施設,医療・福祉/福祉施設,142,3510
135.4710251,34.69776397,福島区在宅デイサービスセンター,ふくしまくざいたくでいさーびすせんたー,福島区在宅デイサービスセンター（ふくしまくざいたくでいさーびすせんたー）,福島区海老江6-2-22,福島区,06-6454-6330,,,,,,,,医療・福祉,福祉施設,医療・福祉/福祉施設,142,3511
135.471494,34.69802394,ファミリー・サポート・センター福島,ふぁみりーさぽーとせんたーふくしま,ファミリー・サポート・センター福島（ふぁみりーさぽーとせんたーふくしま）,福島区海老江6-1-14（福島区子ども・子育てプラザ内）,福島区,6453-0210,6453-0210,,,,,,,医療・福祉,福祉施設,医療・福祉/福祉施設,134,9202
135.4742974,34.69591089,特別養護老人ホームグリーン野田,とくべつようごろうじんほーむぐりーんのだ,特別養護老人ホームグリーン野田（とくべつようごろうじんほーむぐりーんのだ）,福島区海老江2-1-36,福島区,06-6454-1820,,,,,,,,医療・福祉,福祉施設,医療・福祉/福祉施設,142,3503
135.4837445,34.69513167,下福島在宅サービススティション(阪神長楽園）,しもふくしまざいたくさーびすすてーしょん（はんしんちょうらくえん）,下福島在宅サービススティション(阪神長楽園）（しもふくしまざいたくさーびすすてーしょん（はんしんちょうらくえん））,福島区福島4-6-24,福島区,06-4798-0270,,,,,,,,医療・福祉,福祉施設,医療・福祉/福祉施設,142,13
135.4826187,34.69304217,ワークはづき,わーくはづき,ワークはづき（わーくはづき）,福島区福島4-2-51,福島区,06-6449-4141,,,,,,,,医療・福祉,福祉施設,医療・福祉/福祉施設,141,3561
135.4473499,34.70125286,西淀川区医師会,にしよどがわくいしかい,西淀川区医師会（にしよどがわくいしかい）,西淀川区姫島６丁目３番３６号,西淀川区,06-6471-0543,06-6474-4799,西淀川公害医療センター,,http://www.nishiyodo-med.or.jp/,,,,医療・福祉,福祉施設,医療・福祉/福祉施設,138,3788
135.4417263,34.70439306,にっこりRoom,にっこりるーむ,にっこりRoom（にっこりるーむ）,西淀川区大和田6-3-29,西淀川区,6195-1303,,つどいの広場,,,,,,医療・福祉,福祉施設,医療・福祉/福祉施設,134,9227
135.4454217,34.71307186,西淀川区老人福祉センター,にしよどがわくろうじんふくしせんたー,西淀川区老人福祉センター（にしよどがわくろうじんふくしせんたー）,西淀川区佃2丁目9番5号,西淀川区,06-6474-4100,06-6475-2063,,,http://www.osaka-sishakyo.jp/soudan/roujin_ichiran.html,,,,医療・福祉,福祉施設,医療・福祉/福祉施設,142,3782
135.4527998,34.71168289,西淀川区在宅サービスセンター「ふくふく」・西淀川区社会福祉協議会,にしよどがわくざいたくさーびすせんたー「ふくふく」・にしよどがわくしゃかいふくしきょうぎかい,西淀川区在宅サービスセンター「ふくふく」・西淀川区社会福祉協議会（にしよどがわくざいたくさーびすせんたー「ふくふく」・にしよどがわくしゃかいふくしきょうぎかい）,西淀川区千舟2丁目7番7号,西淀川区,06-6478-2941,,,,http://www.fukufuku.or.jp/index.html,,,,医療・福祉,福祉施設,医療・福祉/福祉施設,138,3781
135.446689,34.71307186,ユーアイ,ゆーあい,ユーアイ（ゆーあい）,西淀川区佃2丁目２番５８号,西淀川区,06-6471-5236,06-6471-5285,,,,,,,医療・福祉,福祉施設,医療・福祉/福祉施設,142,3785
135.4533833,34.70268303,よどの里,よどのさと,よどの里（よどのさと）,西淀川区姫島2丁目13番20号,西淀川区,06-6473-5152,06-6473-0151,,,http://www.yodokyo.or.jp/yodonosato/index.html,,,,医療・福祉,福祉施設,医療・福祉/福祉施設,142,3787
135.4579391,34.70647486,西淀川区子ども・子育てプラザ,にしよどがわくこどもこそだてぷらざ,西淀川区子ども・子育てプラザ（にしよどがわくこどもこそだてぷらざ）,西淀川区姫里2丁目13番22号,西淀川区,06-6474-7245,,,,http://www.osaka-kosodate.net/plaza/nishiyodogawa/index.php,,,,医療・福祉,福祉施設,医療・福祉/福祉施設,134,3711
135.4579997,34.70645567,ファミリー・サポート・センター西淀川,ふぁみりーさぽーとせんたーにしよどがわ,ファミリー・サポート・センター西淀川（ふぁみりーさぽーとせんたーにしよどがわ）,西淀川区姫里2-13-22（西淀川区子ども・子育てプラザ内）,西淀川区,6474-7280,6474-7280,,,,,,,医療・福祉,福祉施設,医療・福祉/福祉施設,134,9208
135.4754859,34.69964394,福島第一育成園（つばさ工舎海老江）,ふくしまだいいちいくせいえん（つばさこうしゃえびえ）,福島第一育成園（つばさ工舎海老江）（ふくしまだいいちいくせいえん（つばさこうしゃえびえ））,福島区海老江1-8-8,福島区,06-6456-0560,,,,,,,,医療・福祉,福祉施設,医療・福祉/福祉施設,142,3500
135.4753531,34.69961403,福島第二育成園（つばさ工舎海老江）,ふくしまだいにいくせいえん（つばさこうしゃえびえ）,福島第二育成園（つばさ工舎海老江）（ふくしまだいにいくせいえん（つばさこうしゃえびえ））,福島区海老江1-8-8,福島区,06-6456-0562,,,,,,,,医療・福祉,福祉施設,医療・福祉/福祉施設,142,3501
135.4531077,34.71182503,ルーチェ千舟,るーちぇちぶね,ルーチェ千舟（るーちぇちぶね）,西淀川区千舟2丁目7番2号,西淀川区,,,,,,,,,医療・福祉,福祉施設,医療・福祉/福祉施設,142,2711
135.465051,34.71284481,つどいの広場柏里,つどいのひろばかしわざと,つどいの広場柏里（つどいのひろばかしわざと）,西淀川区柏里3-17-1-101,西淀川区,6471-0680,,つどいの広場,,,,,,医療・福祉,福祉施設,医療・福祉/福祉施設,134,9229
135.4880423,34.70570019,大淀福祉作業所,おおよどふくしさぎょうじょ,大淀福祉作業所（おおよどふくしさぎょうじょ）,北区大淀中1-15-20,北区,06-6454-8445,,,,,,,,医療・福祉,福祉施設,医療・福祉/福祉施設,138,1388
135.4881656,34.70636925,みつるポケット,つるみぽけっと,みつるポケット（つるみぽけっと）,北区大淀中1-16-13,北区,4708-7087,,つどいの広場,,,,,,医療・福祉,福祉施設,医療・福祉/福祉施設,134,9219
135.5049611,34.70410797,北区在宅サービスセンター（いきいきネット）,きたくざいたくさーびすせんたー（いきいきねっと）,北区在宅サービスセンター（いきいきネット）（きたくざいたくさーびすせんたー（いきいきねっと））,北区神山町15-11,北区,06-6313-5566,,,,,http://www.osaka-bfmap.jp/sisetu_data/data/011001.php?bunrui=3&name=search_name.php,,,医療・福祉,福祉施設,医療・福祉/福祉施設,138,1806
135.5048857,34.70422208,特別養護老人ホーム北野よろこび苑,とくべつようごろうじんほーむきたのよろこびえん,特別養護老人ホーム北野よろこび苑（とくべつようごろうじんほーむきたのよろこびえん）,北区神山町15-12,北区,06-6311-4652,,,,,,,,医療・福祉,福祉施設,医療・福祉/福祉施設,142,1868
135.4948888,34.70801089,大阪乳児院　ベビーデイケア「中津」,おおさかにゅうじいん　べびーでいけあ「なかつ」,大阪乳児院　ベビーデイケア「中津」（おおさかにゅうじいん　べびーでいけあ「なかつ」）,北区芝田2-10-39,北区,06-6372-1602,,,,,,,,医療・福祉,福祉施設,医療・福祉/福祉施設,138,1809
135.494878,34.70836906,老人保健施設ライフケア中津,ろうじんほけんしせつらいふけあなかつ,老人保健施設ライフケア中津（ろうじんほけんしせつらいふけあなかつ）,北区芝田2-10-39,北区,06-6372-1104,,,,,,,,医療・福祉,福祉施設,医療・福祉/福祉施設,142,1869
135.494878,34.70783589,中津特別養護老人ホーム喜久寿苑,なかつとくべつようごろうじんほーむきくじゅえん,中津特別養護老人ホーム喜久寿苑（なかつとくべつようごろうじんほーむきくじゅえん）,北区芝田2-10-39,北区,06-6372-1001,,,,,,,,医療・福祉,福祉施設,医療・福祉/福祉施設,142,1942
135.5021921,34.70756117,青美老人保健施設,せいびろうじんほけんしせつ,青美老人保健施設（せいびろうじんほけんしせつ）,北区中崎西3-3-40,北区,06-6485-2283,,,,,,,,医療・福祉,福祉施設,医療・福祉/福祉施設,142,1561
135.4969221,34.71323286,大阪府立整肢学院,おおさかふりつせいしがくいん,大阪府立整肢学院（おおさかふりつせいしがくいん）,北区中津2-2-22,北区,06-6371-5945,,,,,,,,医療・福祉,福祉施設,医療・福祉/福祉施設,138,1810
135.4958111,34.71357217,中津学園,なかつがくえん,中津学園（なかつがくえん）,北区中津2-5-4,北区,06-6371-3000,,,,,,,,医療・福祉,福祉施設,医療・福祉/福祉施設,138,1811
135.4947891,34.71022814,中津更生園,なかつこうせいえん,中津更生園（なかつこうせいえん）,北区中津1-4-10,北区,06-6374-1344,,,,,,,,医療・福祉,福祉施設,医療・福祉/福祉施設,138,1812
135.4947891,34.71023589,中津サテライトオフィス,なかつさてらいとおふぃす,中津サテライトオフィス（なかつさてらいとおふぃす）,北区中津1-4-10,北区,06-6374-1481,,,,,,,,医療・福祉,福祉施設,医療・福祉/福祉施設,138,1813
135.4947783,34.71024217,大阪市立愛光会館,おおさかしりつあいこうかいかん,大阪市立愛光会館（おおさかしりつあいこうかいかん）,北区中津1-4-10,北区,06-6371-6751,,,,,,,,医療・福祉,福祉施設,医療・福祉/福祉施設,138,1814
135.4765504,34.71784714,キリスト教ミード社会舘,きりすときょうみーどしゃかいかいかん,キリスト教ミード社会舘（きりすときょうみーどしゃかいかいかん）,淀川区十三元今里1-1-52,淀川区,06-6309-7121,,地域在宅サービスステーション,,,,,,医療・福祉,福祉施設,医療・福祉/福祉施設,138,2463
135.459081,34.72855783,Link,りんく,Link（りんく）,淀川区加島1-60-36,淀川区,06-6308-7210,,知的障害者通所授産施設,,,,,,医療・福祉,福祉施設,医療・福祉/福祉施設,141,512
135.4587893,34.72519708,加寿苑,かじゅえん,加寿苑（かじゅえん）,淀川区加島1-34-8,淀川区,06-6305-0711,,地域在宅サービスステーション、介護老人福祉施設,,http://www1.odn.ne.jp/~aap70820/,,,,医療・福祉,福祉施設,医療・福祉/福祉施設,142,2424
135.4582362,34.72542486,アンダンテ加島,あんだんてかしま,アンダンテ加島（あんだんてかしま）,淀川区加島1-36-46,淀川区,06-4806-6780,,知的障害者入所更生施設,,,,,,医療・福祉,福祉施設,医療・福祉/福祉施設,141,2425
135.4591808,34.72820308,かしま障害者センター,かしましょうがいしゃせんたー,かしま障害者センター（かしましょうがいしゃせんたー）,淀川区加島1-60-36,淀川区,06-6308-7206,,大阪市ふれあい生活支援・訓練モデル事業“COCOLO”,,,http://www.osaka-bfmap.jp/sisetu_data/data/120801.php?bunrui=1&name=12.php,,,医療・福祉,福祉施設,医療・福祉/福祉施設,141,2435
135.4556389,34.727144,ほほえみ大阪加島,ほほえみおおさかかしま,ほほえみ大阪加島（ほほえみおおさかかしま）,淀川区加島3-1-26,淀川区,06-6838-8231,,グループホーム,,,,,,医療・福祉,福祉施設,医療・福祉/福祉施設,142,2577
135.4589227,34.72574897,つどいの広場加島,つどいのひろばかしま,つどいの広場加島（つどいのひろばかしま）,淀川区加島1-32-17,淀川区,6309-6757,,つどいの広場,,,,,,医療・福祉,福祉施設,医療・福祉/福祉施設,134,9231
135.4602641,34.72694392,加島希望の家,かしまきぼうのいえ,加島希望の家（かしまきぼうのいえ）,淀川区加島1-49-21,淀川区,06-6390-5666,,知的障害者通所更生施設,,,,,,医療・福祉,福祉施設,医療・福祉/福祉施設,141,2428
135.4600081,34.72653306,クローバーの家,くろーばーのいえ,クローバーの家（くろーばーのいえ）,淀川区加島1-49-4,淀川区,06-6886-7378,,身体障害者作業所,,,,,,医療・福祉,福祉施設,医療・福祉/福祉施設,141,2580
135.476103,34.72219206,博愛社,はくあいしゃ,博愛社（はくあいしゃ）,淀川区十三元今里3-1-72,淀川区,06-6301-0367,06-6301-5347,児童養護施設,,http://www.hakuaisha-welfare.net/index-t.htm,,,,医療・福祉,福祉施設,医療・福祉/福祉施設,138,2469
135.4724015,34.72836736,育児＆育自”この指とーまれ”,いくじあんどいくじこのゆびとーまれ,育児＆育自”この指とーまれ”（いくじあんどいくじこのゆびとーまれ）,淀川区三津屋中1-4-29,淀川区,050-1505-8627,,つどいの広場,,,,,,医療・福祉,福祉施設,医療・福祉/福祉施設,134,9230
135.4772652,34.72668072,ダ・カー歩,だかーぽ,ダ・カー歩（だかーぽ）,淀川区三津屋南1-1-44,淀川区,06-6334-7118,06‐6308‐6967,知的障害者作業所,,,,,,医療・福祉,福祉施設,医療・福祉/福祉施設,138,541
135.4797722,34.72582206,希望の園,きぼうのその,希望の園（きぼうのその）,淀川区野中南2-10-35,淀川区,06-6301-5265,,特定身体障害者授産施設,,,,,,医療・福祉,福祉施設,医療・福祉/福祉施設,141,2561
135.4857974,34.72061383,ジョブサイトよど,じょぶさいとよど,ジョブサイトよど（じょぶさいとよど）,淀川区十三東2-4-2,淀川区,06-6838-7007,,知的障害者通所授産施設,,,,,,医療・福祉,福祉施設,医療・福祉/福祉施設,141,499
135.5063309,34.71390592,特別養護老人ホーム藤ミレニアム,とくべつようごろうじんほーむふじみれにあむ,特別養護老人ホーム藤ミレニアム（とくべつようごろうじんほーむふじみれにあむ）,北区本庄西2-6-15,北区,06-6371-6233,,,,,,,,医療・福祉,福祉施設,医療・福祉/福祉施設,142,1943
135.4834137,34.72441408,ハートフル,はーとふる,ハートフル（はーとふる）,淀川区十三東5-3-29,淀川区,06-6302-8686,,介護老人保健施設,,http://www.heartfull.or.jp/houmonkaigo/index.html,,,,医療・福祉,福祉施設,医療・福祉/福祉施設,144,2480
135.491764,34.72143303,淀川リバー作業所,よどがわりばーさぎょうしょ,淀川リバー作業所（よどがわりばーさぎょうしょ）,淀川区木川西1-1-2,淀川区,06-6308-0766,,精神障害者作業所,,,,,,医療・福祉,福祉施設,医療・福祉/福祉施設,141,2585
135.4826504,34.725392,淀川区老人福祉センター,よどがわくろうじんふくしせんたー,淀川区老人福祉センター（よどがわくろうじんふくしせんたー）,淀川区野中南2丁目1番5号,淀川区,06-6304-9118,06‐6304‐9190,,,http://www.osaka-sishakyo.jp/soudan/roujin_ichiran.html,,,,医療・福祉,福祉施設,医療・福祉/福祉施設,142,54
135.486969,34.72772503,淀川暖気の苑,よどがわだんけのその,淀川暖気の苑（よどがわだんけのその）,淀川区木川西4-5-40,淀川区,06-6885-7811,,地域在宅サービスステーション、介護老人福祉施設、知的障害者入所更生施設,,http://danke.tokuyou.jp/tokuyo_main.html,,,,医療・福祉,福祉施設,医療・福祉/福祉施設,141,2550
135.4900682,34.72676083,淀川地域就労支援センター,よどがわちいきしゅうろうしえんせんたー,淀川地域就労支援センター（よどがわちいきしゅうろうしえんせんたー）,淀川区木川東3-10-11,淀川区,06-6885-7911,,大阪市障害者就業支援センター,,http://www.cccplus.jp/,,,,医療・福祉,福祉施設,医療・福祉/福祉施設,138,2579
135.4943747,34.72822783,Dear　Friends,でぃあふれんず,Dear　Friends（でぃあふれんず）,淀川区西中島6-103-101,淀川区,06-6304-3551,,知的障害者作業所,,,,,,医療・福祉,福祉施設,医療・福祉/福祉施設,141,2584
135.5080691,34.67133317,中央区南老人福祉センター,ちゅうおうくみなみろうじんふくしせんたー,中央区南老人福祉センター（ちゅうおうくみなみろうじんふくしせんたー）,中央区島之内2丁目12番6号,中央区,06-6213-2172,06-6213-2639,,,http://www.osaka-sishakyo.jp/soudan/roujin_ichiran.html,http://www.osaka-bfmap.jp/sisetu_data/data/051101.php?bunrui=1&name=5.php,,,医療・福祉,福祉施設,医療・福祉/福祉施設,142,839
135.5076136,34.67177497,介護老人保健施設 おとしより健康センター,かいごろうじんほけんしせつおとしよりけんこうせんたー,介護老人保健施設 おとしより健康センター（かいごろうじんほけんしせつおとしよりけんこうせんたー）,中央区島之内2-12-28,中央区,06-6212-3271,06-6212-3497,,,,,,,医療・福祉,福祉施設,医療・福祉/福祉施設,142,843
135.5080812,34.67126111,中央区子ども・子育てプラザ,ちゅうおうくこども・こそだてぷらざ,中央区子ども・子育てプラザ（ちゅうおうくこども・こそだてぷらざ）,中央区島之内2-12-6,中央区,06-6213-2171,,もとトモノス南,,http://www.manabi.city.osaka.jp/Contents/lll/sisetu/inview.asp?CONTENTNO=736,,,,医療・福祉,福祉施設,医療・福祉/福祉施設,134,1678
135.5079263,34.671311,ファミリー・サポート・センター中央,ふぁみりーさぽーとせんたーちゅうおう,ファミリー・サポート・センター中央（ふぁみりーさぽーとせんたーちゅうおう）,中央区島之内2-12-6（中央区子ども・子育てプラザ内）,中央区,6213-2170,6213-2170,,,,,,,医療・福祉,福祉施設,医療・福祉/福祉施設,134,9203
135.5187721,34.67362489,中央区在宅サービスセンター：ふれあいセンターもも,ちゅうおうくざいたくさーびすせんたーふれあいせんたーもも,中央区在宅サービスセンター：ふれあいセンターもも（ちゅうおうくざいたくさーびすせんたーふれあいせんたーもも）,中央区上本町西2-5-25,中央区,06-6763-8139,06-6763-8151,,,http://www.osaka-chuo-syakyo.jp/,http://www.osaka-bfmap.jp/sisetu_data/data/051001.php?bunrui=1&name=5.php,,,医療・福祉,福祉施設,医療・福祉/福祉施設,138,840
135.5138423,34.67390414,たなかキッズクラブ,たなかきっずくらぶ,たなかキッズクラブ（たなかきっずくらぶ）,中央区谷町6-14-23,中央区,090-5369-9209,,つどいの広場,,,,,,医療・福祉,福祉施設,医療・福祉/福祉施設,134,9222
135.5241108,34.67080897,高津学園,こうづがくえん,高津学園（こうづがくえん）,天王寺区城南寺町1-10,天王寺区,06-6761-1663,06-6768-1653,,,,,,,医療・福祉,福祉施設,医療・福祉/福祉施設,138,9192
135.5326032,34.67312806,高津地域在宅サービスステーション 四天王寺たまつくり苑,こうづちいきざいたくさーびすすてーしょんしてんのうじたまつくりえん,高津地域在宅サービスステーション 四天王寺たまつくり苑（こうづちいきざいたくさーびすすてーしょんしてんのうじたまつくりえん）,天王寺区玉造元町1-29,天王寺区,06-6763-4115,06-6763-4165,,,,,,,医療・福祉,福祉施設,医療・福祉/福祉施設,142,4252
135.5162941,34.68053108,中央区東老人福祉センター,ちゅうおうくひがしろうじんふくしせんたー,中央区東老人福祉センター（ちゅうおうくひがしろうじんふくしせんたー）,中央区農人橋1丁目1番6号,中央区,06-6941-7719,06-6941-7709,,,http://www.osaka-sishakyo.jp/soudan/roujin_ichiran.html,http://www.osaka-bfmap.jp/sisetu_data/data/051102.php?bunrui=1&name=5.php,,,医療・福祉,福祉施設,医療・福祉/福祉施設,142,838
135.5144918,34.680561,特別養護老人ホーム さくら,とくべつようごろうじんほーむ　さくら,特別養護老人ホーム さくら（とくべつようごろうじんほーむ　さくら）,中央区農人橋1-4-20,中央区,06-6947-5215,,,,,,,,医療・福祉,福祉施設,医療・福祉/福祉施設,142,842
135.5144891,34.68066108,南大江地域在宅サービスステーション（さくら）,みなみおおえちいきざいたくさーびすすてーしょん：さくら,南大江地域在宅サービスステーション（さくら）（みなみおおえちいきざいたくさーびすすてーしょん：さくら）,中央区農人橋1-4-20,中央区,06-6947-5217,,,,,,,,医療・福祉,福祉施設,医療・福祉/福祉施設,138,841
135.5322522,34.68070764,大阪市こども相談センター,おおさかしこどもそうだんせんたー,大阪市こども相談センター（おおさかしこどもそうだんせんたー）,中央区森ノ宮中央１－１７－５,中央区,06-4301-3100,06-6944-2060,,,,,,,医療・福祉,福祉施設,医療・福祉/福祉施設,134,9199
135.5399173,34.67290606,東成育成園,ひがしなりいくせいえん,東成育成園（ひがしなりいくせいえん）,東成区大今里西1-1-15,東成区,06-6981-0262,06-6981-0703,,,,,,,医療・福祉,福祉施設,医療・福祉/福祉施設,141,3400
135.5450956,34.67111781,新道PATRI,しんみちぱとり,新道PATRI（しんみちぱとり）,東成区大今里1-35-20,東成区,06-6753 -7539,,,,,,,,医療・福祉,福祉施設,医療・福祉/福祉施設,138,19258
135.5546068,34.67315686,ハーモニー,はーもにー,ハーモニー（はーもにー）,東成区神路3-2-20,東成区,06-6972-8061,,,,,,,,医療・福祉,福祉施設,医療・福祉/福祉施設,141,8460
135.5478499,34.67386906,ふりーすぺーす　SUN,ふりーすぺーす　さん,ふりーすぺーす　SUN（ふりーすぺーす　さん）,東成区大今里1-10-20,東成区,06-6974-7703,,,,,,,,医療・福祉,福祉施設,医療・福祉/福祉施設,141,3367
135.5447224,34.68331747,つどいのひろば「だんだん」,つどいのひろばだんだん,つどいのひろば「だんだん」（つどいのひろばだんだん）,城東区中浜3-22-9,城東区,6961-5505,,つどいの広場,,,,,,医療・福祉,福祉施設,医療・福祉/福祉施設,134,9240
135.5502059,34.67950536,東成工房,ひがしなりこうぼう,東成工房（ひがしなりこうぼう）,東成区東今里2-1-19,東成区,06-6976-7964,06-6976-7964,,,,,,,医療・福祉,福祉施設,医療・福祉/福祉施設,141,43
135.5477832,34.67996117,ファミリーサポートセンター　東成,ふぁみりーさぽーとせんたーひがしなり,ファミリーサポートセンター　東成（ふぁみりーさぽーとせんたーひがしなり）,東成区東中本2-3-16　東成区子ども・子育てプラザ内,東成区,06-6976-0395,06-6976-0395,,,,,,,医療・福祉,福祉施設,医療・福祉/福祉施設,134,3477
135.5477717,34.67981414,東成区子ども・子育てプラザ,ひがしなりくこどもこそだてぷらざ,東成区子ども・子育てプラザ（ひがしなりくこどもこそだてぷらざ）,東成区東中本2丁目3番16号,東成区,06-6976-0300,06-6976-0300,もとトモノス東成,,,,,,医療・福祉,福祉施設,医療・福祉/福祉施設,134,3484
135.548083,34.67940306,おとしよりすこやかセンター東部館,おとしよりすこやかせんたーとうぶかん,おとしよりすこやかセンター東部館（おとしよりすこやかせんたーとうぶかん）,東成区東中本2丁目5番31号,東成区,06-6977-0010,06-6977-3414,,,http://www.city.osaka.lg.jp/kenkofukushi/page/0000006644.html,,,,医療・福祉,福祉施設,医療・福祉/福祉施設,142,3485
135.5520297,34.68256956,介護老人保健施設グリーンライフ,かいごろうじんほけんしせつぐりーんらいふ,介護老人保健施設グリーンライフ（かいごろうじんほけんしせつぐりーんらいふ）,城東区東中浜9-3-9,城東区,06-6965-0666,06-6965-0606,,,http://www.omichikai.or.jp/green/index.htm,,,,医療・福祉,福祉施設,医療・福祉/福祉施設,142,4357
135.5106333,34.69402489,いきいきエイジングセンター,いきいきえいじんぐせんたー,いきいきエイジングセンター（いきいきえいじんぐせんたー）,北区菅原町10番25号,北区,06-6311-3255,06-6311-1073,,,http://www.osakaymca.or.jp/kourei/ikiiki/index.html,http://www.osaka-bfmap.jp/sisetu_data/data/011103.php?bunrui=1&name=1.php,,,医療・福祉,福祉施設,医療・福祉/福祉施設,138,880
135.5121331,34.69245794,ひなぎくの会作業所,ひなぎくのかいさぎょうじょ,ひなぎくの会作業所（ひなぎくのかいさぎょうじょ）,北区天神橋1-3-3　菅南福祉会館2Ｆ,北区,06-6351-7063,,,,,,,,医療・福祉,福祉施設,医療・福祉/福祉施設,138,1387
135.5366733,34.69027161,老人保健施設大阪城ケアホーム,ろうじんほけんしせつおおさかじょうけあほーむ,老人保健施設大阪城ケアホーム（ろうじんほけんしせつおおさかじょうけあほーむ）,城東区鴫野西2-5-24,城東区,06-6961-1151,06-6961-7711,,,http://www.carehome.or.jp/,,,,医療・福祉,福祉施設,医療・福祉/福祉施設,142,5133
135.5439887,34.6980605,特別養護老人ホーム至善荘,とくべつようごろうじんほーむしぜんそう,特別養護老人ホーム至善荘（とくべつようごろうじんほーむしぜんそう）,城東区蒲生4-2-10,城東区,06-6930-7258,06-6930-7035,,,http://oosaka.ekaigo.biz/2008/03/post_241.html,,,,医療・福祉,福祉施設,医療・福祉/福祉施設,142,5073
135.5486395,34.69187922,城陽地域在宅サービスステーションしぎの黄金の里,じょうようちいきざいたくさーびすすてーしょんしぎのこがねのさと,城陽地域在宅サービスステーションしぎの黄金の里（じょうようちいきざいたくさーびすすてーしょんしぎのこがねのさと）,城東区鴫野東2-26-12,城東区,06-6963-5551,06-6963-5501,,,http://www.kogane.or.jp/shigino/,,,,医療・福祉,福祉施設,医療・福祉/福祉施設,142,5141
135.548469,34.69189069,特別養護老人ホームしぎの黄金の里,とくべつようごろうじんほーむしぎのこがねのさと,特別養護老人ホームしぎの黄金の里（とくべつようごろうじんほーむしぎのこがねのさと）,城東区鴫野東2-26-12,城東区,06-6963-5551,06-6963-5501,,,http://www.kogane.or.jp/shigino/,,,,医療・福祉,福祉施設,医療・福祉/福祉施設,142,5142
135.5588035,34.69377931,介護老人保健施設放出ふれあいセンター,かいごろうじんほけんしせつはなてんふれあいせんたー,介護老人保健施設放出ふれあいセンター（かいごろうじんほけんしせつはなてんふれあいせんたー）,城東区放出西2-18-4,城東区,06-6962-0871,06-6965-1810,,,http://www.osaka-rokyo.or.jp/detail/index.php?id=176,,,,医療・福祉,福祉施設,医療・福祉/福祉施設,142,4359
135.5483781,34.69791389,城東区子ども・子育てプラザ,じょうとうくこども・こそだてぷらざ,城東区子ども・子育てプラザ（じょうとうくこども・こそだてぷらざ）,城東区今福西1-1-39,城東区,06-6933-2880,06-6933-2880,もと今福児童館,,http://www.osaka-kosodate.net/plaza/joto/,,,,医療・福祉,福祉施設,医療・福祉/福祉施設,134,5103
135.5483949,34.69788619,ファミリー・サポート・センター城東,ふぁみりーさぽーとせんたーじょうとう,ファミリー・サポート・センター城東（ふぁみりーさぽーとせんたーじょうとう）,城東区今福西1-1-39（城東区子ども・子育てプラザ内）,城東区,6933-5726,6933-5726,,,,,,,医療・福祉,福祉施設,医療・福祉/福祉施設,134,9212
135.5615867,34.67011486,ケアハウスレインボー,けあはうすれいんぼー,ケアハウスレインボー（けあはうすれいんぼー）,東成区深江南3-14-6,東成区,06-6977-0011,06-6977-0330,ケアハウス,,,,,,医療・福祉,福祉施設,医療・福祉/福祉施設,142,3344
135.560886,34.68064411,城東地域在宅サービスステーション諏訪荘,じょうとうちいきざいたくさーびすすてーしょんすわそう,城東地域在宅サービスステーション諏訪荘（じょうとうちいきざいたくさーびすすてーしょんすわそう）,城東区諏訪4-12-28,城東区,06-6964-0051,06-6964-0081,,,,,,,医療・福祉,福祉施設,医療・福祉/福祉施設,142,5160
135.5666188,34.69035803,えのもと（今津地域在宅サービスステーション）,えのもと（いまづちいきざいたくさーびすすてーしょん）,えのもと（今津地域在宅サービスステーション）（えのもと（いまづちいきざいたくさーびすすてーしょん））,鶴見区今津南１－１－４,鶴見区,06-6964-1221,,,,,,,,医療・福祉,福祉施設,医療・福祉/福祉施設,142,4034
135.5673559,34.69302483,鶴見区子ども・子育てプラザ,つるみくこども・こそだてぷらざ,鶴見区子ども・子育てプラザ（つるみくこども・こそだてぷらざ）,鶴見区今津中１－１－１４,鶴見区,06-6967-1033,06-6967-1033,もとトモノス鶴見,,http://www.osaka-kosodate.net/plaza/tsurumi/index.php,,,,医療・福祉,福祉施設,医療・福祉/福祉施設,134,4108
135.567432,34.69300967,ファミリー・サポート・センター鶴見,ふぁみりーさぽーとせんたーつるみ,ファミリー・サポート・センター鶴見（ふぁみりーさぽーとせんたーつるみ）,鶴見区今津中1-1-14（鶴見区子ども・子育てプラザ内）,鶴見区,6967-1035,6967-1035,,,,,,,医療・福祉,福祉施設,医療・福祉/福祉施設,134,9213
135.5167003,34.69976692,中之島工房,なかのしまこうぼう,中之島工房（なかのしまこうぼう）,北区同心1-2-8-515,北区,06-6354-1368,,,,,,,,医療・福祉,福祉施設,医療・福祉/福祉施設,138,878
135.5154998,34.70093603,北区北老人福祉センター,きたくきたろうじんふくしせんたー,北区北老人福祉センター（きたくきたろうじんふくしせんたー）,北区同心1丁目5番27号,北区,06-6352-7025,06-6352-7062,,,http://www.osaka-sishakyo.jp/soudan/roujin_ichiran.html,http://www.osaka-bfmap.jp/sisetu_data/data/011102.php?bunrui=1&name=1.php,,,医療・福祉,福祉施設,医療・福祉/福祉施設,142,1807
135.5130776,34.70381111,岡本家庭保育（きたベビーセンター）,おかもとかていほいく（きたべびーせんたー）,岡本家庭保育（きたベビーセンター）（おかもとかていほいく（きたべびーせんたー））,北区天神橋4-1-21,北区,06-6357-8396,,,,,,,,医療・福祉,福祉施設,医療・福祉/福祉施設,138,1390
135.5238642,34.70158889,都島区老人福祉センター,みやこじまくろうじんふくしせんたー,都島区老人福祉センター（みやこじまくろうじんふくしせんたー）,都島区中野町4丁目2番24-108号,都島区,06-6354-0354,06-6354-0206,,,http://www.osaka-sishakyo.jp/soudan/roujin_ichiran.html,,,,医療・福祉,福祉施設,医療・福祉/福祉施設,138,2983
135.5237577,34.70137508,東雄苑都島（介護老人保健施設）,とうゆうえんみやこじま（かいごろうじんほけんしせつ）,東雄苑都島（介護老人保健施設）（とうゆうえんみやこじま（かいごろうじんほけんしせつ））,都島区中野町1-13-12,都島区,06-6135-0505,,,,,,,,医療・福祉,福祉施設,医療・福祉/福祉施設,142,3136
135.5239309,34.70645789,中野地域在宅サービスステーションからまつ,なかのちいきざいたくさーびすすてーしょんからまつ,中野地域在宅サービスステーションからまつ（なかのちいきざいたくさーびすすてーしょんからまつ）,都島区中野町5-10-70,都島区,06-6922-8866,,,,,,,,医療・福祉,福祉施設,医療・福祉/福祉施設,142,2984
135.5279531,34.70488894,桜の宮苑（介護老人保健施設）,さくらのみやえん（かいごろうじんほけんしせつ）,桜の宮苑（介護老人保健施設）（さくらのみやえん（かいごろうじんほけんしせつ））,都島区都島中通1-7-1,都島区,06-6923-5656,,,,,,,,医療・福祉,福祉施設,医療・福祉/福祉施設,142,3127
135.5099003,34.70657789,KITA工房,きたこうぼう,KITA工房（きたこうぼう）,北区浪花町2-7,北区,06-6375-1880,,,,,,,,医療・福祉,福祉施設,医療・福祉/福祉施設,138,876
135.5150443,34.70809397,シルバー人材センター北部支部,しるばーじんざいせんたーほくぶしぶ,シルバー人材センター北部支部（しるばーじんざいせんたーほくぶしぶ）,北区池田町1番50号,北区,06-6882-3830,06-6882-3850,,,,,,,医療・福祉,福祉施設,医療・福祉/福祉施設,111,1144
135.5114438,34.710333,大阪市立子育ていろいろ相談センター,おおさかしりつこそだていろいろそうだんせんたー,大阪市立子育ていろいろ相談センター（おおさかしりつこそだていろいろそうだんせんたー）,北区天神橋6‐4‐20,北区,06-6354-0106,,,,http://www.osaka-kosodate.net/,http://www.osaka-bfmap.jp/sisetu_data/data/011201.php?bunrui=1&name=1.php,,,医療・福祉,福祉施設,医療・福祉/福祉施設,138,872
135.5069642,34.71146097,北区子ども・子育てプラザ　,きたくこどもこそだてぷらざ,北区子ども・子育てプラザ　（きたくこどもこそだてぷらざ）,北区本庄東1-24-11,北区,06-6374-0870,,,,http://www.osaka-kosodate.net/plaza/kita/,,,,医療・福祉,福祉施設,医療・福祉/福祉施設,138,1763
135.5069891,34.71163081,北区大淀老人福祉センター,きたくおおよどろうじんふくしせんたー,北区大淀老人福祉センター（きたくおおよどろうじんふくしせんたー）,北区本庄東1丁目24番11号,北区,06-6374-0873,06-6374-0815,,,http://www.osaka-sishakyo.jp/soudan/roujin_ichiran.html,http://www.osaka-bfmap.jp/sisetu_data/data/011101.php?bunrui=1&name=1.php,,,医療・福祉,福祉施設,医療・福祉/福祉施設,142,1808
135.5118225,34.71032489,ファミリー・サポート・センター北,ふぁみりーさぽーとせんたーきた,ファミリー・サポート・センター北（ふぁみりーさぽーとせんたーきた）,北区天神橋6－4－20子育ていろいろ相談センター内,北区,6354-0540,6354-0277,,,,,,,医療・福祉,福祉施設,医療・福祉/福祉施設,134,9200
135.5162941,34.71097211,特別養護老人ホーム鶴満寺聚楽院,とくべつようごろうじんほーむかくまんじじゅらくいん,特別養護老人ホーム鶴満寺聚楽院（とくべつようごろうじんほーむかくまんじじゅらくいん）,北区長柄東1-3-12,北区,06-6351-7301,,,,,,,,医療・福祉,福祉施設,医療・福祉/福祉施設,142,1560
135.5221691,34.70781114,都島区子ども・子育てプラザ,みやこじまくこどもこそだてぷらざ,都島区子ども・子育てプラザ（みやこじまくこどもこそだてぷらざ）,都島区中野町5-15-21,都島区,06-6923-0150,,,,http://www.manabi.city.osaka.jp/Contents/lll/sisetu/inview.asp?CONTENTNO=732,,,,医療・福祉,福祉施設,医療・福祉/福祉施設,134,2989
135.5238312,34.70664397,からまつ苑（介護老人福祉施設）,からまつえん（かいごろうじんふくししせつ）,からまつ苑（介護老人福祉施設）（からまつえん（かいごろうじんふくししせつ））,都島区中野町5-10-70,都島区,06-6922-3300,,,,,,,,医療・福祉,福祉施設,医療・福祉/福祉施設,142,3106
135.5242583,34.70656903,ラフォーレからまつ（ケアハウス）,らふぉーれからまつ（けあはうす）,ラフォーレからまつ（ケアハウス）（らふぉーれからまつ（けあはうす））,都島区中野町5-10-60,都島区,06-4253-8801,,,,,,,,医療・福祉,福祉施設,医療・福祉/福祉施設,142,3123
135.522322,34.70795331,ファミリー･サポート･センター都島,ふぁみりーさぽーとせんたーみやこじま,ファミリー･サポート･センター都島（ふぁみりーさぽーとせんたーみやこじま）,都島区中野町5-15-21（都島区子ども・子育てプラザ内）,都島区,6923-0157,6923-0157,,,,,,,医療・福祉,福祉施設,医療・福祉/福祉施設,134,9201
135.5292918,34.70719414,都島区在宅サービスセンター(ふれあいセンター都島),みやこじまくざいたくさーびすせんたー（ふれあいせんたーみやこじま）,都島区在宅サービスセンター(ふれあいセンター都島)（みやこじまくざいたくさーびすせんたー（ふれあいせんたーみやこじま））,都島区都島本通3-12-31,都島区,06-6929-9500,,,,,,,,医療・福祉,福祉施設,医療・福祉/福祉施設,142,3005
135.5316721,34.71005608,とどまつ園（身体障害者通所授産施設）,とどまつえん（しんたいしょうがいしゃつうしょじゅさんしせつ）,とどまつ園（身体障害者通所授産施設）（とどまつえん（しんたいしょうがいしゃつうしょじゅさんしせつ））,都島区都島北通2-12-25,都島区,06-6922-0500,,,,,,,,医療・福祉,福祉施設,医療・福祉/福祉施設,141,3121
135.5317887,34.70708117,ひまわりの郷（介護老人福祉施設）,ひまわりのさと（かいごろうじんふくししせつ）,ひまわりの郷（介護老人福祉施設）（ひまわりのさと（かいごろうじんふくししせつ））,都島区都島本通4-10-19,都島区,06-6924-8880,,,,,,,,医療・福祉,福祉施設,医療・福祉/福祉施設,142,3122
135.5314558,34.70718897,都島こども園（知的障害児通園施設）,みやこじまこどもえん（ちてきしょうがいじつうえんしせつ）,都島こども園（知的障害児通園施設）（みやこじまこどもえん（ちてきしょうがいじつうえんしせつ））,都島区都島本通4丁目10番12号,都島区,06-6925-5510,,,,,,,,医療・福祉,福祉施設,医療・福祉/福祉施設,142,3134
135.5283331,34.71356478,つどいの広場「フレンドリーともぶち」,つどいのひろばふれんどりーともぶち,つどいの広場「フレンドリーともぶち」（つどいのひろばふれんどりーともぶち）,都島区友渕町2-7-17-107,都島区,6924-9405,,つどいの広場,,,,,,医療・福祉,福祉施設,医療・福祉/福祉施設,134,9220
135.5467833,34.70144967,介護老人保健施設幸成園,かいごろうじんほけんしせつこうせいえん,介護老人保健施設幸成園（かいごろうじんほけんしせつこうせいえん）,城東区今福西3-1-16,城東区,06-6939-1881,06-6939-4646,,,http://www.osaka-rokyo.or.jp/detail/index.php?id=170,,,,医療・福祉,福祉施設,医療・福祉/福祉施設,142,5106
135.5437327,34.70242786,城東区社会福祉協議会・城東区在宅サービスセンター(ゆうゆう),じょうとうくしゃかいふくしきょうぎかい・じょうとうくざいたくさーびすせんたー（ゆうゆう）,城東区社会福祉協議会・城東区在宅サービスセンター(ゆうゆう)（じょうとうくしゃかいふくしきょうぎかい・じょうとうくざいたくさーびすせんたー（ゆうゆう））,城東区中央2-11-16,城東区,06-6936-1153,06-6936-1154,,,http://www.joto.kusyakyou.or.jp/,http://www.osaka-bfmap.jp/sisetu_data/data/171001.php?bunrui=1&name=17.php,,,医療・福祉,福祉施設,医療・福祉/福祉施設,138,5172
135.5359941,34.70490297,青都荘（介護老人福祉施設）,せいとそう（かいごろうじんふくししせつ）,青都荘（介護老人福祉施設）（せいとそう（かいごろうじんふくししせつ））,都島区都島中通3-14-20,都島区,06-6926-2351,,,,,,,,医療・福祉,福祉施設,医療・福祉/福祉施設,142,3133
135.5453079,34.70360803,つどいの広場,つどいのひろば,つどいの広場（つどいのひろば）,城東区中央3-8-34,城東区,06-6931-4882,06-6931-4882,もと城東児童館,,http://www.city.osaka.lg.jp/kodomo/page/0000002451.html,,,,医療・福祉,福祉施設,医療・福祉/福祉施設,134,5184
135.5453341,34.70360617,城東つどいの広場,じょうとうつどいのひろば,城東つどいの広場（じょうとうつどいのひろば）,城東区中央3-8-34,城東区,6931-4882,,つどいの広場,,,,,,医療・福祉,福祉施設,医療・福祉/福祉施設,134,9239
135.5550514,34.70338092,特別養護老人ホーム城東園,とくべつようごろうじんほーむじょうとうえん,特別養護老人ホーム城東園（とくべつようごろうじんほーむじょうとうえん）,城東区今福東2-2-25,城東区,06-6931-3825,06-6931-7570,,,http://www.noe.saiseikai.or.jp/jotoen/,,,,医療・福祉,福祉施設,医療・福祉/福祉施設,142,5117
135.5548689,34.703375,鯰江地域在宅サービスステーション城東園,なまずえちいきざいたくさーびすすてーしょんじょうとうえん,鯰江地域在宅サービスステーション城東園（なまずえちいきざいたくさーびすすてーしょんじょうとうえん）,城東区今福東2-2-25,城東区,06-6931-3825,06-6931-7570,,,http://www.noe.saiseikai.or.jp/jotoen/service/zaitaku.html,,,,医療・福祉,福祉施設,医療・福祉/福祉施設,142,5118
135.5470063,34.71015614,シルバー人材センター本部,しるばーじんざいせんたーほんぶ,シルバー人材センター本部（しるばーじんざいせんたーほんぶ）,城東区関目3丁目1番14号,城東区,06-6931-0221,06-6934-7345,,,http://www.osakasc.or.jp/index.html,,,,医療・福祉,福祉施設,医療・福祉/福祉施設,142,5080
135.5500685,34.70914961,城東区菫・鯰江東地域包括支援センター,じょうとうくすみれ・なまずえひがしちいきほうかつしえんせんたー,城東区菫・鯰江東地域包括支援センター（じょうとうくすみれ・なまずえひがしちいきほうかつしえんせんたー）,城東区関目2-7-10　関目ハイツ103,城東区,06-6786-2255,06-6786-2238,,,,,,,医療・福祉,福祉施設,医療・福祉/福祉施設,142,19416
135.5585057,34.70732522,うぇるカフェ,うぇるかふぇ,うぇるカフェ（うぇるかふぇ）,城東区古市1-21-41,城東区,06-6180-2040,06-6180-2041,障害者福祉作業センター（知的障害のある方）,,http://www.sekime-gakuen.net/sagyousyo/jigyo/cafe.html,,,,医療・福祉,福祉施設,医療・福祉/福祉施設,141,4485
135.5575166,34.70885792,特別養護老人ホーム城東老人ホーム,とくべつようごろうじんほーむじょうとうろうじんほーむ,特別養護老人ホーム城東老人ホーム（とくべつようごろうじんほーむじょうとうろうじんほーむ）,城東区古市1-20-17,城東区,06-6931-5190,06-6932-5684,,,http://www.sekime-gakuen.net/shisetu_info/roujin_home.html,,,,医療・福祉,福祉施設,医療・福祉/福祉施設,142,5086
135.557902,34.70846358,すみれ乳児院,すみれにゅうじいん,すみれ乳児院（すみれにゅうじいん）,城東区古市1-20-80,城東区,06-6931-3873,06-6933-3922,,,,,,,医療・福祉,福祉施設,医療・福祉/福祉施設,138,9190
135.5276081,34.72012208,友渕地域在宅サービスステーションひまわり,ともぶちちいきざいたくさーびすすてーしょんひまわり,友渕地域在宅サービスステーションひまわり（ともぶちちいきざいたくさーびすすてーしょんひまわり）,都島区友渕町1-3-108,都島区,06-4253-8861,,,,,,,,医療・福祉,福祉施設,医療・福祉/福祉施設,142,3046
135.5264399,34.72264025,都島区北部地域包括支援センター,みやこじまくほくぶちいきほうかつしえんせんたー,都島区北部地域包括支援センター（みやこじまくほくぶちいきほうかつしえんせんたー）,都島区大東町2-2-18,都島区,06-6926-3800,,,,,,,,医療・福祉,福祉施設,医療・福祉/福祉施設,142,37769
135.5326672,34.72246711,城北地域在宅サービスステーション「あいあい」,しろきたちいきざいたくさーびすすてーしょん「あいあい」,城北地域在宅サービスステーション「あいあい」（しろきたちいきざいたくさーびすすてーしょん「あいあい」）,旭区赤川1-6-12,旭区,06-6926-1122,,,,,,,,医療・福祉,福祉施設,医療・福祉/福祉施設,142,1948
135.5252938,34.72564414,淀川地域在宅サービスステーションゆめ,よどがわちいきざいたくさーびすすてーしょんゆめ,淀川地域在宅サービスステーションゆめ（よどがわちいきざいたくさーびすすてーしょんゆめ）,都島区毛馬町5-5-23,都島区,06-6929-8801,,,,,,,,医療・福祉,福祉施設,医療・福祉/福祉施設,142,3042
135.5336812,34.72721708,生江障害者会館光生園,いくえしょうがいしゃかいかんこうせいえん,生江障害者会館光生園（いくえしょうがいしゃかいかんこうせいえん）,旭区赤川4丁目1番30号,旭区,06-6921-6603,06-6921-6731,,,,,,,医療・福祉,福祉施設,医療・福祉/福祉施設,141,1925
135.5348717,34.71674989,高倉地域在宅サービスステーションからまつ,たかくらちいきざいたくさーびすすてーしょんからまつ,高倉地域在宅サービスステーションからまつ（たかくらちいきざいたくさーびすすてーしょんからまつ）,都島区御幸町2-10-12,都島区,06-6929-8886,,,,,,,,医療・福祉,福祉施設,医療・福祉/福祉施設,142,2955
135.5348751,34.71662217,あかまつ園（知的障害者更生施設）,あかまつえん（ちてきしょうがいしゃこうせいしせつ）,あかまつ園（知的障害者更生施設）（あかまつえん（ちてきしょうがいしゃこうせいしせつ））,都島区御幸町2-10-23,都島区,06-6929-5100,,,,,,,,医療・福祉,福祉施設,医療・福祉/福祉施設,141,3104
135.5462558,34.71726086,おとしよりすこやかセンター北部館,おとしよりすこやかせんたーほくぶかん,おとしよりすこやかセンター北部館（おとしよりすこやかせんたーほくぶかん）,旭区高殿6丁目14番41号,旭区,06-6955-4865,06-6955-1625,,,http://www.city.osaka.lg.jp/kenkofukushi/page/0000006619.html,,,,医療・福祉,福祉施設,医療・福祉/福祉施設,142,1884
135.5456346,34.714682,蒲生地域在宅サービスステーション和光,がもうちいきざいたくさーびすすてーしょんわこう,蒲生地域在宅サービスステーション和光（がもうちいきざいたくさーびすすてーしょんわこう）,城東区成育5-22-16,城東区,06-6935-0577,06-6935-0677,,,http://www.tamami.or.jp/wako.shtm,,,,医療・福祉,福祉施設,医療・福祉/福祉施設,142,5166
135.5367723,34.71846406,旭陽地域在宅サービスステーション「高殿苑」,きょくようちいきざいたくさーびすすてーしょん「たかどのえん」,旭陽地域在宅サービスステーション「高殿苑」（きょくようちいきざいたくさーびすすてーしょん「たかどのえん」）,旭区高殿2-11-26,旭区,06-6923-0069,,,,,,,,医療・福祉,福祉施設,医療・福祉/福祉施設,142,1947
135.546053,34.71835,旭区在宅サービスセンター,あさひざいたくさーびすせんたー,旭区在宅サービスセンター（あさひざいたくさーびすせんたー）,旭区高殿6-16-1,旭区,06-6957-2200,06-6957-7282,,,http://www.sansan-asahi.or.jp/,http://www.osaka-bfmap.jp/sisetu_data/data/161001.php?bunrui=1&name=16.php,,,医療・福祉,福祉施設,医療・福祉/福祉施設,138,72
135.549353,34.72325306,旭区子ども・子育てプラザ,あさひくこどもこそだてぷらざ,旭区子ども・子育てプラザ（あさひくこどもこそだてぷらざ）,旭区森小路2-5-29,旭区,06-6955-1144,06-6955-1144,もとトモノス旭,,http://www.osaka-kosodate.net/plaza/asahi/,,,,医療・福祉,福祉施設,医療・福祉/福祉施設,134,1902
135.5493691,34.72333611,旭区老人福祉センター,あさひくろうじんふくしせんたー,旭区老人福祉センター（あさひくろうじんふくしせんたー）,旭区森小路2丁目5番29号,旭区,06-6955-1377,06-6955-1398,,,http://www.osaka-sishakyo.jp/soudan/roujin_ichiran.html,http://www.osaka-bfmap.jp/sisetu_data/data/161101.php?bunrui=1&name=16.php,,,医療・福祉,福祉施設,医療・福祉/福祉施設,142,1903
135.5493941,34.72340589,ファミリーサポートセンター旭,ふぁみりーさぽーとせんたーあさひ,ファミリーサポートセンター旭（ふぁみりーさぽーとせんたーあさひ）,旭区森小路2-5-29,旭区,06-6955-1395,06-6955-1395,,,,,,,医療・福祉,福祉施設,医療・福祉/福祉施設,134,1952
135.5495531,34.72352808,旭子育て支援センター,あさひこそだてしえんせんたー,旭子育て支援センター（あさひこそだてしえんせんたー）,旭区森小路2-5-29,旭区,06-4254-4070,06-4254-4070,,,,,,,医療・福祉,福祉施設,医療・福祉/福祉施設,134,1953
135.5588668,34.72298614,旭東地域在宅サービスステーション「さくら苑」,きょくとうちいきざいたくさーびすすてーしょん「さくらえん」,旭東地域在宅サービスステーション「さくら苑」（きょくとうちいきざいたくさーびすすてーしょん「さくらえん」）,旭区清水3-15-23,旭区,06-6957-8008,,,,,,,,医療・福祉,福祉施設,医療・福祉/福祉施設,142,1951
135.5503669,34.72661094,今市地域在宅サービスステーション,いまいちちいきざいたくさーびすすてーしょん,今市地域在宅サービスステーション（いまいちちいきざいたくさーびすすてーしょん）,旭区今市1-2-2,旭区,06-6958-5566,06-6958-2900,,,,,,,医療・福祉,福祉施設,医療・福祉/福祉施設,142,1950
135.573972,34.70504994,鶴見区老人福祉センター,つるみくろうじんふくしせんたー,鶴見区老人福祉センター（つるみくろうじんふくしせんたー）,鶴見区横堤5丁目5番51号,鶴見区,06-6912-3351,06-6912-6130,,,http://www.osaka-sishakyo.jp/soudan/roujin_ichiran.html,http://www.osaka-bfmap.jp/sisetu_data/data/181101.php?bunrui=1&name=18.php,,,医療・福祉,福祉施設,医療・福祉/福祉施設,142,4074
135.5754973,34.70465817,秀和会（茨田地域在宅サービスステーション）,しゅうわかい（まったちいきざいたくさーびすすてーしょん）,秀和会（茨田地域在宅サービスステーション）（しゅうわかい（まったちいきざいたくさーびすすてーしょん））,鶴見区諸口６－２－７,鶴見区,06-6915-8008,,,,,,,,医療・福祉,福祉施設,医療・福祉/福祉施設,142,4038
135.5828363,34.70472206,鶴見区ボランティアビューロー,つるみくぼらんてぃあびゅーろー,鶴見区ボランティアビューロー（つるみくぼらんてぃあびゅーろー）,鶴見区諸口５－浜６-１２,鶴見区,06-6913-7070,06-6913-7676,ボランティア活動,,,,,,医療・福祉,福祉施設,医療・福祉/福祉施設,142,4037
135.5828249,34.70455589,鶴見区在宅サービスセンター,つるみくざいたくさーびすせんたー,鶴見区在宅サービスセンター（つるみくざいたくさーびすせんたー）,鶴見区諸口５－浜６-１２,鶴見区,06-6913-7070,,在宅介護支援,,,,,,医療・福祉,福祉施設,医療・福祉/福祉施設,142,4039
135.5613536,34.71259078,つどいの広場「ソフィア」,つどいのひろばそふぃあ,つどいの広場「ソフィア」（つどいのひろばそふぃあ）,鶴見区緑1-11-3,鶴見区,6180-3550,,つどいの広場,,,,,,医療・福祉,福祉施設,医療・福祉/福祉施設,134,9241
135.5912668,34.70263614,ファミリー（茨田北地域在宅サービスステーション）,ふぁみりー（まったきたちいきざいたくさーびすすてーしょん）,ファミリー（茨田北地域在宅サービスステーション）（ふぁみりー（まったきたちいきざいたくさーびすすてーしょん））,鶴見区安田２－１－２７,鶴見区,06-6915-1717,,（地域住宅サービスセンター）,,,,,,医療・福祉,福祉施設,医療・福祉/福祉施設,142,4036
135.5972718,34.70987811,ちどり（茨田大宮地域在宅サービスステーション）,ちどり（まったおおみやちいきざいたくさーびすすてーしょん）,ちどり（茨田大宮地域在宅サービスステーション）（ちどり（まったおおみやちいきざいたくさーびすすてーしょん））,鶴見区茨田大宮３－８－３３,鶴見区,06-6914-7711,06-6914-7100,,,,,,,医療・福祉,福祉施設,医療・福祉/福祉施設,142,4035
135.5645397,34.72247117,地域活動支援プラザ旭,ちいきかつどうしえんぷらざあさひ,地域活動支援プラザ旭（ちいきかつどうしえんぷらざあさひ）,旭区清水5-6-32,旭区,06-6953-0884,06-6953-0885,,,,,,,医療・福祉,福祉施設,医療・福祉/福祉施設,142,1912
135.4731891,34.72880294,わーくる太輝,わーくるたいき,わーくる太輝（わーくるたいき）,淀川区三津屋中1-4-40,淀川区,06-6100-1557,,知的障害者作業所,,,,,,医療・福祉,福祉施設,医療・福祉/福祉施設,141,2583
135.4797466,34.73052794,淀川区子ども・子育てプラザ,よどがわくこども・こそだてぷらざ,淀川区子ども・子育てプラザ（よどがわくこども・こそだてぷらざ）,淀川区新高1-11-19,淀川区,06-6395-6420,06-6395-6420,,,http://www.osaka-kosodate.net/plaza/yodogawa/,,,,医療・福祉,福祉施設,医療・福祉/福祉施設,134,8647
135.4798011,34.73048292,ファミリー・サポート・センター淀川,ふぁみりーさぽーとせんたーよどがわ,ファミリー・サポート・センター淀川（ふぁみりーさぽーとせんたーよどがわ）,淀川区新高1-11-19（淀川区子ども・子育てプラザ内）,淀川区,6395-6425,6395-6425,,,,,,,医療・福祉,福祉施設,医療・福祉/福祉施設,134,9209
135.4792561,34.73516528,ほほえみ寮,ほほえみりょう,ほほえみ寮（ほほえみりょう）,淀川区新高4-15-28,淀川区,06-6392-2769,,知的障害者通勤寮,,,,,,医療・福祉,福祉施設,医療・福祉/福祉施設,141,491
135.4792493,34.73517006,にいたかの里,にいたかのさと,にいたかの里（にいたかのさと）,淀川区新高4-15-28,淀川区,06-6392-2710,,知的障害者通所授産施設,,,,,,医療・福祉,福祉施設,医療・福祉/福祉施設,141,494
135.4793531,34.73544986,陽だまりの苑,ひだまりのその,陽だまりの苑（ひだまりのその）,淀川区新高4-15-25,淀川区,06-6397-0789,,地域在宅サービスステーション,,,,,,医療・福祉,福祉施設,医療・福祉/福祉施設,142,2573
135.4793363,34.73532806,平成新高苑,へいせいにいたかえん,平成新高苑（へいせいにいたかえん）,淀川区新高4-15-25,淀川区,06-6397-0710,,介護老人福祉施設,,,,,,医療・福祉,福祉施設,医療・福祉/福祉施設,142,2574
135.4845941,34.73119203,海萌,かいも,海萌（かいも）,淀川区野中北1-1-55,淀川区,06-4807-9277,,知的障害者作業所,,http://danke.tokuyou.jp/chiteki_kaimo.html,,,,医療・福祉,福祉施設,医療・福祉/福祉施設,141,2582
135.4861558,34.73550817,コモンズ三国,こもんずみくに,コモンズ三国（こもんずみくに）,淀川区三国本町2-14-23,淀川区,06-6396-8921,,介護老人福祉施設,,,,,,医療・福祉,福祉施設,医療・福祉/福祉施設,142,2447
135.4859389,34.73534392,やすらぎ,やすらぎ,やすらぎ（やすらぎ）,淀川区三国本町2-14-3,淀川区,06-6394-2900,,淀川区在宅サービスセンター,,http://yodogawa.kusyakyou.or.jp/main.cgi,,,,医療・福祉,福祉施設,医療・福祉/福祉施設,142,2448
135.4860959,34.73535536,淀川区地域包括支援センター,よどがわくちいきほうかつしえんせんたー,淀川区地域包括支援センター（よどがわくちいきほうかつしえんせんたー）,淀川区三国本町2-14-3,淀川区,,,,,,,,,医療・福祉,福祉施設,医療・福祉/福祉施設,138,8519
135.4907581,34.73252494,ミード宮原センター,みーどみやはらせんたー,ミード宮原センター（みーどみやはらせんたー）,淀川区西宮原1-6-45,淀川区,06-6350-7301,,地域在宅サービスステーション、生活支援ハウス,,http://www.mead-jp.com/miyahara/gaiyou.html,,,,医療・福祉,福祉施設,医療・福祉/福祉施設,142,2572
135.4912176,34.73260836,淀川区東部地域包括支援センター,よどがわくとうぶちいきほうかつしえんせんたー,淀川区東部地域包括支援センター（よどがわくとうぶちいきほうかつしえんせんたー）,淀川区西宮原1-6-45,淀川区,06-6350-7310,06-6350-7302,,,,,,,医療・福祉,福祉施設,医療・福祉/福祉施設,138,17449
135.4968029,34.73003108,えんじょい,えんじょい,えんじょい（えんじょい）,淀川区西中島7-12-23,淀川区,06-6101-5031,,大阪市障害者生活支援センター,,http://danke.tokuyou.jp/chiteki_enjoy.html,,,,医療・福祉,福祉施設,医療・福祉/福祉施設,141,2578
135.5045219,34.72889708,南方地域在宅サービスステーション(さわやか),みなみかたちいきざいたくさーびすすてーしょん,南方地域在宅サービスステーション(さわやか)（みなみかたちいきざいたくさーびすすてーしょん）,東淀川区東中島2-14-1,東淀川区,06-6321-1001,06-6321-0998,,,,,,,医療・福祉,福祉施設,医療・福祉/福祉施設,138,115
135.5058828,34.73539192,淡路地域在宅サービスステーション(ひざし),あわじちいきざいたくさーびすすてーしょん（ひざし）,淡路地域在宅サービスステーション(ひざし)（あわじちいきざいたくさーびすすてーしょん（ひざし））,東淀川区西淡路2-3-22,東淀川区,06-6325-6331,06-6325-5850,,,,,,,医療・福祉,福祉施設,医療・福祉/福祉施設,138,1008
135.5047058,34.73867217,西淡路希望の家,にしあわじきぼうのいえ,西淡路希望の家（にしあわじきぼうのいえ）,東淀川区西淡路1-13-28,東淀川区,06-6323-4991,,知的障害者通所施設,,,,,,医療・福祉,福祉施設,医療・福祉/福祉施設,138,159
135.5049692,34.73862786,日之出障害者会館,ひのでしょうがいしゃかいかん,日之出障害者会館（ひのでしょうがいしゃかいかん）,東淀川区西淡路1丁目13番25号,東淀川区,06-6321-3671,,,,,http://www.osaka-bfmap.jp/sisetu_data/data/130801.php?bunrui=1&name=13.php,,,医療・福祉,福祉施設,医療・福祉/福祉施設,138,162
135.5010643,34.74262217,なみはや,なみはや,なみはや（なみはや）,淀川区東三国2-12-16,淀川区,06-6350-2880,,地域在宅サービスステーション、介護老人福祉施設,,,,,,医療・福祉,福祉施設,医療・福祉/福祉施設,144,2571
135.5095581,34.73106689,中島地域在宅サービスステーション(飛鳥健康管理センター),なかじまちいきざいたくさーびすすてーしょん（あすかけんこうかんりせんたー）,中島地域在宅サービスステーション(飛鳥健康管理センター)（なかじまちいきざいたくさーびすすてーしょん（あすかけんこうかんりせんたー））,東淀川区東中島3-14-24,東淀川区,06-6326-3331,06-6326-0100,,,,,,,医療・福祉,福祉施設,医療・福祉/福祉施設,138,114
135.5197557,34.73349206,柴島地域在宅サービスステーション(ベラミ),くにじまちいきざいたくさーびすすてーしょん（べらみ）,柴島地域在宅サービスステーション(ベラミ)（くにじまちいきざいたくさーびすすてーしょん（べらみ））,東淀川区東淡路1-4-49,東淀川区,0120-58-0008,,,,,,,,医療・福祉,福祉施設,医療・福祉/福祉施設,138,113
135.5197672,34.73326911,エフォール,えふぉーる,エフォール（えふぉーる）,東淀川区東淡路1-4-49,東淀川区,06-6325-3315,,身体障害者療護施設,,,,,,医療・福祉,福祉施設,医療・福祉/福祉施設,138,161
135.5197308,34.73338906,ジュネス,じゅねす,ジュネス（じゅねす）,東淀川区東淡路1-4-49,東淀川区,06-6325-3336,,特別養護老人ホーム,,,,,,医療・福祉,福祉施設,医療・福祉/福祉施設,142,4773
135.525083,34.73553586,エスペラル東淀川,えすぺらるひがしよどがわ,エスペラル東淀川（えすぺらるひがしよどがわ）,東淀川区菅原1-1-21,東淀川区,06-6325-1781,06-6325-1831,老人保健施設,,http://www.esp-higashiyodogawa.com/index.html,,,,医療・福祉,福祉施設,医療・福祉/福祉施設,142,4814
135.5129887,34.73850311,いこい,いこい,いこい（いこい）,東淀川区淡路3-13-8,東淀川区,06-6328-2941,,軽費老人ホーム・ケアハウス,,,,,,医療・福祉,福祉施設,医療・福祉/福祉施設,138,103
135.5130467,34.73836914,ハニカム,はにかむ,ハニカム（はにかむ）,東淀川区淡路3-13-37,東淀川区,06-6328-2941,,知的障害者入所施設,,,,,,医療・福祉,福祉施設,医療・福祉/福祉施設,138,887
135.51305,34.73828314,だんらん,だんらん,だんらん（だんらん）,東淀川区淡路3-13-37,東淀川区,06-6328-2941,,特別養護老人ホーム　,,,,,,医療・福祉,福祉施設,医療・福祉/福祉施設,142,4775
135.5142917,34.73843889,東淀川区老人福祉センター,ひがしよどがわくろうじんふくしせんたー,東淀川区老人福祉センター（ひがしよどがわくろうじんふくしせんたー）,東淀川区淡路4丁目1番6号,東淀川区,06-6322-0173,06-6322-0821,,,http://www.osaka-sishakyo.jp/soudan/roujin_ichiran.html,,,,医療・福祉,福祉施設,医療・福祉/福祉施設,142,264
135.511078,34.74131892,淡路こども園,あわじこどもえん,淡路こども園（あわじこどもえん）,東淀川区西淡路5丁目1番12号,東淀川区,06-6323-6395,,知的障害児通園施設,,,,,,医療・福祉,福祉施設,医療・福祉/福祉施設,138,163
135.5108321,34.74138942,つどいの広場西淡路,つどいのひろばにしあわじ,つどいの広場西淡路（つどいのひろばにしあわじ）,東淀川区西淡路5-1-14,東淀川区,6323-5130,,つどいの広場,,,,,,医療・福祉,福祉施設,医療・福祉/福祉施設,134,9234
135.5256691,34.74315586,新東淀地域在宅サービスステーション(ビハーラこのみ園),しんひがしよどちいきざいたくサービスすてーしょん（びはーらこのみえん）,新東淀地域在宅サービスステーション(ビハーラこのみ園)（しんひがしよどちいきざいたくサービスすてーしょん（びはーらこのみえん））,東淀川区菅原7-15-14,東淀川区,06-6325-6911,06-6325-6922,,,,,,,医療・福祉,福祉施設,医療・福祉/福祉施設,138,112
135.5298692,34.74316914,ワークセンター豊新,わーくせんたーほうしん,ワークセンター豊新（わーくせんたーほうしん）,東淀川区豊新2-7-3,東淀川区,06-6990-8270,,知的障害者通所施設,,,,,,医療・福祉,福祉施設,医療・福祉/福祉施設,138,160
135.5293329,34.74115283,東淀川区子ども・子育てプラザ,ひがしよどがわくこどもこそだてぷらざ,東淀川区子ども・子育てプラザ（ひがしよどがわくこどもこそだてぷらざ）,東淀川区豊新2-1-4,東淀川区,06-6327-5650,06-6327-5650,,,http://www.osaka-kosodate.net/plaza/higashiyodogawa/,,,,医療・福祉,福祉施設,医療・福祉/福祉施設,134,228
135.5311499,34.74003892,東淀川区在宅サービスセンター(ほほえみ),ひがしよどがわくざいたくさーびすせんたー（ほほえみ）,東淀川区在宅サービスセンター(ほほえみ)（ひがしよどがわくざいたくさーびすせんたー（ほほえみ））,東淀川区菅原4-4-37,東淀川区,06-6370-7190,06-6370-7114,,,http://www.hohoemi-kushakyo.or.jp/index.html,,,,医療・福祉,福祉施設,医療・福祉/福祉施設,138,659
135.5319888,34.74107792,あすわ～く,あくわーく,あすわ～く（あくわーく）,東淀川区豊新1-3-3,東淀川区,06-6815-7166,,知的障害者通所施設,,,,,,医療・福祉,福祉施設,医療・福祉/福祉施設,138,886
135.5273528,34.74251108,さわやか苑,さわやかえん,さわやか苑（さわやかえん）,東淀川区豊新2-15-20,東淀川区,06-6815-9292,,特別養護老人ホーム,,,,,,医療・福祉,福祉施設,医療・福祉/福祉施設,142,4772
135.5297061,34.74114175,ファミリー・サポート・センター東淀川,ふぁみりーさぽーとせんたーひがしよどがわ,ファミリー・サポート・センター東淀川（ふぁみりーさぽーとせんたーひがしよどがわ）,東淀川区豊新2-1-4（東淀川区子ども・子育てプラザ内）,東淀川区,6327-5672,6327-5672,,,,,,,医療・福祉,福祉施設,医療・福祉/福祉施設,134,9210
135.5351499,34.72939211,生江地域在宅サービスステーション「翠（みどり）」,いくえちいきざいたくさーびすすてーしょん「みどり」,生江地域在宅サービスステーション「翠（みどり）」（いくえちいきざいたくさーびすすてーしょん「みどり」）,旭区生江3-27-6,旭区,06-6928-1010,06-6926-5006,,,,,,,医療・福祉,福祉施設,医療・福祉/福祉施設,142,1949
135.5509309,34.7325755,つどいの広場「花しょうぶ」,つどいのひろばはなしょうぶ,つどいの広場「花しょうぶ」（つどいのひろばはなしょうぶ）,旭区太子橋1-23-15,旭区,6955-0028,,つどいの広場,,,,,,医療・福祉,福祉施設,医療・福祉/福祉施設,134,9238
135.5171753,34.74340794,ビハーラ,びはーら,ビハーラ（びはーら）,東淀川区淡路5-11-17,東淀川区,06-6370-5501,,特別養護老人ホーム,,,,,,医療・福祉,福祉施設,医療・福祉/福祉施設,142,4774
135.5334939,34.75213914,瑞光地域在宅サービスステーション(水仙の家),ずいこうちいきざいたくさーびすすてーしょん（すいせんのいえ）,瑞光地域在宅サービスステーション(水仙の家)（ずいこうちいきざいたくさーびすすてーしょん（すいせんのいえ））,東淀川区小松1-12-10,東淀川区,06-6370-2266,06-6370-2325,,,http://www1.ocn.ne.jp/~suisenie/,,,,医療・福祉,福祉施設,医療・福祉/福祉施設,138,107
135.5449892,34.743894,大桐地域在宅サービスステーション(おおぎり）,だいどうちいきざいたくさーびすすてーしょん（おおぎり）,大桐地域在宅サービスステーション(おおぎり）（だいどうちいきざいたくさーびすすてーしょん（おおぎり））,東淀川区大桐1-1-12,東淀川区,06-6326-8161,,,,,,,,医療・福祉,福祉施設,医療・福祉/福祉施設,138,784
135.5439442,34.74511714,とよさと　黄金の里,とよさとこがねのさと,とよさと　黄金の里（とよさとこがねのさと）,東淀川区大桐1-7-32,東淀川区,06-6963-5551,,特別養護老人ホーム　,,http://www.kogane.or.jp/toyosato/index.html,,,,医療・福祉,福祉施設,医療・福祉/福祉施設,142,4810
135.5463764,34.75146969,おやこひろば・瑞光,おやこひろばずいこう,おやこひろば・瑞光（おやこひろばずいこう）,東淀川区瑞光4-2-21,東淀川区,7176-8328,,つどいの広場,,,,,,医療・福祉,福祉施設,医療・福祉/福祉施設,134,9232
135.5437441,34.76268303,井高野地域在宅サービスステーション(井高野園),いたかのちいきざいたくさーびすすてーしょん（いたかのえん）,井高野地域在宅サービスステーション(井高野園)（いたかのちいきざいたくさーびすすてーしょん（いたかのえん））,東淀川区井高野1-4-50,東淀川区,06-6349-9278,06-6827-8506,,,http://itakanoen-day.jp/,,,,医療・福祉,福祉施設,医療・福祉/福祉施設,138,105
135.5438027,34.76655292,井高野園,いたかのえん,井高野園（いたかのえん）,東淀川区井高野3-1-58,東淀川区,06-6349-3417,06-6349-7748,特別養護老人ホーム,,http://www.itakanoen.or.jp/,,,,医療・福祉,福祉施設,医療・福祉/福祉施設,142,4771
135.5458879,34.76688981,おやこひろば・井高野,おやこひろばいたかの,おやこひろば・井高野（おやこひろばいたかの）,東淀川区井高野4-2-3,東淀川区,7176-8328,,つどいの広場,,,,,,医療・福祉,福祉施設,医療・福祉/福祉施設,134,9233
135.5485613,34.76704994,エスペラル井高野,えすぺらるいたかの,エスペラル井高野（えすぺらるいたかの）,東淀川区井高野4-6-37,東淀川区,06-6829-2200,06-6829-2222,老人保健施設,,http://www.esp-itakano.com/index.html,,,,医療・福祉,福祉施設,医療・福祉/福祉施設,142,4813
135.457803,34.63684394,大正西地域在宅サービスステーション(ファミリー),,大正西地域在宅サービスステーション(ファミリー)（）,大正区鶴町1-11-20,大正区,06-6555-6600,06-6555-6605,,,,,,,医療・福祉,福祉施設,医療・福祉/福祉施設,142,3907
135.467244,34.64979211,泉尾特別養護老人ホーム「大正園」,,泉尾特別養護老人ホーム「大正園」（）,大正区北村3-4-3,大正区,06-6552-3323,06-6552-3861,,,,,,,医療・福祉,福祉施設,医療・福祉/福祉施設,142,3963
135.4672643,34.64975811,北恩加島地域在宅サービスステーション(大正園),,北恩加島地域在宅サービスステーション(大正園)（）,大正区北村3-4-3,大正区,06-6552-3323,06-6552-3861,,,,,,,医療・福祉,福祉施設,医療・福祉/福祉施設,142,3964
135.4671639,34.65062792,つつじ荘,,つつじ荘（）,大正区北村3-5-10,大正区,06-6552-8070,06-6552-8087,,,,,,,医療・福祉,福祉施設,医療・福祉/福祉施設,142,3967
135.4671942,34.65053589,泉尾特別養護老人ホーム「第二大正園」,,泉尾特別養護老人ホーム「第二大正園」（）,大正区北村3-5-10,大正区,06-6552-8070,06-6552-80xx,,,,,,,医療・福祉,福祉施設,医療・福祉/福祉施設,142,3968
135.4673141,34.65048603,北村園,,北村園（）,大正区北村3-5-10,大正区,06-6552-8070,06-6552-8087,,,,,,,医療・福祉,福祉施設,医療・福祉/福祉施設,141,3969
135.467494,34.650094,ふくろうの杜,,ふくろうの杜（）,大正区北村3-5-12,大正区,06-6552-2960,06-6552-2968,,,,,,,医療・福祉,福祉施設,医療・福祉/福祉施設,141,3970
135.4733501,34.66011703,大正東地域在宅サービスステーション(いずみの家),,大正東地域在宅サービスステーション(いずみの家)（）,大正区泉尾2-13-5,大正区,06-6554-7005,06-6554-7018,,,,,,,医療・福祉,福祉施設,医療・福祉/福祉施設,142,3877
135.575929,34.599223,こうのとり,こうのとり,こうのとり（こうのとり）,平野区長吉川辺３丁目２－３,平野区,06-6700-8000,,定員：１００,,,,,,医療・福祉,特別養護老人ホーム,医療・福祉/特別養護老人ホーム,217,95022
135.548638,34.766761,寿楽荘　いたかの,じゅらくそう　いたかの,寿楽荘　いたかの（じゅらくそう　いたかの）,東淀川区井高野４丁目６－６１,東淀川区,06-6686-5301,,,,,,,,医療・福祉,特別養護老人ホーム,医療・福祉/特別養護老人ホーム,217,95021
135.408061,34.640243,健祥会　エンリケ,けんしょうかい　えんりけ,健祥会　エンリケ（けんしょうかい　えんりけ）,住之江区南港北２丁目７－４８,住之江区,06-6616-5555,,,,,,,,医療・福祉,特別養護老人ホーム,医療・福祉/特別養護老人ホーム,217,95023
135.45472,34.668441,平成みなと苑,へいせいみなとえん,平成みなと苑（へいせいみなとえん）,港区弁天２丁目８－１６,港区,06-7502-0607,,,,,,,,医療・福祉,特別養護老人ホーム,医療・福祉/特別養護老人ホーム,217,95024
135.4746866,34.62229167,加賀屋の森,かがやのもり,加賀屋の森（かがやのもり）,住之江区北加賀屋５丁目４－２３,住之江区,06-6340-0505,,,,,,,,医療・福祉,特別養護老人ホーム,医療・福祉/特別養護老人ホーム,217,95020
135.5109352,34.59200975,アップリケアホーム,,アップリケアホーム（）,住吉区浅香1-8-38,住吉区,06-6696-1177,,定員： 124,,http://www.apricare.com/,,,,医療・福祉,特別養護老人ホーム,医療・福祉/特別養護老人ホーム,217,9678
135.4742219,34.60528656,いわき園,,いわき園（）,住之江区南加賀屋3-9-2,住之江区,06-6683-6655,,定員： 130,,,,,,医療・福祉,特別養護老人ホーム,医療・福祉/特別養護老人ホーム,217,9674
135.497447,34.59668183,ゆうけい創和,,ゆうけい創和（）,住吉区遠里小野2-7-20,住吉区,06-6609-6815,,定員： 60,,,,,,医療・福祉,特別養護老人ホーム,医療・福祉/特別養護老人ホーム,217,9683
135.5141388,34.60067558,さんらく苑,,さんらく苑（）,住吉区苅田5-16-10,住吉区,06-6606-3100,,定員： 80,,http://www.oct.zaq.ne.jp/sanrakuen/,,,,医療・福祉,特別養護老人ホーム,医療・福祉/特別養護老人ホーム,217,9681
135.5084343,34.60490244,ウェルネスあびこ,,ウェルネスあびこ（）,住吉区我孫子西1-2-15,住吉区,06-6608-3000,,定員： 86,,http://www.wellness-kaigo.com/,,,,医療・福祉,特別養護老人ホーム,医療・福祉/特別養護老人ホーム,217,9680
135.4304331,34.62937308,南港咲洲,,南港咲洲（）,住之江区南港中2-1-35,住之江区,06-4703-1700,,定員： 140,,,,,,医療・福祉,特別養護老人ホーム,医療・福祉/特別養護老人ホーム,217,9676
135.425345,34.63815106,浜木綿苑,,浜木綿苑（）,住之江区南港北1-4-1,住之江区,06-6613-7053,,定員： 140,,http://www.naniwa-fukushikai.jp/,,,,医療・福祉,特別養護老人ホーム,医療・福祉/特別養護老人ホーム,217,9677
135.4870849,34.61096303,グルメ杵屋社会貢献の家,,グルメ杵屋社会貢献の家（）,住之江区浜口東2-5-14,住之江区,06-6671-2500,,定員： 84,,http://www.gksc.jp/,,,,医療・福祉,特別養護老人ホーム,医療・福祉/特別養護老人ホーム,217,9675
135.4838766,34.62436872,白寿苑,,白寿苑（）,西成区南津守7-12-32,西成区,06-6651-2210,,定員： 144,,http://www.hakujuen.or.jp/,,,,医療・福祉,特別養護老人ホーム,医療・福祉/特別養護老人ホーム,217,9700
135.4987048,34.61282058,なごみ,,なごみ（）,住吉区帝塚山東5-10-15,住吉区,06-6676-0753,,定員： 30,,http://www.lifesupport.or.jp/index.html,,,,医療・福祉,特別養護老人ホーム,医療・福祉/特別養護老人ホーム,217,9682
135.5023706,34.62022864,帝塚山,,帝塚山（）,住吉区帝塚山東2-1-35,住吉区,06-4701-1121,,定員： 124,,http://www.tezukayama.or.jp/reifu/index.html,,,,医療・福祉,特別養護老人ホーム,医療・福祉/特別養護老人ホーム,217,9679
135.5026105,34.62086772,阪和帝塚山苑,,阪和帝塚山苑（）,住吉区帝塚山東2-1-41,住吉区,06-4701-1151,,定員:140,,,,,,医療・福祉,特別養護老人ホーム,医療・福祉/特別養護老人ホーム,217,9775
135.4844917,34.63583878,山愛,,山愛（）,西成区南津守1-4-7,西成区,06-6656-7001,,定員： 320,,,,,,医療・福祉,特別養護老人ホーム,医療・福祉/特別養護老人ホーム,217,9699
135.5080678,34.63771019,ふれ愛丸山荘,,ふれ愛丸山荘（）,阿倍野区丸山通1-2-8,阿倍野区,06-6655-6611,,定員： 84,,http://www.fureai-m.jp/,,,,医療・福祉,特別養護老人ホーム,医療・福祉/特別養護老人ホーム,217,9672
135.5300255,34.59557078,ゆめあまみ,,ゆめあまみ（）,東住吉区矢田7-6-10,東住吉区,072-349-0363,,定員： 86,,http://www.smile-yume.com/,,,,医療・福祉,特別養護老人ホーム,医療・福祉/特別養護老人ホーム,217,9688
135.5321491,34.60236814,花嵐,,花嵐（）,東住吉区矢田6-8-7,東住吉区,06-6699-8787,,定員： 134,,http://www.fuk-fureai.com/,,,,医療・福祉,特別養護老人ホーム,医療・福祉/特別養護老人ホーム,217,9685
135.5454581,34.59593572,永寿,,永寿（）,平野区瓜破南1-2-11,平野区,06-6760-5070,,定員： 180,,http://www.eijyu.or.jp/,,,,医療・福祉,特別養護老人ホーム,医療・福祉/特別養護老人ホーム,217,9695
135.5398297,34.59987183,城南ホーム,,城南ホーム（）,東住吉区住道矢田4-20-17,東住吉区,06-6760-6539,,定員： 35,,,,,,医療・福祉,特別養護老人ホーム,医療・福祉/特別養護老人ホーム,217,9687
135.5233959,34.60705589,くつろぎ,,くつろぎ（）,東住吉区公園南矢田1-4-17,東住吉区,06-6790-7773,,定員： 70,,,,,,医療・福祉,特別養護老人ホーム,医療・福祉/特別養護老人ホーム,217,9689
135.5650241,34.60953719,紅生園喜連東,,紅生園喜連東（）,平野区喜連東5-13-30,平野区,06-6760-7611,,定員： 110,,,,,,医療・福祉,特別養護老人ホーム,医療・福祉/特別養護老人ホーム,217,9697
135.5785972,34.593965,長吉,,長吉（）,平野区長吉川辺3-20-14,平野区,06-6790-0007,,定員： 104,,http://www.eijyu.or.jp/,,,,医療・福祉,特別養護老人ホーム,医療・福祉/特別養護老人ホーム,217,9693
135.5785608,34.60848397,愛和,,愛和（）,平野区長吉六反2-1-6,平野区,06-6790-1433,,定員： 50,,,,,,医療・福祉,特別養護老人ホーム,医療・福祉/特別養護老人ホーム,217,9691
135.5373888,34.611675,ヴァンサンク東住吉,,ヴァンサンク東住吉（）,東住吉区湯里5-13-5,東住吉区,06-6760-7011,,定員： 90,,,,,,医療・福祉,特別養護老人ホーム,医療・福祉/特別養護老人ホーム,217,9690
135.5512024,34.6120735,喜連,,喜連（）,平野区喜連2-2-40,平野区,06-6790-6666,,定員： 60,,http://www.eijyu.or.jp/,,,,医療・福祉,特別養護老人ホーム,医療・福祉/特別養護老人ホーム,217,9692
135.5564858,34.62339922,平野愛和,,平野愛和（）,平野区平野東2-1-30,平野区,06-6795-2402,,定員： 26,,,,,,医療・福祉,特別養護老人ホーム,医療・福祉/特別養護老人ホーム,217,9694
135.538076,34.62516189,くれない,,くれない（）,東住吉区今川7-9-7,東住吉区,06-6769-1155,,定員： 82,,http://www.megumu1-2.jp/,,,,医療・福祉,特別養護老人ホーム,医療・福祉/特別養護老人ホーム,217,9686
135.5682628,34.62880356,万寿苑,,万寿苑（）,平野区加美東4-18-23,平野区,06-6796-5111,,定員： 81,,http://kyowahukusi.xsrv.jp/,,,,医療・福祉,特別養護老人ホーム,医療・福祉/特別養護老人ホーム,217,9698
135.5577235,34.63631992,加美北,,加美北（）,平野区加美北7-1-2,平野区,06-4303-7700,,定員： 100,,http://www.waetsukai.jp/home/kamikita.php,,,,医療・福祉,特別養護老人ホーム,医療・福祉/特別養護老人ホーム,217,9696
135.4467375,34.65159414,愛港園,,愛港園（）,港区八幡屋4-8-1,港区,06-6571-6231,,定員： 140,,http://www.aikoen.jp/,,,,医療・福祉,特別養護老人ホーム,医療・福祉/特別養護老人ホーム,217,9617
135.4467375,34.65159414,第2愛港園,,第2愛港園（）,港区八幡屋4-8-1,港区,06-6571-5241,,定員： 50,,,,,,医療・福祉,特別養護老人ホーム,医療・福祉/特別養護老人ホーム,217,9618
135.4673377,34.6497245,大正園,,大正園（）,大正区北村3-4-3,大正区,06-6552-3323,,定員： 100,,http://www.silver-c.org/taishyoen_f/taishyoen_t.html,,,,医療・福祉,特別養護老人ホーム,医療・福祉/特別養護老人ホーム,217,9620
135.4674192,34.65053075,第2大正園,,第2大正園（）,大正区北村3-5-10,大正区,06-6552-8070,,定員： 126,,http://www.silver-c.org/dai2taishyoen_f/dai2taishyoen_t.html,,,,医療・福祉,特別養護老人ホーム,医療・福祉/特別養護老人ホーム,217,9621
135.4621843,34.66417239,ザイオン,,ザイオン（）,港区市岡1-5-30,港区,06-4395-8888,,定員： 106,,,,,,医療・福祉,特別養護老人ホーム,医療・福祉/特別養護老人ホーム,217,9619
135.4903855,34.64628219,まちかどホームやまゆり,,まちかどホームやまゆり（）,西成区鶴見橋2-12-21,西成区,06-6567-4500,,定員： 29,,,,,,医療・福祉,特別養護老人ホーム,医療・福祉/特別養護老人ホーム,217,9703
135.4762748,34.65224183,ビーナスホーム千島園,,ビーナスホーム千島園（）,大正区千島1-23-26,大正区,06-6553-4800,,定員： 150,,http://www.venushome.jp/,,,,医療・福祉,特別養護老人ホーム,医療・福祉/特別養護老人ホーム,217,9622
135.4909293,34.65057767,まちかどホームすずらん,,まちかどホームすずらん（）,西成区出城2-4-10,西成区,06-6563-6563,,定員： 90,,,,,,医療・福祉,特別養護老人ホーム,医療・福祉/特別養護老人ホーム,217,9701
135.5014133,34.64286489,ローズ,,ローズ（）,西成区天下茶屋北2-4-7,西成区,06-6647-7300,,定員： 110,,,,,,医療・福祉,特別養護老人ホーム,医療・福祉/特別養護老人ホーム,217,9702
135.5152707,34.64413308,阪和苑,,阪和苑（）,阿倍野区松崎町2-3-10,阿倍野区,06-6626-3731,,定員： 140,,http://www.tezukayama.or.jp/hanwaen/index.html,,,,医療・福祉,特別養護老人ホーム,医療・福祉/特別養護老人ホーム,217,9673
135.4872527,34.66615289,アシステンツァ桜川,,アシステンツァ桜川（）,浪速区桜川3-7-2,浪速区,06-6568-1861,,定員： 124,,http://www.kensyokai.jp/ashisu/ashisu.html,,,,医療・福祉,特別養護老人ホーム,医療・福祉/特別養護老人ホーム,217,9627
135.4894888,34.66890653,なにわ,,なにわ（）,浪速区幸町2-3-11,浪速区,06-6568-1861,,定員： 58,,http://www.kensyokai.jp/naniwa/naniwa.html,,,,医療・福祉,特別養護老人ホーム,医療・福祉/特別養護老人ホーム,217,9625
135.5046721,34.65766681,あいぜん,,あいぜん（）,浪速区日本橋5-16-19,浪速区,06-6634-8965,,定員： 80,,http://www.aizenen.or.jp/,,,,医療・福祉,特別養護老人ホーム,医療・福祉/特別養護老人ホーム,217,9626
135.4437313,34.674046,ガーデン天使,,ガーデン天使（）,此花区島屋4-1-11,此花区,06-6460-0028,,定員： 104,,,,,,医療・福祉,特別養護老人ホーム,医療・福祉/特別養護老人ホーム,217,9611
135.4480001,34.68536106,ラヴィータ　ウーノ,,ラヴィータ　ウーノ（）,此花区伝法6-5-12,此花区,06-6463-6546,,定員： 80,,http://lavita-uno.jp/family.htm,,,,医療・福祉,特別養護老人ホーム,医療・福祉/特別養護老人ホーム,217,9613
135.4670453,34.68679369,福島ともしび苑,,福島ともしび苑（）,福島区吉野5-6-11,福島区,06-6464-0105,,定員： 60,,http://tomoshibifukushikai.jp/fukushima/index.html,,,,医療・福祉,特別養護老人ホーム,医療・福祉/特別養護老人ホーム,217,9609
135.4427261,34.69585217,水都ホーム福町,,水都ホーム福町（）,西淀川区福町2-11-7,西淀川区,06-4808-2962,,定員： 72,,,,,,医療・福祉,特別養護老人ホーム,医療・福祉/特別養護老人ホーム,217,9631
135.4713814,34.68109767,ケアセンター水都ホーム,,ケアセンター水都ホーム（）,此花区西九条1-1-2,此花区,06-6467-2929,,定員： 50,,,,,,医療・福祉,特別養護老人ホーム,医療・福祉/特別養護老人ホーム,217,9612
135.4776149,34.68154386,すみれ苑,,すみれ苑（）,西区川口3-6-14,西区,06-6585-1660,,定員： 60,,http://www.sumire-en.jp/index.html,,,,医療・福祉,特別養護老人ホーム,医療・福祉/特別養護老人ホーム,217,9616
135.4841649,34.68414222,江之子島コスモス苑,,江之子島コスモス苑（）,西区江之子島1-8-44,西区,06-6225-2662,,定員： 104,,http://www.kosumosuen.jp/,,,,医療・福祉,特別養護老人ホーム,医療・福祉/特別養護老人ホーム,217,9615
135.514572,34.68058981,さくら,,さくら（）,中央区農人橋1-4-20,中央区,06-6947-5215,,定員： 134,,http://www.kensyokai.jp/sakura/sakura.html,,,,医療・福祉,特別養護老人ホーム,医療・福祉/特別養護老人ホーム,217,9614
135.4744624,34.69587136,グリーン野田,,グリーン野田（）,福島区海老江2-1-36,福島区,06-6454-1820,,定員： 104,,http://www.fides.dti.ne.jp/~yuuhouka/,,,,医療・福祉,特別養護老人ホーム,医療・福祉/特別養護老人ホーム,217,9610
135.5264102,34.64291403,いくとく,,いくとく（）,阿倍野区天王寺町北3-18-16,阿倍野区,06-6713-1165,,定員： 130,,,,,,医療・福祉,特別養護老人ホーム,医療・福祉/特別養護老人ホーム,217,9671
135.534902,34.64167056,寿幸苑,,寿幸苑（）,生野区林寺4-13-14,生野区,06-6714-2221,,定員： 90,,http://www.jukouen.com/,,,,医療・福祉,特別養護老人ホーム,医療・福祉/特別養護老人ホーム,217,9654
135.5358385,34.64053461,あっとほうむ,,あっとほうむ（）,東住吉区杭全1-4-20,東住吉区,06-6719-8880,,定員： 72,,http://keiyo.org/,,,,医療・福祉,特別養護老人ホーム,医療・福祉/特別養護老人ホーム,217,9684
135.5265881,34.65285814,夢の箱,,夢の箱（）,生野区勝山南1-17-43,生野区,06-6712-2220,,定員： 90,,http://www.yumenohako.info/index.html,,,,医療・福祉,特別養護老人ホーム,医療・福祉/特別養護老人ホーム,217,9655
135.5501244,34.64213506,甍,,甍（）,生野区巽南3-7-30,生野区,06-6752-1339,,定員： 80,,http://www.sansyukai.jp/,,,,医療・福祉,特別養護老人ホーム,医療・福祉/特別養護老人ホーム,217,9650
135.5500105,34.641253,金の鈴,,金の鈴（）,生野区巽南3-5-25,生野区,06-6758-8111,,定員： 26,,,,,,医療・福祉,特別養護老人ホーム,医療・福祉/特別養護老人ホーム,217,9651
135.5581365,34.645732,瑞光苑,,瑞光苑（）,生野区巽東4-11-10,生野区,06-6758-0088,,定員： 124,,http://www.kyouseikai.org/zuikouen/index.html,,,,医療・福祉,特別養護老人ホーム,医療・福祉/特別養護老人ホーム,217,9646
135.5517885,34.64782489,インパレスみのり苑,,インパレスみのり苑（）,生野区巽中3-14-3,生野区,06-6756-5200,,定員： 94,,http://www.minori-en.com/tokuyou_top.html,,,,医療・福祉,特別養護老人ホーム,医療・福祉/特別養護老人ホーム,217,9647
135.5499634,34.65157972,巽さくらら苑,,巽さくらら苑（）,生野区巽中1-5-8,生野区,06-6753-1147,,定員： 60,,http://care-net.biz/27/sakurara/,,,,医療・福祉,特別養護老人ホーム,医療・福祉/特別養護老人ホーム,217,9653
135.5339621,34.65473436,あじさいの里,,あじさいの里（）,生野区勝山北3-13-20,生野区,06-6716-1199,,定員： 50,,http://www.geocities.jp/zaitaku5535/aiseikaihomepage.html,,,,医療・福祉,特別養護老人ホーム,医療・福祉/特別養護老人ホーム,217,9648
135.5228617,34.66000178,四天王寺きたやま苑,,四天王寺きたやま苑（）,天王寺区北山町9-6,天王寺区,06-6773-1811,,定員： 50,,http://www9.ocn.ne.jp/~kitayama/home/index.html,,,,医療・福祉,特別養護老人ホーム,医療・福祉/特別養護老人ホーム,217,9623
135.5424856,34.66244306,レインボー今里,,レインボー今里（）,生野区中川1-6-20,生野区,06-6755-6700,,定員： 80,,http://www.kozinkai.or.jp/,,,,医療・福祉,特別養護老人ホーム,医療・福祉/特別養護老人ホーム,217,9652
135.5489305,34.66249628,サン・アクエリア,,サン・アクエリア（）,生野区新今里4-11-17,生野区,06-6755-1165,,定員： 50,,,,,,医療・福祉,特別養護老人ホーム,医療・福祉/特別養護老人ホーム,217,9649
135.5325742,34.67302572,四天王寺たまつくり苑,,四天王寺たまつくり苑（）,天王寺区玉造元町1-29,天王寺区,06-6763-4115,,定員： 70,,http://www.shitennoji-fukushi.jp/404.html,,,,医療・福祉,特別養護老人ホーム,医療・福祉/特別養護老人ホーム,217,9624
135.5393702,34.68055731,ハミングベル中道,,ハミングベル中道（）,東成区中道2-7-1,東成区,06-6971-9788,,定員： 80,,http://www.humming-bell.or.jp/,,,,医療・福祉,特別養護老人ホーム,医療・福祉/特別養護老人ホーム,217,9644
135.5393143,34.67764856,アルカンシエル東成,,アルカンシエル東成（）,東成区中本4－1－21,東成区,06-6978-1200,,定員： 90,,http://www.kozinkai.or.jp/,,,,医療・福祉,特別養護老人ホーム,医療・福祉/特別養護老人ホーム,217,9645
135.555011,34.67864289,サンローズオオサカ,,サンローズオオサカ（）,東成区神路1-10-3,東成区,06-6974-7388,,定員： 72,,http://www.omichikai.or.jp/sunrose/index.htm,,,,医療・福祉,特別養護老人ホーム,医療・福祉/特別養護老人ホーム,217,9643
135.5407649,34.69796558,城東こすもす苑,,城東こすもす苑（）,城東区蒲生2-2-38,城東区,06-6933-2002,,定員： 72,,http://www.seisuikai.net/,,,,医療・福祉,特別養護老人ホーム,医療・福祉/特別養護老人ホーム,217,9666
135.5439577,34.69803944,至善荘,,至善荘（）,城東区蒲生4-2-10,城東区,06-6930-7258,,定員： 53,,,,,,医療・福祉,特別養護老人ホーム,医療・福祉/特別養護老人ホーム,217,9664
135.5738136,34.68872564,リベルタヴィータ,,リベルタヴィータ（）,鶴見区今津南3-5-5,鶴見区,06-6963-6360,,定員： 110,,,,,,医療・福祉,特別養護老人ホーム,医療・福祉/特別養護老人ホーム,217,9668
135.5486826,34.69188442,しぎの黄金の里,,しぎの黄金の里（）,城東区鴫野東2-26-12,城東区,06-6963-5551,,定員： 125,,http://www.kogane.or.jp/,,,,医療・福祉,特別養護老人ホーム,医療・福祉/特別養護老人ホーム,217,9663
135.6364658,34.60958931,大阪市立大畑山苑,,大阪市立大畑山苑（）,八尾市大字恩智1092-2,大阪市以外,0729-41-0252,,定員： 70,,http://www.shitennoji-fukushi.jp/oohatayamaen/index.html,,,,医療・福祉,特別養護老人ホーム,医療・福祉/特別養護老人ホーム,217,9705
135.4424451,34.70287061,西淀川,,西淀川（）,西淀川区大和田2-5-11,西淀川区,06-6477-6565,,定員： 104,,,,,,医療・福祉,特別養護老人ホーム,医療・福祉/特別養護老人ホーム,217,9628
135.4495578,34.70359583,姫島みずほ苑,,姫島みずほ苑（）,西淀川区姫島5-11-24,西淀川区,06-6477-0050,,定員： 71,,http://kishoukai.or.jp/mizuhoen/,,,,医療・福祉,特別養護老人ホーム,医療・福祉/特別養護老人ホーム,217,9630
135.4529635,34.71182281,ルーチェ千舟,,ルーチェ千舟（）,西淀川区千舟2-7-2,西淀川区,06-6477-1010,,定員： 80,,,,,,医療・福祉,特別養護老人ホーム,医療・福祉/特別養護老人ホーム,217,9629
135.4586681,34.72518047,加寿苑,,加寿苑（）,淀川区加島1-34-8,淀川区,06-6305-0711,,定員： 84,,http://www1.odn.ne.jp/~aap70820/,,,,医療・福祉,特別養護老人ホーム,医療・福祉/特別養護老人ホーム,217,9634
135.4853911,34.70080161,淳風おおさか,,淳風おおさか（）,北区大淀南2-5-20,北区,06-6450-1088,,定員： 80,,,,,,医療・福祉,特別養護老人ホーム,医療・福祉/特別養護老人ホーム,217,9605
135.5050224,34.70424461,北野よろこび苑,,北野よろこび苑（）,北区神山町15-12,北区,06-6311-4652,,定員： 50,,,,,,医療・福祉,特別養護老人ホーム,医療・福祉/特別養護老人ホーム,217,9604
135.4950081,34.70811097,喜久寿苑,,喜久寿苑（）,北区芝田2-10-39,北区,06-6372-1001,,定員： 100,,,,,,医療・福祉,特別養護老人ホーム,医療・福祉/特別養護老人ホーム,217,9602
135.5163924,34.71071772,鶴満寺聚楽院,,鶴満寺聚楽院（）,北区長柄東1-3-12,北区,06-6351-7301,,定員： 50,,,,,,医療・福祉,特別養護老人ホーム,医療・福祉/特別養護老人ホーム,217,9601
135.4761266,34.72282336,博愛の園,,博愛の園（）,淀川区十三元今里3-1-88,淀川区,06-6301-8901,,定員： 73,,http://www.hakuaisha-welfare.net/,,,,医療・福祉,特別養護老人ホーム,医療・福祉/特別養護老人ホーム,217,9633
135.487091,34.72777931,暖気の苑,,暖気の苑（）,淀川区木川西4ー5-40,淀川区,06-6885-7811,,定員： 104,,http://danke.tokuyou.jp/,,,,医療・福祉,特別養護老人ホーム,医療・福祉/特別養護老人ホーム,217,9632
135.506347,34.71391331,藤ミレニアム,,藤ミレニアム（）,北区本庄西2-6-15,北区,06-6371-6233,,定員： 74,,,,,,医療・福祉,特別養護老人ホーム,医療・福祉/特別養護老人ホーム,217,9603
135.4792972,34.73540333,平成新高苑,,平成新高苑（）,淀川区新高4-15-25,淀川区,06-6397-0710,,定員： 90,,,,,,医療・福祉,特別養護老人ホーム,医療・福祉/特別養護老人ホーム,217,9636
135.4860797,34.735551,コモンズ三国,,コモンズ三国（）,淀川区三国本町2-14-23,淀川区,06-6396-8921,,定員： 60,,,,,,医療・福祉,特別養護老人ホーム,医療・福祉/特別養護老人ホーム,217,9635
135.5196809,34.73342228,ジュネス,,ジュネス（）,東淀川区東淡路1-4-49,東淀川区,06-6325-3336,,定員： 104,,http://www.ojk.or.jp/riberute/junes/junes.html,,,,医療・福祉,特別養護老人ホーム,医療・福祉/特別養護老人ホーム,217,9638
135.513362,34.73832483,だんらん,,だんらん（）,東淀川区淡路3-13-37,東淀川区,06-6328-2941,,定員： 80,,http://normalization-kyokai.jp/,,,,医療・福祉,特別養護老人ホーム,医療・福祉/特別養護老人ホーム,217,9639
135.5171127,34.74332417,淡路介護老人福祉施設　ビハーラ,,淡路介護老人福祉施設　ビハーラ（）,東淀川区淡路5-11-17,東淀川区,06-6370-5501,,定員： 50,,,,,,医療・福祉,特別養護老人ホーム,医療・福祉/特別養護老人ホーム,217,9641
135.5358661,34.70476156,青都荘,,青都荘（）,都島区都島中通3－14－20,都島区,06-6926-2351,,定員： 90,,http://www.seitoso.jp/,,,,医療・福祉,特別養護老人ホーム,医療・福祉/特別養護老人ホーム,217,9608
135.5240414,34.70654503,からまつ苑,,からまつ苑（）,都島区中野町5-10-70,都島区,06-6922-3300,,定員： 104,,http://www.karamatsuen.com/,,,,医療・福祉,特別養護老人ホーム,医療・福祉/特別養護老人ホーム,217,9606
135.5318446,34.70705272,ひまわりの郷,,ひまわりの郷（）,都島区都島本通4-10-19,都島区,06-6924-8880,,定員： 80,,http://www5.ocn.ne.jp/~hi-sato/,,,,医療・福祉,特別養護老人ホーム,医療・福祉/特別養護老人ホーム,217,9607
135.5550743,34.70335914,城東園,,城東園（）,城東区今福東2-2-25,城東区,06-6931-3825,,定員： 100,,,,,,医療・福祉,特別養護老人ホーム,医療・福祉/特別養護老人ホーム,217,9662
135.5574782,34.70884794,城東特別養護老人ホーム,,城東特別養護老人ホーム（）,城東区古市1-20-17,城東区,06-6931-5190,,定員： 70,,http://www.sekime-gakuen.net/joto/,,,,医療・福祉,特別養護老人ホーム,医療・福祉/特別養護老人ホーム,217,9665
135.53681,34.71849914,高殿苑,,高殿苑（）,旭区高殿2-11-26,旭区,06-6923-0069,,定員： 80,,http://www.houjukai.jp/,,,,医療・福祉,特別養護老人ホーム,医療・福祉/特別養護老人ホーム,217,9656
135.5465859,34.71934681,ゆうゆう,,ゆうゆう（）,旭区高殿6-24-12,旭区,06-4254-2221,,定員： 80,,http://www.aiai-1122.or.jp/index.html,,,,医療・福祉,特別養護老人ホーム,医療・福祉/特別養護老人ホーム,217,9659
135.5309458,34.72440669,ライフライト,,ライフライト（）,旭区赤川2-1-20,旭区,06-6924-0030,,定員： 80,,,,,,医療・福祉,特別養護老人ホーム,医療・福祉/特別養護老人ホーム,217,9657
135.5327063,34.72243533,あいあい,,あいあい（）,旭区赤川1-6-12,旭区,06-6926-1122,,定員： 50,,http://www.aiai-1122.or.jp/index.html,,,,医療・福祉,特別養護老人ホーム,医療・福祉/特別養護老人ホーム,217,9658
135.5588533,34.72295219,旭さくら苑,,旭さくら苑（）,旭区清水3-15-23,旭区,06-6957-8008,,定員： 120,,,,,,医療・福祉,特別養護老人ホーム,医療・福祉/特別養護老人ホーム,217,9661
135.5778332,34.70110144,ウェルシーライフ,,ウェルシーライフ（）,鶴見区諸口1-14-43,鶴見区,06-6914-3331,,定員： 70,,,,,,医療・福祉,特別養護老人ホーム,医療・福祉/特別養護老人ホーム,217,9669
135.5911785,34.7026675,ファミリー,,ファミリー（）,鶴見区安田2-1-27,鶴見区,06-6915-1717,,定員： 104,,http://www2.family.ed.jp/~family/,,,,医療・福祉,特別養護老人ホーム,医療・福祉/特別養護老人ホーム,217,9667
135.5822946,34.71702864,浜,,浜（）,鶴見区浜5－6－14,鶴見区,06-4257-3660,,定員： 90,,http://www.waetsukai.jp/home/hama.php,,,,医療・福祉,特別養護老人ホーム,医療・福祉/特別養護老人ホーム,217,9670
135.5352119,34.72916731,生江特別養護老人ホーム白寿荘,,生江特別養護老人ホーム白寿荘（）,旭区生江3-27-1,旭区,06-6925-8910,,定員： 81,,http://www.liberta.or.jp/,,,,医療・福祉,特別養護老人ホーム,医療・福祉/特別養護老人ホーム,217,9660
135.5272019,34.74271703,さわやか苑,,さわやか苑（）,東淀川区豊新2-15-20,東淀川区,06-6815-9292,,定員： 122,,,,,,医療・福祉,特別養護老人ホーム,医療・福祉/特別養護老人ホーム,217,9640
135.5443889,34.74567478,とよさと黄金の里,,とよさと黄金の里（）,東淀川区大桐1－7－16,東淀川区,06-6990-6881,,定員： 95,,http://www.kogane.or.jp/,,,,医療・福祉,特別養護老人ホーム,医療・福祉/特別養護老人ホーム,217,9642
135.5132191,34.80701256,大阪市立弘済院第2,,大阪市立弘済院第2（）,吹田市古江台6-2-1,大阪市以外,06-6871-8020,,定員： 70,,,,,,医療・福祉,特別養護老人ホーム,医療・福祉/特別養護老人ホーム,217,9706
135.5119208,34.80819639,大阪市立弘済院第１,,大阪市立弘済院第１（）,吹田市古江台6-2-1,大阪市以外,06-6871-8018,,定員：270,,,,,,医療・福祉,特別養護老人ホーム,医療・福祉/特別養護老人ホーム,217,37771
135.5438135,34.76652819,井高野園,,井高野園（）,東淀川区井高野3-1-58,東淀川区,06-6349-3417,,定員： 100,,http://itakanoen.or.jp/,,,,医療・福祉,特別養護老人ホーム,医療・福祉/特別養護老人ホーム,217,9637
135.525952,34.62837,田辺駅前ケアセンター,たなべえきまえけあせんたー,田辺駅前ケアセンター（たなべえきまえけあせんたー）,東住吉区北田辺６丁目１６－３０,東住吉区,06-6622-1165,,,,,,,,医療・福祉,介護老人保健施設,医療・福祉/介護老人保健施設,218,95026
135.458481,34.607709,はまさき３,はまさき３,はまさき３（はまさき３）,住之江区平林南２丁目４－７,住之江区,06-4702-0880,,,,,,,,医療・福祉,介護老人保健施設,医療・福祉/介護老人保健施設,218,95025
135.5369,34.616063,　サナティオ湯里,さなてぃお　ゆざと,　サナティオ湯里（さなてぃお　ゆざと）,東住吉区湯里２丁目１６－３,東住吉区,06-6703-4535,,,,,,,,医療・福祉,介護老人保健施設,医療・福祉/介護老人保健施設,218,95027
135.4427261,34.69585217,なごみだいら,,なごみだいら（）,西淀川区福町2-11-7,西淀川区,06-4808-2961,,定員： 180,,,,,,医療・福祉,介護老人保健施設,医療・福祉/介護老人保健施設,218,9727
135.4773305,34.60176589,はまさき,,はまさき（）,住之江区北島3-6-27,住之江区,06-6681-5660,,定員： 60,,,,,,医療・福祉,介護老人保健施設,医療・福祉/介護老人保健施設,218,9752
135.4986826,34.60059722,オりオノケアーセンター,,オりオノケアーセンター（）,住吉区遠里小野1-2-21,住吉区,06-6695-1811,,定員： 62,,http://www18.ocn.ne.jp/~oriono/,,,,医療・福祉,介護老人保健施設,医療・福祉/介護老人保健施設,218,9756
135.4766878,34.60330756,アロンティアクラブ,,アロンティアクラブ（）,住之江区北島2-7-32,住之江区,06-6682-6620,,定員： 100,,,,,,医療・福祉,介護老人保健施設,医療・福祉/介護老人保健施設,218,9751
135.4767073,34.60906436,介護老人保健施設　はまさき2,,介護老人保健施設　はまさき2（）,住之江区御崎4-11-13,住之江区,06-4702-5530,,定員： 100,,,,,,医療・福祉,介護老人保健施設,医療・福祉/介護老人保健施設,218,9754
135.4795781,34.61453136,カルチェ住吉川,,カルチェ住吉川（）,住之江区中加賀屋4-5-27,住之江区,06-6686-2511,,定員： 62,,,,,,医療・福祉,介護老人保健施設,医療・福祉/介護老人保健施設,218,9753
135.5015413,34.60955456,老人保健施設　錦秀苑,,老人保健施設　錦秀苑（）,住吉区南住吉1-22-17,住吉区,06-6605-5221,,定員： 100,,http://www.kinshukai.or.jp/kinshukai/kinsyuen/index.html,,,,医療・福祉,介護老人保健施設,医療・福祉/介護老人保健施設,218,9758
135.425345,34.63815106,介護老人保健施設　雅秀苑,,介護老人保健施設　雅秀苑（）,住之江区南港北1-4-1,住之江区,06-6613-8501,,定員： 150,,,,,,医療・福祉,介護老人保健施設,医療・福祉/介護老人保健施設,218,9755
135.4541089,34.63762481,介護老人保健施設　つるまち,,介護老人保健施設　つるまち（）,大正区鶴町2-15-18,大正区,06-6553-6666,,定員： 100,,,,,,医療・福祉,介護老人保健施設,医療・福祉/介護老人保健施設,218,9719
135.4895649,34.62481225,老人保健施設　やまき苑,,老人保健施設　やまき苑（）,西成区玉出西2-5-36,西成区,06-6659-2222,,定員： 100,,,,,,医療・福祉,介護老人保健施設,医療・福祉/介護老人保健施設,218,9772
135.5023706,34.62022864,老人保健施設　聖和苑,,老人保健施設　聖和苑（）,住吉区帝塚山東2-1-35,住吉区,06-4701-7011,,定員： 100,,http://www.tezukayama.or.jp/seiwa/index.html,,,,医療・福祉,介護老人保健施設,医療・福祉/介護老人保健施設,218,9757
135.4953207,34.63333903,はるか,,はるか（）,西成区岸里2-6-9,西成区,06-6659-0030,,定員： 58,,http://www.yamakikai.or.jp/information/info02.html,,,,医療・福祉,介護老人保健施設,医療・福祉/介護老人保健施設,218,9774
135.4759581,34.64331533,愛の里,,愛の里（）,大正区小林東2-6-14,大正区,06-6555-4165,,定員：100,,,,,,医療・福祉,介護老人保健施設,医療・福祉/介護老人保健施設,218,29706
135.4860224,34.64277989,レジデント梅南,,レジデント梅南（）,西成区梅南3-8-35,西成区,06-4398-9111,,定員： 100,,http://www.koikegeka.net/,,,,医療・福祉,介護老人保健施設,医療・福祉/介護老人保健施設,218,9773
135.4941538,34.64333122,大阪市立介護老人保健施設　おとしよりすこやかセンター南部花園館,,大阪市立介護老人保健施設　おとしよりすこやかセンター南部花園館（）,西成区梅南1-4-26,西成区,06-6651-8700,,定員： 100,,http://www.daiwakai.or.jp/sukoyaka/index.htm,,,,医療・福祉,介護老人保健施設,医療・福祉/介護老人保健施設,218,9771
135.5153347,34.63393811,介護老人保健施設　やまき・あべの苑,,介護老人保健施設　やまき・あべの苑（）,阿倍野区阪南町1-45-8,阿倍野区,06-4399-8600,,定員： 100,,http://yamakikai.or.jp/abenoen/index.html,,,,医療・福祉,介護老人保健施設,医療・福祉/介護老人保健施設,218,9750
135.5247205,34.59881369,西中介護老人保健施設　ヴィーブルジョワ,,西中介護老人保健施設　ヴィーブルジョワ（）,東住吉区公園南矢田4-19-29,東住吉区,06-6698-9191,,定員： 100,,,,,,医療・福祉,介護老人保健施設,医療・福祉/介護老人保健施設,218,9762
135.5267538,34.59938231,パークサイドなごみ,,パークサイドなごみ（）,東住吉区公園南矢田3-19-12,東住吉区,06-6606-2211,,定員： 100,,,,,,医療・福祉,介護老人保健施設,医療・福祉/介護老人保健施設,218,9763
135.5467369,34.59657278,永寿ケアセンター,,永寿ケアセンター（）,平野区瓜破南1-2-30,平野区,06-6760-0707,,定員： 100,,http://www.eijyu.or.jp/,,,,医療・福祉,介護老人保健施設,医療・福祉/介護老人保健施設,218,9768
135.5431048,34.600358,老人保健施設　たちばな,,老人保健施設　たちばな（）,東住吉区住道矢田9-11-11,東住吉区,06-6769-0600,,定員： 100,,,,,,医療・福祉,介護老人保健施設,医療・福祉/介護老人保健施設,218,9759
135.5754953,34.59767122,ながよし苑,,ながよし苑（）,平野区長吉川辺3-8-5,平野区,06-6701-3115,,定員： 100,,http://www.rapport-nagayoshien.jp/,,,,医療・福祉,介護老人保健施設,医療・福祉/介護老人保健施設,218,9766
135.5368976,34.61425189,介護老人保健施設　ヴァンサンク,,介護老人保健施設　ヴァンサンク（）,東住吉区湯里2-12-26,東住吉区,06-6704-3511,,定員： 100,,http://kaseikai.or.jp/,,,,医療・福祉,介護老人保健施設,医療・福祉/介護老人保健施設,218,9761
135.5475891,34.61077042,大阪市立介護老人保健施設　おとしよりすこやかセンター南部館,,大阪市立介護老人保健施設　おとしよりすこやかセンター南部館（）,平野区喜連西6-2-33,平野区,06-6701-6700,,定員： 100,,,,,,医療・福祉,介護老人保健施設,医療・福祉/介護老人保健施設,218,9765
135.5676004,34.60642778,介護療養型老人保健施設ナーシングホーム長吉,,介護療養型老人保健施設ナーシングホーム長吉（）,平野区長吉長原1-2-34,平野区,06-6709-0301,,定員： 29,,,,,,医療・福祉,介護老人保健施設,医療・福祉/介護老人保健施設,218,9769
135.5584235,34.61929717,オアシス,,オアシス（）,平野区平野南1-7-7,平野区,06-6790-1760,,定員： 100,,http://oasisgroup.or.jp/shisetsu_01.html,,,,医療・福祉,介護老人保健施設,医療・福祉/介護老人保健施設,218,9767
135.5596254,34.62357075,平野新生苑,,平野新生苑（）,平野区平野東1-8-29,平野区,06-6791-0081,,定員： 43,,,,,,医療・福祉,介護老人保健施設,医療・福祉/介護老人保健施設,218,9764
135.5621479,34.62510942,介護老人保健施設　フェリス加美,,介護老人保健施設　フェリス加美（）,平野区加美西2-3-1,平野区,06-6795‐1178,,定員： 60,,,,,,医療・福祉,介護老人保健施設,医療・福祉/介護老人保健施設,218,9770
135.5325284,34.6375705,老人保健施設　桑の実,,老人保健施設　桑の実（）,東住吉区桑津4-4-5,東住吉区,06-6710-7555,,定員： 100,,http://www.kuwanomi-yodoi.or.jp/,,,,医療・福祉,介護老人保健施設,医療・福祉/介護老人保健施設,218,9760
135.5280447,34.64540828,介護老人保健施設　東雄苑寺田町,,介護老人保健施設　東雄苑寺田町（）,生野区林寺1-4-24,生野区,06-6712-5030,,定員： 150,,http://www.kishoukai.or.jp/,,,,医療・福祉,介護老人保健施設,医療・福祉/介護老人保健施設,218,9739
135.434964,34.65517106,老人保健施設　てんぽーざん,,老人保健施設　てんぽーざん（）,港区築港3-4-25,港区,06-6599-1616,,定員： 100,,,,,,医療・福祉,介護老人保健施設,医療・福祉/介護老人保健施設,218,9716
135.4563073,34.67130989,介護老人保健施設　港さつき苑,,介護老人保健施設　港さつき苑（）,港区弁天4-16-18,港区,06-6571-6675,,定員： 120,,http://www.minato-satsukien.jp/index.html,,,,医療・福祉,介護老人保健施設,医療・福祉/介護老人保健施設,218,9717
135.4714549,34.66061172,介護老人保健施設　エバーグリーン,,介護老人保健施設　エバーグリーン（）,大正区泉尾2-20-4,大正区,06-6553-0730,,定員： 100,,,,,,医療・福祉,介護老人保健施設,医療・福祉/介護老人保健施設,218,9718
135.4858728,34.66563533,さくらがわ,,さくらがわ（）,浪速区桜川4-10-13,浪速区,06-6567-4165,,定員： 100,,,,,,医療・福祉,介護老人保健施設,医療・福祉/介護老人保健施設,218,9722
135.4705656,34.67399686,介護老人保健施設　健勝園九条,,介護老人保健施設　健勝園九条（）,西区九条南3-20-6,西区,06-4393-2525,,定員： 100,,,,,,医療・福祉,介護老人保健施設,医療・福祉/介護老人保健施設,218,9714
135.5156877,34.66442397,れいんぼう夕陽丘,,れいんぼう夕陽丘（）,天王寺区生玉前町3-24,天王寺区,06-6770-2211,,定員： 73,,,,,,医療・福祉,介護老人保健施設,医療・福祉/介護老人保健施設,218,9721
135.5076089,34.671591,介護老人保健施設　おとしより健康センター,,介護老人保健施設　おとしより健康センター（）,中央区島之内2-12-28,中央区,06-6212-3271,,定員： 80,,,,,,医療・福祉,介護老人保健施設,医療・福祉/介護老人保健施設,218,9713
135.5221347,34.67541789,みずほ倶楽部,,みずほ倶楽部（）,天王寺区清水谷町5-27,天王寺区,06-6767-2311,,定員： 100,,http://www.mizuho-kai.com/,,,,医療・福祉,介護老人保健施設,医療・福祉/介護老人保健施設,218,9720
135.4645733,34.684745,大阪市立介護老人保健施設　おとしよりすこやかセンター西部館,,大阪市立介護老人保健施設　おとしよりすこやかセンター西部館（）,此花区西九条5-3-51,此花区,06-6466-8880,,定員： 70,,http://www.gyoumeikan.or.jp/clinic/sukoyakacenter.htm,,,,医療・福祉,介護老人保健施設,医療・福祉/介護老人保健施設,218,9712
135.4695017,34.68965669,老人保健施設　のだふじ,,老人保健施設　のだふじ（）,福島区吉野4-29-18,福島区,06-6463-1131,,定員： 80,,,,,,医療・福祉,介護老人保健施設,医療・福祉/介護老人保健施設,218,9711
135.4390879,34.70079939,セレーナなとり,,セレーナなとり（）,西淀川区大野2-1-35,西淀川区,06-6474-9732,,定員： 50,,http://www.hakuyuukai.or.jp/,,,,医療・福祉,介護老人保健施設,医療・福祉/介護老人保健施設,218,9725
135.4534769,34.70277347,よどの里,,よどの里（）,西淀川区姫島2-13-20,西淀川区,06-6473-5152,,定員： 100,,,,,,医療・福祉,介護老人保健施設,医療・福祉/介護老人保健施設,218,9726
135.4792002,34.67855239,介護老人保健施設　えきさい大阪,,介護老人保健施設　えきさい大阪（）,西区本田2-1-10,西区,06-6581-7655,,定員： 100,,http://www.ekisai-osaka.jp/,,,,医療・福祉,介護老人保健施設,医療・福祉/介護老人保健施設,218,9715
135.5238851,34.70124067,介護老人保健施設　東雄苑都島,,介護老人保健施設　東雄苑都島（）,都島区中野町1-13-12,都島区,06-6135-0505,,定員： 100,,http://www.kishoukai.or.jp/,,,,医療・福祉,介護老人保健施設,医療・福祉/介護老人保健施設,218,9710
135.5470555,34.64988264,ひまわり,,ひまわり（）,生野区巽西2-9-31,生野区,06-6751-7290,,定員： 100,,,,,,医療・福祉,介護老人保健施設,医療・福祉/介護老人保健施設,218,9735
135.5350388,34.65759439,すこやか生野,,すこやか生野（）,生野区勝山北4-1-8,生野区,06-6717-8002,,定員： 51,,http://www.aeba.or.jp/,,,,医療・福祉,介護老人保健施設,医療・福祉/介護老人保健施設,218,9737
135.5458064,34.6581305,ケアホーム　フォーシーズン,,ケアホーム　フォーシーズン（）,生野区中川5-4-2,生野区,06-6755-1000,,定員： 100,,,,,,医療・福祉,介護老人保健施設,医療・福祉/介護老人保健施設,218,9738
135.553328,34.65181211,ハーモニー共和,,ハーモニー共和（）,生野区巽中1-20-14,生野区,06-6755-0001,,定員： 100,,,,,,医療・福祉,介護老人保健施設,医療・福祉/介護老人保健施設,218,9736
135.5415201,34.66890506,介護老人保健施設　大今里ケアホーム,,介護老人保健施設　大今里ケアホーム（）,東成区大今里西2-17-16,東成区,06-6975-3090,,定員： 136,,http://www.i-carehome.com/,,,,医療・福祉,介護老人保健施設,医療・福祉/介護老人保健施設,218,9733
135.5482009,34.67937942,大阪市立介護老人保健施設　おとしよりすこやかセンター東部館,,大阪市立介護老人保健施設　おとしよりすこやかセンター東部館（）,東成区東中本2-5-31,東成区,06-6977-0010,,定員： 100,,,,,,医療・福祉,介護老人保健施設,医療・福祉/介護老人保健施設,218,9732
135.5471647,34.68140608,介護老人保健施設　フィニート　　,,介護老人保健施設　フィニート　　（）,東成区東中本1-4-17,東成区,06-6974-2220,,定員： 9,,http://www.geocities.jp/hukudasinnryousyo/index.html,,,,医療・福祉,介護老人保健施設,医療・福祉/介護老人保健施設,218,9734
135.5366059,34.69023617,大阪城ケアホーム,,大阪城ケアホーム（）,城東区鴫野西2-5-24,城東区,06-6961-1151,,定員： 100,,http://www.carehome.or.jp/,,,,医療・福祉,介護老人保健施設,医療・福祉/介護老人保健施設,218,9746
135.5520223,34.68250933,グリーンライフ,,グリーンライフ（）,城東区東中浜9-3-9,城東区,06-6965-0666,,定員： 100,,http://www.omichikai.or.jp/green/index.htm,,,,医療・福祉,介護老人保健施設,医療・福祉/介護老人保健施設,218,9745
135.5282414,34.70495764,医療法人明生会　介護老人保健施設 　桜の宮苑,,医療法人明生会　介護老人保健施設 　桜の宮苑（）,都島区都島中通1-7-1,都島区,06-6923-5656,,定員： 150,,http://www.meiseigrp.jp/sakuranomiya-en/index.html,,,,医療・福祉,介護老人保健施設,医療・福祉/介護老人保健施設,218,9709
135.5469073,34.70142308,幸成園,,幸成園（）,城東区今福西3-1-16,城東区,06-6939-1881,,定員： 82,,,,,,医療・福祉,介護老人保健施設,医療・福祉/介護老人保健施設,218,9743
135.5587947,34.69393294,放出ふれあいセンター,,放出ふれあいセンター（）,城東区放出西2-18-4,城東区,06-6962-0871,,定員： 60,,,,,,医療・福祉,介護老人保健施設,医療・福祉/介護老人保健施設,218,9744
135.5672582,34.69674953,介護老人保健施設　鶴見せいわ園,,介護老人保健施設　鶴見せいわ園（）,鶴見区鶴見1-6-111,鶴見区,06-4257-1250,,定員： 100,,,,,,医療・福祉,介護老人保健施設,医療・福祉/介護老人保健施設,218,9749
135.5706565,34.70422725,つるみ老人保健施設　ラガール,,つるみ老人保健施設　ラガール（）,鶴見区横堤4-3-30,鶴見区,06-6915-8181,,定員： 127,,,,,,医療・福祉,介護老人保健施設,医療・福祉/介護老人保健施設,218,9747
135.5866659,34.70135664,老人保健施設　プリオール,,老人保健施設　プリオール（）,鶴見区中茶屋2-1-22,鶴見区,06-6914-6660,,定員： 60,,,,,,医療・福祉,介護老人保健施設,医療・福祉/介護老人保健施設,218,9748
135.4415713,34.70600075,フェリス大和田,,フェリス大和田（）,西淀川区大和田6-13-48,西淀川区,06-6474-6668,,定員： 48,,,,,,医療・福祉,介護老人保健施設,医療・福祉/介護老人保健施設,218,9723
135.446844,34.71298142,ユーアイ,,ユーアイ（）,西淀川区佃2-2-58,西淀川区,06-6471-5236,,定員： 100,,http://www.aijinkai.or.jp/,,,,医療・福祉,介護老人保健施設,医療・福祉/介護老人保健施設,218,9724
135.4950081,34.70811097,ライフケア中津,,ライフケア中津（）,北区芝田2-10-39,北区,06-6372-1104,,定員： 100,,,,,,医療・福祉,介護老人保健施設,医療・福祉/介護老人保健施設,218,9707
135.5022291,34.70749581,介護老人保健施設 青美,,介護老人保健施設 青美（）,北区中崎西3-3-40,北区,06-6485-2283,,定員： 100,,,,,,医療・福祉,介護老人保健施設,医療・福祉/介護老人保健施設,218,9708
135.4834609,34.72435872,淀川老人保健施設　ハートフル,,淀川老人保健施設　ハートフル（）,淀川区十三東5-3-29,淀川区,06-6302-8686,,定員： 150,,,,,,医療・福祉,介護老人保健施設,医療・福祉/介護老人保健施設,218,9728
135.5110894,34.73539228,淀川キリスト教病院老人保健施設,,淀川キリスト教病院老人保健施設（）,東淀川区淡路2-1-41,東淀川区,06-6815-8222,,定員： 100,,http://www.ych.or.jp/,,,,医療・福祉,介護老人保健施設,医療・福祉/介護老人保健施設,218,9730
135.5463319,34.71727119,大阪市立介護老人保健施設　おとしよりすこやかセンター北部館,,大阪市立介護老人保健施設　おとしよりすこやかセンター北部館（）,旭区高殿6-14-41,旭区,06-6955-4865,,定員： 100,,http://www.maki-group.jp/,,,,医療・福祉,介護老人保健施設,医療・福祉/介護老人保健施設,218,9742
135.538175,34.72415308,牧老人保健施設,,牧老人保健施設（）,旭区生江2-15-14,旭区,06-6929-0300,,定員： 70,,,,,,医療・福祉,介護老人保健施設,医療・福祉/介護老人保健施設,218,9740
135.5572161,34.72060644,おひさま園,,おひさま園（）,旭区清水2-1-21,旭区,06-6952-0101,,定員： 91,,http://seisuikai.net/,,,,医療・福祉,介護老人保健施設,医療・福祉/介護老人保健施設,218,9741
135.5251254,34.735551,エスペラル東淀川,,エスペラル東淀川（）,東淀川区菅原1-1-21,東淀川区,06-6325-1781,,定員： 150,,http://www.esp-higashiyodogawa.com/,,,,医療・福祉,介護老人保健施設,医療・福祉/介護老人保健施設,218,9729
135.5486712,34.76708278,介護老人保健施設　エスペラル井高野,,介護老人保健施設　エスペラル井高野（）,東淀川区井高野4-6-37,東淀川区,06-6829-2200,,定員： 120,,http://www.esp-itakano.com/,,,,医療・福祉,介護老人保健施設,医療・福祉/介護老人保健施設,218,9731
